{
"type": "FeatureCollection",
"name": "沿海一般保護區",
"xy_coordinate_resolution": 1e-06,
"features": [
{"type":"Feature","properties":{"ZONE":"一般保護區","NAME":"彰雲嘉沿海","AREA":927469772.37},"geometry":{"type":"Polygon","coordinates":[[[120.279208,23.811787],[120.279181,23.811956],[120.27879,23.812463],[120.278761,23.813413],[120.282802,23.812927],[120.286812,23.811831],[120.291747,23.810101],[120.294694,23.808941],[120.295463,23.808817],[120.295472,23.808913],[120.295189,23.809147],[120.295179,23.809338],[120.295729,23.810221],[120.296071,23.811592],[120.296902,23.814311],[120.297761,23.816391],[120.298412,23.81834],[120.2985,23.819428],[120.299296,23.822973],[120.300325,23.826466],[120.301666,23.830139],[120.301751,23.830811],[120.301631,23.831607],[120.30149,23.83216],[120.301217,23.832375],[120.285233,23.836486],[120.277303,23.838976],[120.276941,23.839259],[120.273056,23.84338],[120.272365,23.846007],[120.272108,23.847464],[120.272193,23.847506],[120.276657,23.846513],[120.282965,23.850719],[120.283159,23.850924],[120.287812,23.859524],[120.291095,23.866183],[120.299995,23.886315],[120.30755,23.903623],[120.314521,23.922138],[120.314473,23.922222],[120.31324,23.922494],[120.312132,23.922903],[120.314908,23.928592],[120.315467,23.928504],[120.317407,23.928516],[120.317736,23.928701],[120.319948,23.928792],[120.320207,23.928941],[120.330771,23.946725],[120.338909,23.963634],[120.339052,23.963788],[120.3402,23.964478],[120.341116,23.965689],[120.342264,23.966922],[120.342246,23.967024],[120.34162,23.967536],[120.340791,23.967969],[120.339833,23.968115],[120.322674,23.967855],[120.322485,23.967401],[120.321595,23.965935],[120.32051,23.964639],[120.319315,23.962647],[120.316613,23.95859],[120.315442,23.956632],[120.314396,23.955343],[120.311898,23.951867],[120.310422,23.950122],[120.308886,23.946657],[120.307735,23.94492],[120.305038,23.941161],[120.304498,23.939991],[120.30485,23.938889],[120.305295,23.938264],[120.305802,23.937995],[120.306765,23.937756],[120.314402,23.936569],[120.315802,23.936329],[120.316802,23.936078],[120.317139,23.935931],[120.317472,23.93554],[120.31756,23.93519],[120.31753,23.934339],[120.317264,23.933509],[120.316044,23.931405],[120.314273,23.927543],[120.31309,23.925184],[120.312158,23.923055],[120.311817,23.922083],[120.311527,23.920484],[120.311155,23.919299],[120.310912,23.91889],[120.309729,23.917399],[120.308516,23.915328],[120.307994,23.91405],[120.307624,23.912308],[120.306639,23.911306],[120.306384,23.910937],[120.305638,23.909274],[120.305005,23.907445],[120.302478,23.904183],[120.30027,23.899992],[120.298738,23.898184],[120.296914,23.895875],[120.296398,23.895103],[120.296224,23.894772],[120.296196,23.893472],[120.296042,23.892232],[120.295048,23.890211],[120.294931,23.889888],[120.294821,23.888901],[120.294442,23.888107],[120.292823,23.885932],[120.291939,23.885028],[120.289984,23.882763],[120.288819,23.881196],[120.288353,23.880388],[120.287429,23.877266],[120.287245,23.875412],[120.287128,23.874937],[120.286841,23.874513],[120.283672,23.872503],[120.28228,23.871415],[120.281521,23.871062],[120.280743,23.870586],[120.278544,23.86875],[120.277345,23.867882],[120.276687,23.867303],[120.276313,23.867118],[120.275454,23.866758],[120.27387,23.866561],[120.272045,23.866051],[120.271602,23.866042],[120.270821,23.86625],[120.270447,23.866134],[120.268993,23.864966],[120.268582,23.864822],[120.267633,23.864994],[120.267072,23.86486],[120.26666,23.864833],[120.266154,23.864941],[120.26563,23.864853],[120.264889,23.864608],[120.264547,23.864421],[120.2636,23.864175],[120.263371,23.863903],[120.26304,23.862789],[120.262947,23.860565],[120.263597,23.856071],[120.263945,23.855158],[120.264536,23.85441],[120.2647,23.854094],[120.264835,23.853348],[120.265109,23.852453],[120.265847,23.851066],[120.266457,23.8501],[120.266628,23.84967],[120.266762,23.849187],[120.266784,23.848567],[120.266609,23.847654],[120.266776,23.846844],[120.267207,23.845548],[120.267256,23.844738],[120.266647,23.84416],[120.265556,23.844075],[120.265175,23.844126],[120.264115,23.845136],[120.263646,23.845276],[120.263392,23.84604],[120.262986,23.846244],[120.261407,23.845168],[120.261052,23.845004],[120.260349,23.844744],[120.259828,23.844793],[120.258422,23.843718],[120.258225,23.843252],[120.256328,23.843722],[120.255797,23.843649],[120.255448,23.843794],[120.255363,23.844191],[120.254635,23.844556],[120.254137,23.844598],[120.253792,23.84436],[120.253249,23.844305],[120.25184,23.844569],[120.250787,23.844878],[120.249013,23.844571],[120.248084,23.84458],[120.247704,23.84475],[120.245462,23.846525],[120.244801,23.847625],[120.244346,23.84884],[120.24399,23.848743],[120.243739,23.84848],[120.243325,23.848241],[120.242922,23.848564],[120.242674,23.848899],[120.241694,23.850933],[120.241434,23.851302],[120.240347,23.85222],[120.239325,23.853506],[120.238825,23.853497],[120.238469,23.853371],[120.238173,23.852965],[120.238034,23.852626],[120.237873,23.851747],[120.237386,23.850537],[120.236963,23.849763],[120.236587,23.849438],[120.236093,23.849296],[120.234114,23.849058],[120.231982,23.848454],[120.231096,23.8484],[120.230639,23.848178],[120.22989,23.848026],[120.229483,23.847839],[120.227525,23.84579],[120.226562,23.844438],[120.226872,23.844015],[120.229474,23.842464],[120.230379,23.841983],[120.233404,23.840623],[120.234951,23.83975],[120.238341,23.838016],[120.239968,23.837116],[120.241787,23.835807],[120.242835,23.835164],[120.247724,23.832682],[120.249139,23.83166],[120.250972,23.829914],[120.253121,23.828207],[120.257004,23.825282],[120.257758,23.824827],[120.258235,23.824701],[120.258246,23.824241],[120.259255,23.823458],[120.260355,23.822786],[120.263116,23.82076],[120.264297,23.820152],[120.265415,23.819852],[120.266368,23.819451],[120.267456,23.818826],[120.270149,23.817617],[120.272485,23.816111],[120.274225,23.815158],[120.276635,23.813357],[120.279208,23.811787]]]}}
]
}
