{
"type": "FeatureCollection",
"name": "eBird水鳥熱點",
"xy_coordinate_resolution": 1e-06,
"features": [
{"type":"Feature","properties":{"levels":"H"},"geometry":{"type":"Polygon","coordinates":[[[120.519268,23.762977],[120.520995,23.76365],[120.522348,23.76428],[120.519263,23.764271],[120.519268,23.762977]]]}},
{"type":"Feature","properties":{"levels":"H"},"geometry":{"type":"Polygon","coordinates":[[[120.529064,23.766942],[120.530773,23.767353],[120.532432,23.767911],[120.533508,23.768425],[120.536108,23.769938],[120.53681,23.770444],[120.537832,23.771442],[120.53849,23.771959],[120.538782,23.772373],[120.538856,23.772379],[120.538853,23.77336],[120.529041,23.77333],[120.529064,23.766942]]]}},
{"type":"Feature","properties":{"levels":"H"},"geometry":{"type":"Polygon","coordinates":[[[120.51923,23.7733],[120.529041,23.77333],[120.529009,23.78236],[120.519197,23.78233],[120.51923,23.7733]]]}},
{"type":"Feature","properties":{"levels":"H"},"geometry":{"type":"Polygon","coordinates":[[[120.273712,23.815453],[120.274225,23.815158],[120.277231,23.812974],[120.279487,23.811618],[120.281712,23.810412],[120.282524,23.809825],[120.283563,23.808819],[120.283515,23.817533],[120.273701,23.817487],[120.273712,23.815453]]]}},
{"type":"Feature","properties":{"levels":"H"},"geometry":{"type":"Polygon","coordinates":[[[120.255515,23.82643],[120.257421,23.825],[120.257758,23.824827],[120.258235,23.824701],[120.258246,23.824241],[120.259255,23.823458],[120.260355,23.822786],[120.263116,23.82076],[120.26387,23.820344],[120.263836,23.82647],[120.255515,23.82643]]]}},
{"type":"Feature","properties":{"levels":"H"},"geometry":{"type":"Polygon","coordinates":[[[120.26387,23.820344],[120.264297,23.820152],[120.265415,23.819852],[120.266368,23.819451],[120.267456,23.818826],[120.269018,23.818158],[120.270364,23.817471],[120.273701,23.817487],[120.273651,23.826516],[120.263836,23.82647],[120.26387,23.820344]]]}},
{"type":"Feature","properties":{"levels":"H"},"geometry":{"type":"Polygon","coordinates":[[[120.273701,23.817487],[120.283515,23.817533],[120.283466,23.826562],[120.273651,23.826516],[120.273701,23.817487]]]}},
{"type":"Feature","properties":{"levels":"H"},"geometry":{"type":"Polygon","coordinates":[[[120.793882,23.81906],[120.803697,23.819073],[120.803684,23.828102],[120.793868,23.828089],[120.793882,23.81906]]]}},
{"type":"Feature","properties":{"levels":"H"},"geometry":{"type":"Polygon","coordinates":[[[120.254014,23.827574],[120.255515,23.82643],[120.263836,23.82647],[120.263785,23.835499],[120.253969,23.835451],[120.254014,23.827574]]]}},
{"type":"Feature","properties":{"levels":"H"},"geometry":{"type":"Polygon","coordinates":[[[120.342356,23.826825],[120.352171,23.826866],[120.352126,23.835895],[120.34231,23.835854],[120.342356,23.826825]]]}},
{"type":"Feature","properties":{"levels":"H"},"geometry":{"type":"Polygon","coordinates":[[[120.793868,23.828089],[120.803684,23.828102],[120.80367,23.837132],[120.793854,23.837119],[120.793868,23.828089]]]}},
{"type":"Feature","properties":{"levels":"H"},"geometry":{"type":"MultiPolygon","coordinates":[[[[120.263734,23.844528],[120.264762,23.844533],[120.264115,23.845136],[120.26373,23.845251],[120.263734,23.844528]]],[[[120.264797,23.853562],[120.265109,23.852453],[120.265847,23.851066],[120.266457,23.8501],[120.266762,23.849187],[120.266784,23.848567],[120.266609,23.847654],[120.266776,23.846844],[120.267207,23.845548],[120.267256,23.844738],[120.267072,23.844544],[120.27355,23.844574],[120.2735,23.853603],[120.264797,23.853562]]]]}},
{"type":"Feature","properties":{"levels":"H"},"geometry":{"type":"Polygon","coordinates":[[[120.263021,23.862583],[120.262947,23.860565],[120.26367,23.855803],[120.263632,23.862586],[120.263021,23.862583]]]}},
{"type":"Feature","properties":{"levels":"H"},"geometry":{"type":"Polygon","coordinates":[[[120.263632,23.862586],[120.27345,23.862632],[120.273428,23.866436],[120.272045,23.866051],[120.271602,23.866042],[120.270821,23.86625],[120.270447,23.866134],[120.268993,23.864966],[120.268582,23.864822],[120.267633,23.864994],[120.26666,23.864833],[120.266154,23.864941],[120.265244,23.864741],[120.264547,23.864421],[120.263623,23.864182],[120.263632,23.862586]]]}},
{"type":"Feature","properties":{"levels":"H"},"geometry":{"type":"Polygon","coordinates":[[[120.27345,23.862632],[120.283267,23.862678],[120.283218,23.871707],[120.282706,23.871705],[120.28228,23.871415],[120.28111,23.870836],[120.280339,23.870302],[120.279725,23.869708],[120.276687,23.867303],[120.275454,23.866758],[120.27387,23.866561],[120.273428,23.866436],[120.27345,23.862632]]]}},
{"type":"Feature","properties":{"levels":"H"},"geometry":{"type":"Polygon","coordinates":[[[120.283218,23.871707],[120.293036,23.871753],[120.292987,23.880782],[120.288553,23.880761],[120.288192,23.879908],[120.287429,23.877266],[120.287245,23.875412],[120.287128,23.874937],[120.286841,23.874513],[120.286542,23.874298],[120.283342,23.87226],[120.283215,23.872134],[120.283218,23.871707]]]}},
{"type":"Feature","properties":{"levels":"H"},"geometry":{"type":"Polygon","coordinates":[[[120.292987,23.880782],[120.302806,23.880827],[120.302757,23.889856],[120.294924,23.88982],[120.294821,23.888901],[120.29469,23.888548],[120.294218,23.887745],[120.292958,23.886115],[120.292987,23.880782]]]}},
{"type":"Feature","properties":{"levels":"H"},"geometry":{"type":"Polygon","coordinates":[[[120.309485,23.916974],[120.308516,23.915328],[120.308118,23.91443],[120.307624,23.912308],[120.306639,23.911306],[120.306384,23.910937],[120.305638,23.909274],[120.305183,23.907925],[120.312482,23.907958],[120.312434,23.916987],[120.309485,23.916974]]]}},
{"type":"Feature","properties":{"levels":"H"},"geometry":{"type":"Polygon","coordinates":[[[120.312482,23.907958],[120.322303,23.908002],[120.322256,23.917031],[120.312434,23.916987],[120.312482,23.907958]]]}},
{"type":"Feature","properties":{"levels":"H"},"geometry":{"type":"Polygon","coordinates":[[[120.312399,23.923585],[120.311817,23.922083],[120.311527,23.920484],[120.311155,23.919299],[120.310912,23.91889],[120.309729,23.917399],[120.309485,23.916974],[120.312434,23.916987],[120.312399,23.923585]]]}},
{"type":"Feature","properties":{"levels":"H"},"geometry":{"type":"Polygon","coordinates":[[[120.312434,23.916987],[120.322256,23.917031],[120.322209,23.92606],[120.313499,23.926021],[120.312399,23.923585],[120.312434,23.916987]]]}},
{"type":"Feature","properties":{"levels":"H"},"geometry":{"type":"Polygon","coordinates":[[[120.317565,23.935068],[120.31753,23.934339],[120.317264,23.933509],[120.316044,23.931405],[120.314273,23.927543],[120.313499,23.926021],[120.322209,23.92606],[120.322162,23.935089],[120.317565,23.935068]]]}},
{"type":"Feature","properties":{"levels":"H"},"geometry":{"type":"Polygon","coordinates":[[[120.322209,23.92606],[120.332031,23.926103],[120.331985,23.935132],[120.322162,23.935089],[120.322209,23.92606]]]}},
{"type":"Feature","properties":{"levels":"H"},"geometry":{"type":"Polygon","coordinates":[[[120.307067,23.94405],[120.305362,23.941672],[120.305038,23.941161],[120.304498,23.939991],[120.304699,23.939223],[120.305051,23.938533],[120.305295,23.938264],[120.305802,23.937995],[120.306239,23.937868],[120.312329,23.936859],[120.312291,23.944074],[120.307067,23.94405]]]}},
{"type":"Feature","properties":{"levels":"H"},"geometry":{"type":"Polygon","coordinates":[[[120.312329,23.936859],[120.315802,23.936329],[120.316802,23.936078],[120.317139,23.935931],[120.317472,23.93554],[120.317565,23.935068],[120.322162,23.935089],[120.322114,23.944118],[120.312291,23.944074],[120.312329,23.936859]]]}},
{"type":"Feature","properties":{"levels":"H"},"geometry":{"type":"Polygon","coordinates":[[[120.312247,23.952342],[120.310422,23.950122],[120.308886,23.946657],[120.307735,23.94492],[120.307067,23.94405],[120.312291,23.944074],[120.312247,23.952342]]]}},
{"type":"Feature","properties":{"levels":"H"},"geometry":{"type":"Polygon","coordinates":[[[120.312291,23.944074],[120.322114,23.944118],[120.322067,23.953147],[120.312795,23.953105],[120.312247,23.952342],[120.312291,23.944074]]]}},
{"type":"Feature","properties":{"levels":"H"},"geometry":{"type":"Polygon","coordinates":[[[120.331938,23.944161],[120.341762,23.944203],[120.341716,23.953232],[120.331892,23.95319],[120.331938,23.944161]]]}},
{"type":"Feature","properties":{"levels":"H"},"geometry":{"type":"Polygon","coordinates":[[[120.318977,23.962162],[120.317341,23.959735],[120.315442,23.956632],[120.314396,23.955343],[120.312795,23.953105],[120.322067,23.953147],[120.32202,23.962176],[120.318977,23.962162]]]}},
{"type":"Feature","properties":{"levels":"H"},"geometry":{"type":"Polygon","coordinates":[[[120.322067,23.953147],[120.331892,23.95319],[120.331845,23.962219],[120.32202,23.962176],[120.322067,23.953147]]]}},
{"type":"Feature","properties":{"levels":"H"},"geometry":{"type":"Polygon","coordinates":[[[120.32202,23.962176],[120.331845,23.962219],[120.331799,23.971248],[120.323058,23.971209],[120.322896,23.970868],[120.322871,23.970507],[120.323042,23.969582],[120.322976,23.968708],[120.322485,23.967401],[120.321997,23.966599],[120.32202,23.962176]]]}},
{"type":"Feature","properties":{"levels":"H"},"geometry":{"type":"Polygon","coordinates":[[[120.331799,23.971248],[120.341625,23.97129],[120.341579,23.980319],[120.331752,23.980277],[120.331799,23.971248]]]}},
{"type":"Feature","properties":{"levels":"H"},"geometry":{"type":"Polygon","coordinates":[[[120.341579,23.980319],[120.351406,23.980361],[120.35136,23.98939],[120.341533,23.989348],[120.341579,23.980319]]]}},
{"type":"Feature","properties":{"levels":"H"},"geometry":{"type":"Polygon","coordinates":[[[120.351278,24.005812],[120.350008,24.003886],[120.34931,24.003218],[120.348688,24.002438],[120.348287,24.002245],[120.348261,24.001798],[120.34837,24.001324],[120.348362,24.000888],[120.34973,23.999206],[120.349837,23.998413],[120.351315,23.998419],[120.351278,24.005812]]]}},
{"type":"Feature","properties":{"levels":"H"},"geometry":{"type":"Polygon","coordinates":[[[120.351315,23.998419],[120.361143,23.99846],[120.361099,24.007489],[120.35231,24.007452],[120.351909,24.006917],[120.351278,24.005812],[120.351315,23.998419]]]}},
{"type":"Feature","properties":{"levels":"H"},"geometry":{"type":"Polygon","coordinates":[[[120.361143,23.99846],[120.370971,23.998501],[120.370927,24.00753],[120.361099,24.007489],[120.361143,23.99846]]]}},
{"type":"Feature","properties":{"levels":"H"},"geometry":{"type":"Polygon","coordinates":[[[120.357532,24.016504],[120.356798,24.014391],[120.35614,24.013721],[120.355889,24.013336],[120.355667,24.012867],[120.355124,24.012104],[120.355086,24.011766],[120.354717,24.010933],[120.353943,24.009885],[120.353576,24.009588],[120.35332,24.00921],[120.35307,24.008378],[120.352745,24.008074],[120.35231,24.007452],[120.361099,24.007489],[120.361054,24.016518],[120.357532,24.016504]]]}},
{"type":"Feature","properties":{"levels":"H"},"geometry":{"type":"Polygon","coordinates":[[[120.361099,24.007489],[120.370927,24.00753],[120.370883,24.016559],[120.361054,24.016518],[120.361099,24.007489]]]}},
{"type":"Feature","properties":{"levels":"H"},"geometry":{"type":"Polygon","coordinates":[[[120.370927,24.00753],[120.380756,24.00757],[120.380713,24.016599],[120.370883,24.016559],[120.370927,24.00753]]]}},
{"type":"Feature","properties":{"levels":"H"},"geometry":{"type":"Polygon","coordinates":[[[120.361024,24.022495],[120.360062,24.021398],[120.359515,24.020538],[120.358816,24.020167],[120.358593,24.019823],[120.357532,24.016504],[120.361054,24.016518],[120.361024,24.022495]]]}},
{"type":"Feature","properties":{"levels":"H"},"geometry":{"type":"Polygon","coordinates":[[[120.361054,24.016518],[120.370883,24.016559],[120.370839,24.025588],[120.364063,24.02556],[120.362425,24.023747],[120.361024,24.022495],[120.361054,24.016518]]]}},
{"type":"Feature","properties":{"levels":"H"},"geometry":{"type":"Polygon","coordinates":[[[120.380713,24.016599],[120.390542,24.016638],[120.3905,24.025667],[120.38067,24.025628],[120.380713,24.016599]]]}},
{"type":"Feature","properties":{"levels":"H"},"geometry":{"type":"Polygon","coordinates":[[[120.370839,24.025588],[120.38067,24.025628],[120.380626,24.034657],[120.370796,24.034617],[120.370839,24.025588]]]}},
{"type":"Feature","properties":{"levels":"H"},"geometry":{"type":"Polygon","coordinates":[[[120.38067,24.025628],[120.3905,24.025667],[120.390457,24.034697],[120.380626,24.034657],[120.38067,24.025628]]]}},
{"type":"Feature","properties":{"levels":"H"},"geometry":{"type":"Polygon","coordinates":[[[120.3905,24.025667],[120.40033,24.025706],[120.400288,24.034735],[120.390457,24.034697],[120.3905,24.025667]]]}},
{"type":"Feature","properties":{"levels":"H"},"geometry":{"type":"Polygon","coordinates":[[[120.380626,24.034657],[120.390457,24.034697],[120.390415,24.043726],[120.380583,24.043686],[120.380626,24.034657]]]}},
{"type":"Feature","properties":{"levels":"H"},"geometry":{"type":"Polygon","coordinates":[[[120.380583,24.043686],[120.390415,24.043726],[120.390389,24.049109],[120.387603,24.047462],[120.386424,24.046927],[120.385425,24.046259],[120.38357,24.045565],[120.383006,24.045087],[120.382595,24.04562],[120.382306,24.044583],[120.381811,24.044565],[120.381481,24.044841],[120.38128,24.045743],[120.380941,24.045525],[120.380701,24.045174],[120.380576,24.045195],[120.380583,24.043686]]]}},
{"type":"Feature","properties":{"levels":"H"},"geometry":{"type":"Polygon","coordinates":[[[120.390415,24.043726],[120.400246,24.043764],[120.400204,24.052793],[120.397379,24.052782],[120.396415,24.052077],[120.395548,24.051559],[120.392455,24.049976],[120.391076,24.04946],[120.390389,24.049109],[120.390415,24.043726]]]}},
{"type":"Feature","properties":{"levels":"H"},"geometry":{"type":"Polygon","coordinates":[[[120.400246,24.043764],[120.410078,24.043803],[120.410037,24.052832],[120.400204,24.052793],[120.400246,24.043764]]]}},
{"type":"Feature","properties":{"levels":"H"},"geometry":{"type":"Polygon","coordinates":[[[120.410078,24.043803],[120.41991,24.04384],[120.419869,24.052869],[120.410037,24.052832],[120.410078,24.043803]]]}},
{"type":"Feature","properties":{"levels":"H"},"geometry":{"type":"Polygon","coordinates":[[[120.449405,24.043949],[120.459236,24.043984],[120.459198,24.053013],[120.449366,24.052978],[120.449405,24.043949]]]}},
{"type":"Feature","properties":{"levels":"H"},"geometry":{"type":"Polygon","coordinates":[[[120.458781,24.152333],[120.468621,24.152367],[120.468584,24.161396],[120.464195,24.161381],[120.463557,24.160785],[120.463099,24.160499],[120.461364,24.159669],[120.460618,24.159172],[120.459722,24.158817],[120.458754,24.158761],[120.458781,24.152333]]]}}
]
}
