{
"type": "FeatureCollection",
"name": "國家公園",
"xy_coordinate_resolution": 1e-06,
"features": [
{"type":"Feature","properties":{"Name":"太魯閣國家公園"},"geometry":{"type":"Polygon","coordinates":[[[121.268871,24.124416,0.0],[121.279532,24.11192,0.0],[121.278139,24.100624,0.0],[121.252134,24.099413,0.0],[121.249372,24.086863,0.0],[121.260292,24.073034,0.0],[121.264374,24.061728,0.0],[121.275316,24.060453,0.0],[121.290928,24.060424,0.0],[121.292143,24.061576,0.0],[121.29287,24.061491,0.0],[121.29384,24.062065,0.0],[121.295071,24.063352,0.0],[121.295571,24.063646,0.0],[121.296137,24.063124,0.0],[121.296855,24.062784,0.0],[121.298038,24.061922,0.0],[121.300933,24.063905,0.0],[121.301558,24.064795,0.0],[121.301748,24.065336,0.0],[121.301742,24.065686,0.0],[121.301936,24.066004,0.0],[121.302798,24.066691,0.0],[121.303532,24.067529,0.0],[121.304547,24.068322,0.0],[121.305721,24.069062,0.0],[121.305965,24.069335,0.0],[121.306086,24.069876,0.0],[121.30717,24.071723,0.0],[121.307333,24.072321,0.0],[121.307643,24.072849,0.0],[121.30821,24.073267,0.0],[121.308776,24.074049,0.0],[121.309621,24.074962,0.0],[121.310196,24.075297,0.0],[121.311634,24.075536,0.0],[121.312132,24.075968,0.0],[121.312466,24.076484,0.0],[121.313035,24.076813,0.0],[121.313656,24.077001,0.0],[121.314224,24.077395,0.0],[121.314582,24.077914,0.0],[121.31491,24.078084,0.0],[121.315589,24.078198,0.0],[121.316844,24.079335,0.0],[121.317849,24.079718,0.0],[121.318474,24.080069,0.0],[121.318781,24.080366,0.0],[121.318918,24.0807,0.0],[121.319962,24.082058,0.0],[121.320251,24.082297,0.0],[121.321395,24.082947,0.0],[121.323371,24.085177,0.0],[121.323391,24.08583,0.0],[121.323491,24.08617,0.0],[121.323348,24.086796,0.0],[121.321897,24.087926,0.0],[121.321432,24.088446,0.0],[121.321238,24.088776,0.0],[121.320399,24.090981,0.0],[121.319687,24.092296,0.0],[121.319475,24.092895,0.0],[121.319431,24.093256,0.0],[121.319072,24.094083,0.0],[121.319167,24.094697,0.0],[121.320034,24.096555,0.0],[121.32085,24.097382,0.0],[121.321476,24.098304,0.0],[121.322792,24.099836,0.0],[121.323075,24.10007,0.0],[121.324393,24.100835,0.0],[121.324829,24.101265,0.0],[121.325989,24.103139,0.0],[121.326551,24.105939,0.0],[121.326505,24.107163,0.0],[121.326249,24.107861,0.0],[121.326394,24.108477,0.0],[121.326802,24.109465,0.0],[121.327178,24.110103,0.0],[121.328587,24.111018,0.0],[121.328106,24.112769,0.0],[121.328403,24.113328,0.0],[121.329283,24.114432,0.0],[121.329435,24.115272,0.0],[121.328576,24.114829,0.0],[121.327949,24.114939,0.0],[121.326604,24.115371,0.0],[121.323348,24.115933,0.0],[121.321593,24.116452,0.0],[121.320822,24.116512,0.0],[121.319727,24.116487,0.0],[121.318691,24.116607,0.0],[121.317364,24.116576,0.0],[121.315393,24.116795,0.0],[121.314866,24.117135,0.0],[121.313927,24.118024,0.0],[121.313374,24.118441,0.0],[121.312809,24.118781,0.0],[121.312145,24.119066,0.0],[121.311852,24.119313,0.0],[121.311232,24.119601,0.0],[121.310149,24.119901,0.0],[121.309218,24.120382,0.0],[121.307651,24.12146,0.0],[121.30666,24.121906,0.0],[121.305338,24.12232,0.0],[121.304782,24.122655,0.0],[121.304385,24.123035,0.0],[121.302922,24.125435,0.0],[121.302207,24.126272,0.0],[121.299165,24.129008,0.0],[121.297553,24.130282,0.0],[121.296406,24.131508,0.0],[121.295577,24.13255,0.0],[121.294677,24.133073,0.0],[121.294154,24.133189,0.0],[121.291181,24.133466,0.0],[121.287225,24.134148,0.0],[121.284702,24.134383,0.0],[121.283656,24.134561,0.0],[121.282696,24.134843,0.0],[121.281727,24.135303,0.0],[121.281478,24.135879,0.0],[121.280841,24.135758,0.0],[121.279458,24.135785,0.0],[121.278852,24.135818,0.0],[121.278301,24.135948,0.0],[121.277534,24.136479,0.0],[121.274558,24.137855,0.0],[121.272996,24.138984,0.0],[121.27215,24.139139,0.0],[121.272243,24.137965,0.0],[121.271421,24.133659,0.0],[121.271148,24.132732,0.0],[121.27089,24.132342,0.0],[121.270141,24.131607,0.0],[121.27,24.131093,0.0],[121.269732,24.129213,0.0],[121.269591,24.127263,0.0],[121.269087,24.12597,0.0],[121.268916,24.125054,0.0],[121.268978,24.12453,0.0],[121.268871,24.124416,0.0]]]}},
{"type":"Feature","properties":{"Name":"玉山國家公園"},"geometry":{"type":"Polygon","coordinates":[[[121.13663,23.517517,0.0],[121.117894,23.529494,0.0],[121.117905,23.541731,0.0],[121.104648,23.573207,0.0],[121.09137,23.581956,0.0],[121.068592,23.578472,0.0],[121.047717,23.581976,0.0],[121.02494,23.578485,0.0],[120.956616,23.578481,0.0],[120.939537,23.57323,0.0],[120.935747,23.560992,0.0],[120.918668,23.560984,0.0],[120.899695,23.557476,0.0],[120.890217,23.545233,0.0],[120.87315,23.534731,0.0],[120.844699,23.527713,0.0],[120.846637,23.492751,0.0],[120.861772,23.473609,0.0],[120.862415,23.473694,0.0],[120.863644,23.4737,0.0],[120.864871,23.473322,0.0],[120.865463,23.473045,0.0],[120.867235,23.472003,0.0],[120.86822,23.470905,0.0],[120.868645,23.470569,0.0],[120.868993,23.470418,0.0],[120.871316,23.469528,0.0],[120.872468,23.469161,0.0],[120.873296,23.468753,0.0],[120.87414,23.468623,0.0],[120.876046,23.468118,0.0],[120.877635,23.467937,0.0],[120.879884,23.467991,0.0],[120.881123,23.468109,0.0],[120.881728,23.468335,0.0],[120.882107,23.468654,0.0],[120.882463,23.469282,0.0],[120.882646,23.471591,0.0],[120.883647,23.472646,0.0],[120.88383,23.472949,0.0],[120.884535,23.474778,0.0],[120.884913,23.475112,0.0],[120.88589,23.47558,0.0],[120.886652,23.475762,0.0],[120.887644,23.47588,0.0],[120.889531,23.475719,0.0],[120.892253,23.475716,0.0],[120.892698,23.475908,0.0],[120.89388,23.475737,0.0],[120.897669,23.476072,0.0],[120.898537,23.475738,0.0],[120.898947,23.475666,0.0],[120.899333,23.475687,0.0],[120.90035,23.475913,0.0],[120.90134,23.476038,0.0],[120.905393,23.476329,0.0],[120.909104,23.476282,0.0],[120.909652,23.476337,0.0],[120.910157,23.476411,0.0],[120.911049,23.476726,0.0],[120.911636,23.477119,0.0],[120.911831,23.476719,0.0],[120.912428,23.476641,0.0],[120.913725,23.47577,0.0],[120.914633,23.475247,0.0],[120.915005,23.47513,0.0],[120.917964,23.475215,0.0],[120.918944,23.474976,0.0],[120.9222,23.474984,0.0],[120.92272,23.474827,0.0],[120.924103,23.473972,0.0],[120.925364,23.473352,0.0],[120.927576,23.472772,0.0],[120.929619,23.471523,0.0],[120.930287,23.471259,0.0],[120.931476,23.470923,0.0],[120.932277,23.47091,0.0],[120.932639,23.471057,0.0],[120.934532,23.47224,0.0],[120.934868,23.472699,0.0],[120.935482,23.472862,0.0],[120.93696,23.472928,0.0],[120.938466,23.472678,0.0],[120.939282,23.472351,0.0],[120.940194,23.47173,0.0],[120.940754,23.471193,0.0],[120.94166,23.469981,0.0],[120.942257,23.469489,0.0],[120.943139,23.46897,0.0],[120.944542,23.468312,0.0],[120.945405,23.467743,0.0],[120.94624,23.467495,0.0],[120.948321,23.467175,0.0],[120.949122,23.4672,0.0],[120.95286,23.46819,0.0],[120.953321,23.468412,0.0],[120.954665,23.46941,0.0],[120.955102,23.469652,0.0],[120.955913,23.469972,0.0],[120.956535,23.470076,0.0],[120.957066,23.470284,0.0],[120.956559,23.470614,0.0],[120.956124,23.47118,0.0],[120.955849,23.4716,0.0],[120.955779,23.472027,0.0],[120.956168,23.473526,0.0],[120.956743,23.474892,0.0],[120.957598,23.476231,0.0],[120.958456,23.477308,0.0],[120.959018,23.47855,0.0],[120.959392,23.481141,0.0],[120.959922,23.482927,0.0],[120.959998,23.483476,0.0],[120.959486,23.486521,0.0],[120.959698,23.487126,0.0],[120.960727,23.487364,0.0],[120.962659,23.487251,0.0],[120.964072,23.4874,0.0],[120.965175,23.487597,0.0],[120.96664,23.48797,0.0],[120.968439,23.488654,0.0],[120.969348,23.488785,0.0],[120.971755,23.488822,0.0],[120.973437,23.489177,0.0],[120.975877,23.489951,0.0],[120.976991,23.490017,0.0],[120.978028,23.489918,0.0],[120.980053,23.489859,0.0],[120.98302,23.490038,0.0],[120.983443,23.490104,0.0],[120.984989,23.490573,0.0],[120.986284,23.490786,0.0],[120.987333,23.490714,0.0],[120.989029,23.490264,0.0],[120.990071,23.490122,0.0],[120.995535,23.490168,0.0],[120.998518,23.488996,0.0],[120.999534,23.488843,0.0],[121.001,23.488973,0.0],[121.002985,23.489457,0.0],[121.00337,23.489481,0.0],[121.004459,23.489535,0.0],[121.005895,23.489477,0.0],[121.007211,23.489323,0.0],[121.009397,23.49012,0.0],[121.010043,23.49021,0.0],[121.010738,23.49021,0.0],[121.011438,23.490341,0.0],[121.01259,23.491127,0.0],[121.015018,23.491623,0.0],[121.016716,23.491864,0.0],[121.018167,23.491747,0.0],[121.021443,23.492205,0.0],[121.022671,23.492245,0.0],[121.023063,23.492209,0.0],[121.024814,23.491777,0.0],[121.026945,23.491863,0.0],[121.027959,23.49224,0.0],[121.028861,23.492754,0.0],[121.029528,23.492957,0.0],[121.030602,23.493126,0.0],[121.031388,23.492903,0.0],[121.032329,23.493029,0.0],[121.033188,23.4929,0.0],[121.034769,23.492394,0.0],[121.0379,23.491219,0.0],[121.03828,23.491143,0.0],[121.039714,23.491111,0.0],[121.042288,23.49122,0.0],[121.043758,23.491653,0.0],[121.046186,23.491768,0.0],[121.046929,23.491876,0.0],[121.048212,23.492311,0.0],[121.048851,23.492632,0.0],[121.050485,23.493767,0.0],[121.051458,23.494058,0.0],[121.052326,23.49403,0.0],[121.052748,23.494093,0.0],[121.053455,23.495256,0.0],[121.054002,23.495784,0.0],[121.054353,23.495985,0.0],[121.055105,23.496262,0.0],[121.056321,23.496284,0.0],[121.057726,23.496773,0.0],[121.058077,23.49701,0.0],[121.058761,23.497272,0.0],[121.060254,23.498475,0.0],[121.061633,23.49898,0.0],[121.062002,23.499043,0.0],[121.062262,23.499329,0.0],[121.062522,23.499995,0.0],[121.062803,23.501379,0.0],[121.062845,23.501835,0.0],[121.062772,23.502822,0.0],[121.062941,23.504106,0.0],[121.063252,23.504467,0.0],[121.064584,23.505085,0.0],[121.06493,23.505331,0.0],[121.065617,23.505909,0.0],[121.065934,23.506283,0.0],[121.065989,23.506717,0.0],[121.065898,23.507265,0.0],[121.066545,23.510539,0.0],[121.066932,23.511577,0.0],[121.067673,23.512999,0.0],[121.068169,23.514376,0.0],[121.068323,23.51594,0.0],[121.068537,23.516827,0.0],[121.068549,23.517798,0.0],[121.068792,23.518143,0.0],[121.068589,23.518595,0.0],[121.070974,23.518133,0.0],[121.071918,23.518135,0.0],[121.07379,23.518365,0.0],[121.074787,23.518238,0.0],[121.075623,23.517912,0.0],[121.076432,23.517487,0.0],[121.078588,23.516886,0.0],[121.079698,23.516481,0.0],[121.080988,23.515792,0.0],[121.081948,23.515556,0.0],[121.084248,23.51528,0.0],[121.085287,23.51506,0.0],[121.087299,23.514264,0.0],[121.087843,23.514145,0.0],[121.088384,23.514241,0.0],[121.089752,23.514852,0.0],[121.090827,23.515035,0.0],[121.091832,23.515023,0.0],[121.092326,23.515323,0.0],[121.092862,23.516501,0.0],[121.092776,23.517438,0.0],[121.092862,23.517966,0.0],[121.093132,23.518458,0.0],[121.094136,23.518825,0.0],[121.094508,23.519155,0.0],[121.094868,23.520035,0.0],[121.095673,23.520691,0.0],[121.096661,23.521257,0.0],[121.097051,23.52158,0.0],[121.097188,23.52218,0.0],[121.097704,23.52185,0.0],[121.100665,23.521431,0.0],[121.101062,23.521309,0.0],[121.103397,23.519415,0.0],[121.103867,23.519246,0.0],[121.105469,23.51945,0.0],[121.106548,23.519456,0.0],[121.107515,23.51939,0.0],[121.110096,23.518997,0.0],[121.110613,23.519171,0.0],[121.111659,23.519983,0.0],[121.112083,23.520007,0.0],[121.113079,23.519794,0.0],[121.113614,23.519948,0.0],[121.11467,23.52059,0.0],[121.115559,23.520569,0.0],[121.115934,23.520707,0.0],[121.117256,23.521493,0.0],[121.117617,23.521895,0.0],[121.118035,23.521563,0.0],[121.118443,23.521357,0.0],[121.119827,23.521281,0.0],[121.120334,23.521107,0.0],[121.12162,23.520129,0.0],[121.122492,23.519733,0.0],[121.122892,23.519401,0.0],[121.123428,23.518703,0.0],[121.123847,23.518416,0.0],[121.124783,23.517302,0.0],[121.125196,23.517067,0.0],[121.126151,23.516967,0.0],[121.126574,23.516996,0.0],[121.127043,23.517235,0.0],[121.127881,23.518019,0.0],[121.128609,23.5184,0.0],[121.130588,23.517918,0.0],[121.131154,23.517619,0.0],[121.131572,23.517256,0.0],[121.131837,23.516885,0.0],[121.132242,23.51549,0.0],[121.132587,23.515155,0.0],[121.133086,23.514913,0.0],[121.133637,23.514956,0.0],[121.134771,23.514799,0.0],[121.135535,23.514891,0.0],[121.13663,23.517517,0.0]]]}}
]
}
