{
"type": "FeatureCollection",
"name": "關注河川",
"xy_coordinate_resolution": 1e-06,
"features": [
{"type":"Feature","properties":{"OBJECTID_1":2,"OBJECTID":197.0,"NAME":"濁水溪","drainage_t":"中央管河川","BASIN_2017":"濁水溪","SYS_NAME":"濁水溪","COUNTY20_1":"南投縣","Note":"日本鰻鱺、埔里中華爬岩鰍","Shape_Leng":1.8048751275499999},"geometry":{"type":"LineString","coordinates":[[121.276002,24.133095],[121.276029,24.132624],[121.275867,24.132221],[121.275623,24.132068],[121.275675,24.131563],[121.275624,24.13068],[121.275464,24.13036],[121.275209,24.130238],[121.275006,24.129744],[121.275325,24.129468],[121.275277,24.129168],[121.275397,24.128502],[121.275273,24.127899],[121.275593,24.127028],[121.275417,24.126655],[121.275703,24.126301],[121.275701,24.125905],[121.276542,24.125194],[121.276685,24.124559],[121.277037,24.124392],[121.27741,24.124462],[121.277836,24.124227],[121.278164,24.124224],[121.278434,24.123858],[121.279653,24.123632],[121.279676,24.123265],[121.279789,24.123072],[121.280264,24.122794],[121.280423,24.122913],[121.280788,24.122907],[121.281409,24.123397],[121.281712,24.123273],[121.282759,24.123175],[121.282869,24.123101],[121.282943,24.122888],[121.283101,24.122798],[121.283727,24.123097],[121.284191,24.122621],[121.285103,24.122036],[121.285531,24.121954],[121.286078,24.121958],[121.286308,24.121864],[121.286478,24.121938],[121.286587,24.122408],[121.286829,24.122673],[121.287272,24.12256],[121.287554,24.122152],[121.287976,24.122056],[121.288266,24.12189],[121.288461,24.121671],[121.288515,24.121541],[121.288381,24.121244],[121.288307,24.120388],[121.288474,24.120244],[121.288893,24.120113],[121.289128,24.119637],[121.289269,24.11951],[121.291017,24.119049],[121.291175,24.119125],[121.291251,24.119384],[121.291545,24.119477],[121.291826,24.119142],[121.292311,24.119107],[121.292406,24.118939],[121.2927,24.118738],[121.293199,24.118641],[121.293457,24.118787],[121.293876,24.118647],[121.294178,24.118347],[121.294171,24.11789],[121.294276,24.117775],[121.29506,24.117422],[121.295246,24.117759],[121.29549,24.117848],[121.295566,24.11758],[121.29601,24.117238],[121.29619,24.117192],[121.296354,24.117331],[121.296843,24.117207],[121.297368,24.116551],[121.297352,24.116256],[121.296926,24.116267],[121.296857,24.116152],[121.296252,24.116024],[121.295699,24.115797],[121.295074,24.115755],[121.294877,24.115576],[121.29472,24.115571],[121.294575,24.115202],[121.294986,24.11473],[121.295644,24.114686],[121.295725,24.114414],[121.295925,24.114321],[121.296197,24.113992],[121.296355,24.113957],[121.296401,24.114252],[121.296485,24.11429],[121.29671,24.114103],[121.29698,24.11407],[121.297183,24.113935],[121.297172,24.113417],[121.297417,24.113077],[121.298325,24.112761],[121.298452,24.112533],[121.298546,24.112037],[121.299141,24.111781],[121.299416,24.111241],[121.299779,24.110835],[121.299779,24.110651],[121.299667,24.110573],[121.299091,24.110623],[121.298878,24.110495],[121.29895,24.110253],[121.299355,24.109669],[121.299434,24.109257],[121.299292,24.108412],[121.299484,24.107946],[121.299515,24.107574],[121.298963,24.10696],[121.298693,24.106915],[121.298347,24.106982],[121.298026,24.106683],[121.297705,24.106066],[121.297489,24.10595],[121.297411,24.105674],[121.297448,24.104971],[121.297573,24.104629],[121.297686,24.104541],[121.298798,24.104557],[121.299072,24.104156],[121.299567,24.103975],[121.299619,24.10378],[121.299505,24.103263],[121.299551,24.103083],[121.300324,24.102662],[121.300446,24.102497],[121.300032,24.102036],[121.299699,24.101934],[121.299489,24.101775],[121.299218,24.101334],[121.299009,24.101155],[121.298813,24.10111],[121.298495,24.101196],[121.297886,24.101016],[121.29772,24.1009],[121.297739,24.100349],[121.297554,24.099746],[121.297496,24.099219],[121.297172,24.09912],[121.296887,24.098932],[121.296738,24.09865],[121.296756,24.098379],[121.296486,24.098249],[121.296849,24.097316],[121.2969,24.096022],[121.297245,24.095564],[121.297438,24.094747],[121.297405,24.09415],[121.29698,24.094009],[121.296765,24.093573],[121.296626,24.093488],[121.296312,24.093631],[121.295904,24.09364],[121.295669,24.093574],[121.29537,24.093305],[121.295113,24.093395],[121.294996,24.093618],[121.294915,24.09364],[121.294732,24.093487],[121.294362,24.093408],[121.294152,24.09346],[121.293926,24.093625],[121.293953,24.09388],[121.293829,24.094109],[121.293479,24.093947],[121.293077,24.094211],[121.292749,24.093831],[121.292448,24.093708],[121.291895,24.093866],[121.29135,24.093706],[121.291094,24.093782],[121.290769,24.094129],[121.290749,24.094944],[121.290856,24.095444],[121.291191,24.096137],[121.291202,24.096927],[121.290862,24.097192],[121.290624,24.097647],[121.290335,24.097801],[121.289714,24.097633],[121.289483,24.097224],[121.289051,24.09723],[121.288331,24.096942],[121.288363,24.09659],[121.288721,24.095804],[121.288411,24.095469],[121.288021,24.09481],[121.287801,24.09495],[121.286764,24.094883],[121.28655,24.094998],[121.286183,24.094963],[121.28595,24.095077],[121.285691,24.094983],[121.284987,24.095029],[121.284338,24.094829],[121.283569,24.094967],[121.283427,24.095062],[121.283402,24.095253],[121.283676,24.095834],[121.283681,24.095982],[121.283504,24.096226],[121.283222,24.096367],[121.282736,24.09642],[121.282313,24.096643],[121.281677,24.096603],[121.281402,24.09647],[121.281221,24.096147],[121.2807,24.096186],[121.280536,24.096076],[121.280367,24.095569],[121.280145,24.095485],[121.280183,24.094806],[121.279975,24.093709],[121.279471,24.093623],[121.27938,24.093347],[121.279193,24.093341],[121.27896,24.093189],[121.278615,24.093384],[121.27806,24.09341],[121.27747,24.093932],[121.277127,24.094005],[121.276952,24.094569],[121.276124,24.094973],[121.275888,24.09533],[121.275857,24.095725],[121.275628,24.095859],[121.275478,24.095832],[121.274841,24.095378],[121.274605,24.095416],[121.274031,24.095309],[121.273923,24.094885],[121.273628,24.094519],[121.273089,24.094847],[121.272998,24.095061],[121.272787,24.09518],[121.272571,24.095472],[121.272259,24.09549],[121.271342,24.095376],[121.270362,24.09542],[121.269873,24.095148],[121.269764,24.094921],[121.269441,24.094654],[121.267714,24.094957],[121.267155,24.094968],[121.266299,24.095182],[121.265428,24.095067],[121.264709,24.094529],[121.263992,24.094642],[121.263535,24.09449],[121.262863,24.094507],[121.262278,24.094408],[121.26213,24.094281],[121.261875,24.094206],[121.26176,24.09407],[121.261671,24.093688],[121.26176,24.093386],[121.262259,24.093308],[121.262493,24.092908],[121.262794,24.092662],[121.263281,24.092617],[121.263655,24.092172],[121.263845,24.091643],[121.264031,24.091468],[121.26528,24.09124],[121.265939,24.091221],[121.266363,24.090966],[121.268239,24.090228],[121.268511,24.090281],[121.268818,24.090592],[121.269109,24.090646],[121.270124,24.090644],[121.270541,24.090502],[121.270683,24.090368],[121.270787,24.089976],[121.270707,24.089702],[121.270555,24.089577],[121.270074,24.0895],[121.269941,24.089383],[121.269907,24.089082],[121.269768,24.08891],[121.269573,24.088356],[121.269437,24.088239],[121.268977,24.088184],[121.268008,24.088459],[121.267238,24.088347],[121.266859,24.08838],[121.266155,24.08829],[121.265996,24.088127],[121.265566,24.087971],[121.263793,24.088714],[121.262879,24.08936],[121.262636,24.089439],[121.261886,24.089501],[121.261362,24.089418],[121.261152,24.089317],[121.260968,24.089332],[121.260528,24.089642],[121.260387,24.089934],[121.260127,24.09004],[121.25998,24.090016],[121.25968,24.089649],[121.259024,24.08977],[121.258631,24.089727],[121.258301,24.089812],[121.257988,24.089752],[121.257799,24.089619],[121.25754,24.089061],[121.25742,24.089026],[121.256923,24.089468],[121.25631,24.089573],[121.25579,24.09008],[121.25469,24.090561],[121.252888,24.090762],[121.252293,24.090629],[121.251422,24.090175],[121.251261,24.090291],[121.251145,24.090546],[121.251167,24.090999],[121.251067,24.09126],[121.250836,24.091443],[121.250556,24.091545],[121.250311,24.09157],[121.249923,24.091465],[121.249518,24.091169],[121.248963,24.091142],[121.247884,24.091387],[121.246883,24.092202],[121.246492,24.092155],[121.245864,24.091926],[121.245415,24.091928],[121.244562,24.09241],[121.243914,24.092605],[121.243478,24.092368],[121.243031,24.09179],[121.242901,24.091776],[121.242535,24.091878],[121.242108,24.092107],[121.241678,24.092382],[121.241236,24.092786],[121.240909,24.092958],[121.24013,24.092818],[121.23916,24.092305],[121.237315,24.092713],[121.236406,24.092466],[121.236117,24.092592],[121.235938,24.092851],[121.235901,24.093207],[121.236082,24.09382],[121.235938,24.094001],[121.235766,24.093984],[121.235369,24.093712],[121.234888,24.092954],[121.234613,24.092782],[121.232843,24.093906],[121.232479,24.094012],[121.231801,24.094003],[121.23141,24.093843],[121.231036,24.093454],[121.230739,24.092878],[121.230736,24.092215],[121.230645,24.092043],[121.230464,24.091946],[121.229485,24.091821],[121.228274,24.091272],[121.227551,24.091146],[121.227074,24.091282],[121.226637,24.091226],[121.225949,24.090865],[121.225572,24.090886],[121.22483,24.091136],[121.224068,24.091178],[121.22316,24.090439],[121.222605,24.090201],[121.222139,24.089874],[121.221579,24.089316],[121.221309,24.089181],[121.221016,24.089238],[121.220823,24.08914],[121.220463,24.088608],[121.220019,24.088202],[121.219274,24.087999],[121.218262,24.087497],[121.216907,24.087091],[121.216513,24.087061],[121.215966,24.087131],[121.215744,24.08708],[121.215337,24.086791],[121.215152,24.086433],[121.214974,24.085226],[121.214849,24.085049],[121.214375,24.084789],[121.214207,24.08461],[121.214083,24.084311],[121.21405,24.08379],[121.214323,24.082941],[121.214239,24.082712],[121.213978,24.082565],[121.213205,24.082469],[121.21253,24.082251],[121.21234,24.082264],[121.211404,24.08261],[121.210294,24.082687],[121.20994,24.082507],[121.209712,24.082195],[121.209623,24.081898],[121.209014,24.081419],[121.208616,24.080641],[121.208151,24.080354],[121.207843,24.080308],[121.207032,24.080477],[121.20583,24.080592],[121.20571,24.080656],[121.20555,24.080943],[121.205192,24.081179],[121.203992,24.080874],[121.203527,24.0809],[121.203315,24.081],[121.203087,24.081339],[121.202838,24.082057],[121.202387,24.082263],[121.20208,24.082587],[121.201896,24.083037],[121.201579,24.083336],[121.200777,24.083484],[121.200396,24.083276],[121.199808,24.082679],[121.199546,24.082245],[121.199451,24.081851],[121.199304,24.081601],[121.199047,24.081383],[121.198425,24.080564],[121.198352,24.08022],[121.198419,24.079995],[121.198859,24.079572],[121.199008,24.079312],[121.198986,24.078817],[121.198891,24.078583],[121.198284,24.0781],[121.198202,24.077942],[121.197979,24.07797],[121.197293,24.077537],[121.19681,24.0769],[121.196808,24.076731],[121.197096,24.076462],[121.197582,24.07537],[121.197506,24.075008],[121.19707,24.07446],[121.196266,24.073779],[121.195402,24.072619],[121.194067,24.071266],[121.192857,24.070686],[121.192572,24.070427],[121.192465,24.070171],[121.19261,24.069956],[121.193344,24.069762],[121.194557,24.069125],[121.195922,24.069023],[121.196165,24.068827],[121.196193,24.068513],[121.196016,24.068153],[121.19525,24.06761],[121.19475,24.066959],[121.194898,24.066507],[121.195301,24.065944],[121.19537,24.065665],[121.195334,24.065424],[121.194934,24.065042],[121.194472,24.064804],[121.193785,24.064127],[121.192625,24.062407],[121.191733,24.06242],[121.190781,24.062299],[121.190441,24.062127],[121.189817,24.061231],[121.189687,24.061221],[121.18908,24.061511],[121.188841,24.061464],[121.188734,24.061113],[121.188772,24.060179],[121.188638,24.059721],[121.18868,24.059341],[121.189337,24.057733],[121.189325,24.057607],[121.189224,24.057364],[121.188875,24.057004],[121.188011,24.056652],[121.187486,24.056307],[121.187183,24.055523],[121.187344,24.05446],[121.187474,24.054288],[121.188091,24.053921],[121.188137,24.05356],[121.188232,24.053416],[121.188814,24.053199],[121.189174,24.05318],[121.189517,24.053189],[121.189973,24.053432],[121.190432,24.05342],[121.19085,24.053069],[121.191009,24.053042],[121.191588,24.053242],[121.191956,24.053176],[121.192479,24.052662],[121.192628,24.052361],[121.192703,24.05202],[121.192576,24.05153],[121.192202,24.051143],[121.192067,24.051115],[121.191558,24.051371],[121.19146,24.051354],[121.191068,24.050816],[121.19004,24.050636],[121.188674,24.049827],[121.188385,24.049387],[121.187576,24.047668],[121.187398,24.047521],[121.186964,24.047586],[121.185883,24.047559],[121.185555,24.047063],[121.185046,24.046901],[121.184488,24.0469],[121.183698,24.0466],[121.182869,24.046446],[121.182467,24.046542],[121.181713,24.04721],[121.181332,24.047441],[121.18056,24.047738],[121.179609,24.047682],[121.178357,24.047342],[121.177882,24.047043],[121.177621,24.046723],[121.177441,24.046306],[121.177469,24.045899],[121.177771,24.04543],[121.178361,24.044893],[121.178586,24.044091],[121.178629,24.043548],[121.178949,24.042899],[121.179394,24.042644],[121.179712,24.04256],[121.180098,24.042711],[121.180481,24.042334],[121.180551,24.041806],[121.180416,24.040938],[121.180581,24.040045],[121.180473,24.039574],[121.180363,24.039504],[121.179514,24.039442],[121.178322,24.03974],[121.177886,24.039684],[121.177612,24.039241],[121.177506,24.038115],[121.177439,24.037892],[121.177267,24.037741],[121.176868,24.03794],[121.175384,24.037905],[121.174872,24.037843],[121.174349,24.037528],[121.174087,24.037466],[121.173862,24.037591],[121.17318,24.038418],[121.172646,24.038673],[121.172091,24.038735],[121.171641,24.038664],[121.17083,24.038343],[121.170396,24.037939],[121.170118,24.037467],[121.169945,24.036808],[121.169979,24.035964],[121.17034,24.03585],[121.170846,24.035868],[121.171852,24.035239],[121.172199,24.035155],[121.172977,24.035151],[121.173524,24.035071],[121.175006,24.033546],[121.175196,24.033255],[121.175608,24.032111],[121.175546,24.031804],[121.17512,24.031203],[121.173928,24.030166],[121.173629,24.029776],[121.173688,24.029617],[121.174603,24.029006],[121.175128,24.028542],[121.175208,24.028163],[121.174968,24.02783],[121.174665,24.027619],[121.174482,24.027614],[121.172934,24.02837],[121.172671,24.028355],[121.172082,24.028029],[121.171553,24.02724],[121.171389,24.027106],[121.171171,24.027107],[121.169796,24.027809],[121.169333,24.027928],[121.168666,24.027939],[121.166945,24.027328],[121.166218,24.026602],[121.165646,24.02532],[121.16519,24.025007],[121.164797,24.024859],[121.163191,24.025256],[121.162216,24.025341],[121.160692,24.025329],[121.160403,24.02526],[121.160069,24.024835],[121.160004,24.024437],[121.160173,24.02376],[121.160245,24.023067],[121.160173,24.022501],[121.160031,24.022092],[121.159748,24.021856],[121.159156,24.02162],[121.158728,24.021574],[121.158288,24.021823],[121.158124,24.021846],[121.157854,24.021806],[121.157457,24.021621],[121.15706,24.021061],[121.15703,24.020815],[121.157185,24.019218],[121.15715,24.01867],[121.156994,24.018512],[121.1563,24.018364],[121.156044,24.018352],[121.154674,24.0187],[121.154171,24.018713],[121.153553,24.018918],[121.153211,24.018828],[121.152182,24.019367],[121.151041,24.019801],[121.148749,24.020231],[121.14591,24.020895],[121.144756,24.021012],[121.144362,24.021154],[121.143926,24.021478],[121.143223,24.021711],[121.142196,24.021738],[121.140671,24.021525],[121.140215,24.021289],[121.139858,24.020944],[121.139659,24.02058],[121.139523,24.019659],[121.139513,24.018302],[121.137316,24.015115],[121.136988,24.014324],[121.136835,24.013653],[121.136812,24.0126],[121.13704,24.011729],[121.13705,24.011268],[121.137006,24.010867],[121.136689,24.009886],[121.136447,24.008708],[121.136282,24.006756],[121.13603,24.005459],[121.135996,24.004598],[121.136167,24.002645],[121.13643,24.001629],[121.136264,23.994599],[121.135495,23.990099],[121.135388,23.988369],[121.135439,23.987014],[121.135882,23.982489],[121.136171,23.981618],[121.136698,23.981279],[121.141254,23.979953],[121.14138,23.979774],[121.141629,23.978889],[121.141519,23.978165],[121.141197,23.977786],[121.140945,23.977666],[121.140386,23.977913],[121.139868,23.977796],[121.139759,23.977705],[121.1396,23.97746],[121.139178,23.975893],[121.138989,23.975786],[121.138722,23.975837],[121.137202,23.976464],[121.136351,23.976934],[121.135776,23.977378],[121.135162,23.977572],[121.134195,23.977424],[121.132666,23.976439],[121.132461,23.976126],[121.132048,23.976022],[121.131822,23.976073],[121.131527,23.976363],[121.131407,23.976637],[121.130857,23.976798],[121.130407,23.977061],[121.12973,23.97784],[121.1294,23.977912],[121.129013,23.977802],[121.128507,23.97734],[121.128335,23.977086],[121.128208,23.976693],[121.128437,23.976294],[121.129424,23.975524],[121.129754,23.974976],[121.129927,23.974162],[121.129862,23.973657],[121.129428,23.972271],[121.129404,23.971823],[121.129886,23.970863],[121.13076,23.969526],[121.130825,23.969126],[121.130776,23.968981],[121.130444,23.968705],[121.129103,23.968334],[121.128094,23.967661],[121.127169,23.968022],[121.12626,23.968675],[121.125327,23.96882],[121.124639,23.968779],[121.122624,23.968033],[121.121805,23.967979],[121.121607,23.967825],[121.12102,23.967038],[121.120373,23.966023],[121.120139,23.965945],[121.119554,23.966038],[121.119098,23.966336],[121.118326,23.967248],[121.117939,23.967954],[121.117633,23.96898],[121.117676,23.971435],[121.117603,23.973643],[121.117259,23.974649],[121.116234,23.975136],[121.115624,23.975085],[121.115233,23.974903],[121.11407,23.974056],[121.113054,23.973145],[121.111088,23.97171],[121.110163,23.970929],[121.109202,23.970574],[121.107701,23.970743],[121.107027,23.970996],[121.106788,23.971375],[121.10662,23.972203],[121.106263,23.972747],[121.105356,23.973598],[121.104817,23.973912],[121.103579,23.973978],[121.100417,23.973973],[121.100015,23.973833],[121.099481,23.973781],[121.096605,23.973652],[121.096015,23.973349],[121.096142,23.972626],[121.095946,23.970577],[121.095804,23.969912],[121.094961,23.967154],[121.094551,23.966477],[121.09425,23.966192],[121.093169,23.966153],[121.091286,23.966568],[121.089306,23.967148],[121.088502,23.967183],[121.086421,23.966901],[121.084685,23.96658],[121.08325,23.965928],[121.083057,23.965391],[121.083057,23.963883],[121.083827,23.962143],[121.084141,23.960928],[121.084031,23.959582],[121.083156,23.958865],[121.081724,23.957398],[121.081414,23.957371],[121.080073,23.957753],[121.079657,23.958127],[121.079157,23.958274],[121.077835,23.958853],[121.077341,23.959185],[121.076032,23.959506],[121.075166,23.959375],[121.074007,23.958893],[121.072195,23.957465],[121.071828,23.95683],[121.071489,23.955933],[121.071565,23.955154],[121.071737,23.954666],[121.073247,23.951834],[121.074056,23.950555],[121.074431,23.949459],[121.074478,23.948701],[121.074441,23.948353],[121.074284,23.948088],[121.073931,23.947678],[121.072531,23.946405],[121.071164,23.944834],[121.070775,23.943905],[121.070782,23.943645],[121.071258,23.942108],[121.071872,23.940634],[121.072083,23.939583],[121.071583,23.937554],[121.071625,23.936628],[121.071807,23.936006],[121.071691,23.934901],[121.071415,23.934142],[121.070949,23.933316],[121.069894,23.931925],[121.068845,23.930218],[121.068035,23.926813],[121.067473,23.924995],[121.067047,23.924067],[121.065431,23.921435],[121.06391,23.918595],[121.062838,23.916982],[121.062441,23.916728],[121.061135,23.916282],[121.059808,23.916213],[121.059385,23.916111],[121.059321,23.915746],[121.059557,23.915283],[121.059605,23.914957],[121.059355,23.914589],[121.059034,23.914454],[121.056033,23.914921],[121.055691,23.91505],[121.055284,23.915323],[121.054966,23.915674],[121.054882,23.915962],[121.055269,23.917548],[121.055286,23.918219],[121.055093,23.918642],[121.054742,23.918977],[121.054613,23.919018],[121.054024,23.919034],[121.053463,23.918922],[121.050648,23.91791],[121.048747,23.917119],[121.047958,23.916517],[121.047111,23.915703],[121.04614,23.914119],[121.044928,23.911543],[121.044446,23.910239],[121.044103,23.908743],[121.043858,23.906593],[121.043792,23.903703],[121.043586,23.901296],[121.043707,23.89987],[121.044088,23.898333],[121.04579,23.896202],[121.046776,23.895168],[121.047094,23.894963],[121.047863,23.894943],[121.048963,23.895464],[121.049695,23.895513],[121.050268,23.895376],[121.050406,23.895147],[121.050525,23.894583],[121.052255,23.89282],[121.053301,23.890869],[121.053301,23.890516],[121.053115,23.890132],[121.052936,23.88995],[121.052479,23.889925],[121.051459,23.890535],[121.05056,23.890623],[121.048605,23.890557],[121.047374,23.890652],[121.044146,23.890435],[121.042957,23.890112],[121.042285,23.889356],[121.042134,23.88892],[121.042113,23.888703],[121.042199,23.888511],[121.044651,23.886908],[121.047925,23.885445],[121.048788,23.884772],[121.048895,23.88457],[121.048921,23.884088],[121.048818,23.883905],[121.048187,23.88365],[121.046321,23.883305],[121.044275,23.882026],[121.042979,23.880867],[121.040649,23.879146],[121.040246,23.879056],[121.039657,23.879346],[121.038904,23.879466],[121.038184,23.879397],[121.038057,23.879257],[121.037927,23.878742],[121.038025,23.878441],[121.038399,23.878176],[121.04186,23.877554],[121.042101,23.877379],[121.042136,23.877194],[121.041859,23.87647],[121.041848,23.876131],[121.041968,23.875981],[121.04317,23.875145],[121.044239,23.87454],[121.044845,23.873985],[121.045364,23.873482],[121.045837,23.872701],[121.045882,23.872345],[121.045561,23.871385],[121.044913,23.870929],[121.044608,23.870912],[121.044006,23.870917],[121.042308,23.871463],[121.042085,23.871572],[121.041305,23.872246],[121.04049,23.87239],[121.039777,23.872377],[121.039105,23.872277],[121.038117,23.871735],[121.036978,23.870714],[121.036594,23.870222],[121.036322,23.869045],[121.036526,23.867821],[121.036645,23.867686],[121.037297,23.867362],[121.037648,23.867357],[121.037887,23.86744],[121.038334,23.868221],[121.038561,23.868336],[121.03872,23.868299],[121.039611,23.866547],[121.040956,23.864412],[121.04128,23.863262],[121.041252,23.862917],[121.04116,23.862748],[121.040671,23.862344],[121.038148,23.861342],[121.037301,23.860763],[121.037141,23.860069],[121.037192,23.859901],[121.037375,23.859754],[121.03785,23.859659],[121.038411,23.859659],[121.039017,23.859501],[121.03984,23.85908],[121.040441,23.858427],[121.040716,23.857707],[121.04076,23.85713],[121.040548,23.856618],[121.04037,23.856471],[121.03936,23.856358],[121.038584,23.856188],[121.038029,23.855848],[121.037789,23.855242],[121.036883,23.854494],[121.035478,23.853489],[121.03541,23.853082],[121.035533,23.852903],[121.036321,23.852863],[121.036871,23.85275],[121.037427,23.852513],[121.037958,23.85219],[121.038937,23.85098],[121.039254,23.849691],[121.039108,23.84812],[121.038788,23.847159],[121.037835,23.845695],[121.036948,23.844572],[121.035137,23.843111],[121.033151,23.841713],[121.032405,23.84095],[121.032267,23.840552],[121.03251,23.8374],[121.032557,23.837334],[121.033207,23.837303],[121.033575,23.837177],[121.034265,23.836781],[121.034908,23.836313],[121.035608,23.835602],[121.036,23.834931],[121.036476,23.83383],[121.03666,23.832617],[121.036525,23.832383],[121.036199,23.832209],[121.03497,23.831881],[121.03397,23.831301],[121.032845,23.828621],[121.032819,23.828104],[121.032933,23.827074],[121.032761,23.826657],[121.032497,23.826398],[121.032278,23.826281],[121.028965,23.826273],[121.027616,23.825939],[121.027251,23.825671],[121.02696,23.823563],[121.027002,23.823155],[121.027272,23.822796],[121.028073,23.823113],[121.028574,23.823228],[121.02911,23.823212],[121.029599,23.823039],[121.029958,23.822678],[121.030364,23.821844],[121.031174,23.820501],[121.03155,23.820129],[121.032244,23.819919],[121.033771,23.819992],[121.034232,23.819924],[121.034746,23.819525],[121.035485,23.818466],[121.036839,23.817292],[121.037266,23.816613],[121.035958,23.813754],[121.035549,23.813056],[121.035184,23.812769],[121.034612,23.812653],[121.034262,23.81266],[121.033794,23.81292],[121.032141,23.81446],[121.031667,23.81458],[121.031165,23.81458],[121.030793,23.814443],[121.029252,23.813011],[121.029102,23.812307],[121.029126,23.812127],[121.02929,23.811943],[121.03226,23.810434],[121.034396,23.810183],[121.03516,23.809889],[121.035778,23.809523],[121.036016,23.809016],[121.036121,23.807547],[121.036281,23.80747],[121.037247,23.807376],[121.037976,23.806914],[121.038517,23.806274],[121.038815,23.805568],[121.038853,23.804332],[121.038775,23.803849],[121.038704,23.803768],[121.038345,23.803773],[121.036948,23.804058],[121.036379,23.804109],[121.03602,23.804073],[121.035528,23.80384],[121.034714,23.801868],[121.03462,23.801716],[121.034333,23.801685],[121.033836,23.801975],[121.033329,23.803189],[121.032991,23.804669],[121.032831,23.805853],[121.032649,23.806082],[121.03219,23.80626],[121.031826,23.80626],[121.031036,23.806199],[121.029643,23.80587],[121.028947,23.80586],[121.028643,23.805971],[121.027725,23.806623],[121.026985,23.806912],[121.026405,23.806958],[121.025853,23.806862],[121.025113,23.806252],[121.023739,23.804166],[121.023533,23.804089],[121.023141,23.804077],[121.022895,23.804158],[121.022728,23.804372],[121.022543,23.805024],[121.022513,23.805456],[121.022693,23.807173],[121.022645,23.807582],[121.022182,23.808073],[121.021535,23.808308],[121.020141,23.808284],[121.018878,23.807525],[121.018503,23.806762],[121.018454,23.806465],[121.018626,23.805847],[121.018961,23.805145],[121.018983,23.804487],[121.018846,23.804284],[121.018391,23.804329],[121.017972,23.804487],[121.016886,23.805307],[121.016382,23.805463],[121.015792,23.805473],[121.015273,23.805296],[121.01492,23.804971],[121.014372,23.804935],[121.013589,23.805133],[121.012986,23.805536],[121.012465,23.80611],[121.011464,23.806634],[121.010078,23.806963],[121.008057,23.807151],[121.006399,23.807131],[121.004938,23.80674],[121.003579,23.806205],[121.003495,23.805959],[121.003434,23.805011],[121.003457,23.804337],[121.003602,23.804028],[121.00393,23.803782],[121.005046,23.803233],[121.007092,23.802706],[121.008057,23.80232],[121.008632,23.801932],[121.008691,23.801745],[121.008648,23.801577],[121.008111,23.801031],[121.007975,23.800727],[121.008057,23.800191],[121.008283,23.79993],[121.00848,23.799843],[121.009831,23.799744],[121.010496,23.799338],[121.012085,23.799123],[121.013011,23.798816],[121.013418,23.798334],[121.013409,23.798137],[121.013126,23.797869],[121.012224,23.797751],[121.01195,23.797579],[121.011926,23.797203],[121.012273,23.796828],[121.013497,23.796147],[121.014303,23.795994],[121.014983,23.796144],[121.016067,23.796895],[121.016778,23.796912],[121.01707,23.796749],[121.017313,23.7965],[121.017488,23.796108],[121.017539,23.795728],[121.017434,23.794987],[121.017123,23.794108],[121.017171,23.792928],[121.017057,23.792695],[121.015739,23.79289],[121.014782,23.793215],[121.012818,23.793455],[121.010903,23.793928],[121.009967,23.793786],[121.009069,23.793483],[121.008153,23.793399],[121.007757,23.793149],[121.007714,23.792794],[121.008261,23.792442],[121.009311,23.791429],[121.009808,23.790843],[121.010461,23.789779],[121.011238,23.787584],[121.011541,23.786105],[121.010737,23.786272],[121.010411,23.786272],[121.009224,23.785992],[121.007205,23.785235],[121.005737,23.78436],[121.003443,23.783566],[121.003042,23.783499],[121.00264,23.783526],[121.001656,23.783687],[121.001268,23.78383],[121.000106,23.784653],[120.997997,23.787313],[120.996869,23.789199],[120.996634,23.789307],[120.994385,23.78934],[120.992713,23.788601],[120.990636,23.788618],[120.989894,23.78872],[120.989693,23.788849],[120.989312,23.789255],[120.989131,23.78968],[120.989001,23.790695],[120.989041,23.791166],[120.989141,23.79136],[120.990261,23.791885],[120.99059,23.792234],[120.990662,23.792451],[120.9906,23.792848],[120.990051,23.793662],[120.989292,23.794354],[120.98915,23.794895],[120.989291,23.796326],[120.989509,23.796969],[120.990123,23.797761],[120.990161,23.797992],[120.990042,23.798334],[120.989569,23.798788],[120.989199,23.798907],[120.98705,23.79895],[120.985855,23.799082],[120.984329,23.799136],[120.983295,23.798973],[120.982382,23.798713],[120.981342,23.798169],[120.981169,23.798005],[120.980787,23.797163],[120.980117,23.79536],[120.979466,23.794772],[120.979096,23.794658],[120.978502,23.794545],[120.976107,23.794865],[120.975313,23.795267],[120.974602,23.796139],[120.974186,23.796457],[120.973504,23.796791],[120.97269,23.796913],[120.971937,23.796693],[120.971238,23.795935],[120.97099,23.795495],[120.96986,23.792667],[120.969238,23.7917],[120.967637,23.789826],[120.967135,23.789453],[120.966498,23.788805],[120.966108,23.787895],[120.966075,23.787517],[120.966117,23.787177],[120.966209,23.78703],[120.966394,23.786899],[120.967769,23.786434],[120.968361,23.786121],[120.968619,23.785457],[120.968657,23.78513],[120.968507,23.784717],[120.968211,23.784613],[120.966695,23.784554],[120.965449,23.784706],[120.963842,23.784623],[120.963168,23.784463],[120.962344,23.784142],[120.961326,23.784038],[120.960458,23.783562],[120.959594,23.783229],[120.959287,23.783216],[120.958905,23.783515],[120.958552,23.784084],[120.958597,23.784796],[120.95886,23.78555],[120.959409,23.786514],[120.959634,23.787133],[120.95993,23.78757],[120.960448,23.78814],[120.962227,23.788692],[120.962588,23.78888],[120.962815,23.789052],[120.963222,23.789823],[120.963286,23.79008],[120.963246,23.790363],[120.962981,23.791062],[120.9627,23.791321],[120.961986,23.791739],[120.961507,23.791901],[120.960312,23.792026],[120.95937,23.792043],[120.958528,23.791856],[120.958057,23.791684],[120.956914,23.790806],[120.956169,23.790496],[120.955438,23.79023],[120.95416,23.790067],[120.951923,23.789994],[120.949946,23.79006],[120.946512,23.789946],[120.941599,23.789639],[120.940234,23.789383],[120.939151,23.789042],[120.935828,23.787636],[120.934507,23.787222],[120.933057,23.787031],[120.930515,23.787089],[120.929362,23.787225],[120.924572,23.788655],[120.914537,23.793043],[120.913167,23.793263],[120.911555,23.792969],[120.909324,23.792202],[120.908826,23.791651],[120.908726,23.791007],[120.908747,23.789975],[120.909244,23.788204],[120.909458,23.786303],[120.909307,23.785812],[120.90902,23.785457],[120.908056,23.784856],[120.906782,23.784477],[120.90591,23.784314],[120.904045,23.784581],[120.902309,23.785007],[120.90034,23.785796],[120.898407,23.786255],[120.889297,23.786423],[120.888721,23.786376],[120.885682,23.785776],[120.884777,23.785459],[120.883056,23.784627],[120.881396,23.783931],[120.880267,23.783584],[120.878786,23.783472],[120.875364,23.783902],[120.874433,23.784083],[120.873602,23.784108],[120.873413,23.784025],[120.873283,23.783251],[120.873227,23.782272],[120.873325,23.781053],[120.873256,23.78038],[120.87306,23.779712],[120.872445,23.778654],[120.87214,23.778348],[120.871615,23.778169],[120.871365,23.778195],[120.870784,23.778321],[120.870514,23.778455],[120.86985,23.77916],[120.86949,23.779704],[120.868091,23.780943],[120.86802,23.781762],[120.868282,23.783194],[120.869895,23.786407],[120.869898,23.786786],[120.869786,23.787184],[120.869569,23.787526],[120.869338,23.787673],[120.86615,23.788774],[120.864054,23.789746],[120.862827,23.789941],[120.859198,23.790018],[120.858056,23.790129],[120.857422,23.790302],[120.85516,23.791316],[120.852675,23.793426],[120.84963,23.796221],[120.84823,23.798116],[120.846853,23.800643],[120.846206,23.802119],[120.844054,23.808987],[120.840426,23.815129],[120.83751,23.817693],[120.833927,23.819335],[120.829526,23.820391],[120.826734,23.820499],[120.822061,23.820187],[120.814233,23.818727],[120.80781,23.8178],[120.798365,23.815887],[120.79258,23.815778],[120.771267,23.816895],[120.764052,23.817151],[120.764143,23.819453],[120.76383,23.819584],[120.763528,23.819667],[120.76167,23.819777],[120.760101,23.819722],[120.759296,23.81977],[120.758773,23.81946],[120.756871,23.818763],[120.756619,23.818782],[120.755583,23.819187],[120.755236,23.81943],[120.754349,23.819492],[120.753448,23.819343],[120.753049,23.819388],[120.752331,23.819629],[120.751019,23.820457],[120.749841,23.820785],[120.749037,23.820801],[120.747699,23.821176],[120.74684,23.8216],[120.746246,23.821984],[120.745382,23.822727],[120.744709,23.823092],[120.743413,23.82347],[120.741829,23.823736],[120.740796,23.824079],[120.739214,23.824744],[120.736218,23.826197],[120.735346,23.826776],[120.734896,23.826991],[120.732007,23.827845],[120.73103,23.827731],[120.730675,23.827773],[120.728725,23.828497],[120.727464,23.828844],[120.724335,23.829216],[120.719754,23.828423],[120.717879,23.827903],[120.714621,23.826319],[120.713931,23.825619],[120.713413,23.825436],[120.711519,23.823894],[120.711207,23.823506],[120.708899,23.821444],[120.708053,23.820294],[120.706162,23.816161],[120.704649,23.813542],[120.70262,23.810303],[120.701332,23.808878],[120.700444,23.808056],[120.699822,23.807616],[120.699134,23.80688],[120.698501,23.806041],[120.687801,23.797007],[120.685273,23.795156],[120.675637,23.78657],[120.670293,23.784803],[120.665866,23.783564],[120.660499,23.782808],[120.651942,23.782605],[120.646129,23.783083],[120.639345,23.784664],[120.636688,23.78471],[120.633252,23.783799],[120.633052,23.783806],[120.630004,23.78444],[120.626561,23.785712],[120.622232,23.786396],[120.617136,23.786992],[120.615666,23.787482],[120.613921,23.78872],[120.613158,23.789005],[120.611576,23.78907],[120.608053,23.789654],[120.598368,23.790853],[120.592115,23.792798],[120.583166,23.797046],[120.579197,23.797668],[120.563694,23.79928],[120.555928,23.799189],[120.544502,23.799527],[120.540678,23.799409],[120.538769,23.79943],[120.53446,23.799672],[120.525401,23.800713],[120.51603,23.802333],[120.511033,23.803613],[120.493543,23.806343],[120.48604,23.807444],[120.479406,23.808924],[120.471781,23.810777],[120.46127,23.812878],[120.458053,23.814213],[120.448852,23.819355],[120.442295,23.822032],[120.433051,23.827491],[120.430071,23.829167],[120.421241,23.833176],[120.413701,23.835442],[120.411502,23.835884],[120.406691,23.835639],[120.402097,23.834779],[120.395165,23.832973],[120.390363,23.832254],[120.384521,23.830887],[120.383051,23.83025],[120.378549,23.828749],[120.372518,23.827237],[120.369648,23.825213],[120.367667,23.823336],[120.367153,23.82309],[120.365582,23.822846],[120.36208,23.822651],[120.357138,23.822862],[120.349491,23.822511],[120.347862,23.822525],[120.346165,23.822818],[120.344243,23.823336],[120.341503,23.825547],[120.337786,23.826832],[120.334781,23.827272],[120.333051,23.827245],[120.32956,23.826809],[120.324215,23.82647],[120.316621,23.824774],[120.308051,23.823962],[120.30398,23.824874],[120.297211,23.826731],[120.291025,23.82932],[120.278391,23.834354],[120.268848,23.837366],[120.258409,23.843687]]}},
{"type":"Feature","properties":{"OBJECTID_1":72,"OBJECTID":178.0,"NAME":"雷公坑","drainage_t":"中央管河川","BASIN_2017":"濁水溪","SYS_NAME":"濁水溪","COUNTY20_1":"南投縣","Note":"埔里中華爬岩鰍","Shape_Leng":0.03405371473},"geometry":{"type":"LineString","coordinates":[[120.636091,23.628566],[120.636502,23.628899],[120.636854,23.62902],[120.637168,23.629356],[120.637848,23.629686],[120.63801,23.629878],[120.63803,23.63015],[120.638281,23.630697],[120.638429,23.630952],[120.638724,23.631216],[120.638862,23.631642],[120.63909,23.631819],[120.639416,23.632294],[120.640028,23.632562],[120.640172,23.633336],[120.640381,23.633689],[120.640674,23.633988],[120.641203,23.635693],[120.641272,23.636496],[120.641557,23.637344],[120.641488,23.638161],[120.641867,23.638824],[120.642132,23.63957],[120.642803,23.640467],[120.642975,23.640831],[120.644178,23.641345],[120.645374,23.641683],[120.646242,23.642128],[120.646954,23.642242],[120.647501,23.642178],[120.648276,23.642477],[120.649206,23.642695],[120.650085,23.643439],[120.65034,23.643838],[120.650475,23.644275],[120.650748,23.644452],[120.651036,23.644904],[120.651379,23.645123],[120.651484,23.645488],[120.651796,23.645959],[120.652833,23.646669],[120.653064,23.647082],[120.653543,23.647454],[120.653943,23.648025],[120.654045,23.648334],[120.654016,23.649349],[120.654396,23.650773],[120.654461,23.650868],[120.65533,23.651272],[120.655937,23.652313]]}},
{"type":"Feature","properties":{"OBJECTID_1":73,"OBJECTID":184.0,"NAME":"加走寮溪","drainage_t":"中央管河川","BASIN_2017":"濁水溪","SYS_NAME":"濁水溪","COUNTY20_1":"南投縣","Note":"埔里中華爬岩鰍","Shape_Leng":0.23345194308},"geometry":{"type":"LineString","coordinates":[[120.821257,23.613337],[120.821406,23.612857],[120.821316,23.612419],[120.820415,23.611801],[120.820307,23.611584],[120.820272,23.611221],[120.819893,23.610874],[120.819535,23.610832],[120.819258,23.610695],[120.818942,23.610825],[120.818544,23.610855],[120.818013,23.610629],[120.817405,23.610639],[120.815795,23.609906],[120.815441,23.609681],[120.814999,23.609613],[120.814549,23.609411],[120.814284,23.609396],[120.814057,23.609437],[120.813814,23.609618],[120.813483,23.609636],[120.8126,23.610262],[120.812222,23.610305],[120.811651,23.611084],[120.810992,23.611382],[120.81074,23.611698],[120.810425,23.611943],[120.810552,23.61237],[120.810831,23.612884],[120.810867,23.613192],[120.810703,23.613543],[120.81016,23.614081],[120.808709,23.614805],[120.80761,23.614728],[120.805606,23.615154],[120.805414,23.615409],[120.804838,23.615716],[120.804682,23.616289],[120.804057,23.616901],[120.803315,23.618155],[120.802945,23.618517],[120.802628,23.618571],[120.80257,23.618955],[120.802304,23.619284],[120.802431,23.619972],[120.80159,23.620775],[120.801591,23.622006],[120.801716,23.622355],[120.801641,23.622679],[120.801071,23.623025],[120.800003,23.623863],[120.799783,23.624201],[120.799553,23.625146],[120.799568,23.625653],[120.79967,23.625928],[120.799629,23.626194],[120.799049,23.626944],[120.798793,23.627149],[120.797965,23.627166],[120.797703,23.627297],[120.797817,23.627585],[120.797762,23.627838],[120.796355,23.629952],[120.795471,23.630628],[120.795281,23.630885],[120.794994,23.631617],[120.794662,23.632135],[120.794687,23.632583],[120.794135,23.632893],[120.79365,23.633453],[120.793362,23.634064],[120.793243,23.634636],[120.792997,23.634774],[120.792833,23.634719],[120.792448,23.633767],[120.792209,23.633555],[120.791053,23.633353],[120.790656,23.633365],[120.790476,23.633512],[120.790478,23.634732],[120.789807,23.635421],[120.789714,23.635678],[120.789763,23.635832],[120.790136,23.636298],[120.790465,23.636575],[120.790846,23.636737],[120.792125,23.637019],[120.792241,23.637071],[120.792342,23.637292],[120.791967,23.63819],[120.7918,23.638816],[120.790796,23.639736],[120.790461,23.639703],[120.790183,23.639533],[120.789517,23.638557],[120.789232,23.638214],[120.789021,23.638093],[120.788667,23.638169],[120.78831,23.638681],[120.78795,23.638873],[120.787264,23.638804],[120.786763,23.638844],[120.786531,23.638732],[120.786363,23.63852],[120.786314,23.638116],[120.786234,23.638021],[120.785724,23.637825],[120.785178,23.637474],[120.784778,23.637454],[120.784377,23.637617],[120.784199,23.638023],[120.784287,23.638229],[120.78476,23.638736],[120.784688,23.639036],[120.784387,23.639317],[120.783124,23.639411],[120.781928,23.640106],[120.781308,23.640255],[120.780428,23.640109],[120.779965,23.640122],[120.777376,23.640463],[120.776699,23.640781],[120.77635,23.641346],[120.775897,23.641719],[120.775325,23.64194],[120.77371,23.642312],[120.772846,23.642998],[120.772499,23.643066],[120.772012,23.643279],[120.771306,23.64393],[120.770658,23.644108],[120.769959,23.644475],[120.768358,23.644966],[120.768037,23.644947],[120.766949,23.644573],[120.766372,23.644008],[120.765835,23.643897],[120.765535,23.643707],[120.763574,23.643089],[120.762955,23.643068],[120.761874,23.643641],[120.760971,23.643865],[120.760708,23.643776],[120.760177,23.643182],[120.759626,23.642797],[120.758896,23.642712],[120.758278,23.642783],[120.757848,23.643038],[120.757521,23.642933],[120.757138,23.642655],[120.756766,23.642587],[120.756195,23.642816],[120.755601,23.643543],[120.754707,23.643728],[120.754094,23.643661],[120.753635,23.643496],[120.752447,23.643504],[120.751476,23.643248],[120.750231,23.643042],[120.749671,23.642794],[120.749034,23.642693],[120.748201,23.643025],[120.74659,23.644333],[120.74629,23.644718],[120.74598,23.645313],[120.74573,23.645544],[120.745176,23.645656],[120.743821,23.645475],[120.743607,23.645522],[120.742409,23.647372],[120.742091,23.647627],[120.741295,23.647901],[120.740486,23.648009],[120.739969,23.647773],[120.73944,23.647244],[120.739199,23.647227],[120.738905,23.647325],[120.738262,23.64825],[120.738067,23.649162],[120.737704,23.649897],[120.737984,23.650374],[120.737933,23.650621],[120.737617,23.6508],[120.736631,23.651015],[120.736414,23.651539],[120.736116,23.651907],[120.736101,23.65213],[120.736317,23.652567],[120.736688,23.652884],[120.736798,23.653103],[120.736822,23.653724],[120.736931,23.653966],[120.73756,23.654645],[120.738228,23.655947],[120.738827,23.657941],[120.739077,23.659185],[120.738501,23.6594],[120.737484,23.659585],[120.737126,23.659779],[120.736272,23.660007],[120.736127,23.660151],[120.735586,23.661197],[120.734707,23.661552],[120.734288,23.661813],[120.733851,23.66193],[120.733068,23.661897],[120.731823,23.662407],[120.731252,23.662369],[120.73046,23.661932],[120.730217,23.66156],[120.729352,23.661369],[120.729167,23.661062],[120.728895,23.660822],[120.728603,23.660827],[120.728299,23.661021],[120.727946,23.661553],[120.727671,23.662574],[120.727507,23.663505],[120.727593,23.664077],[120.727259,23.664489],[120.727086,23.665023],[120.726355,23.666381],[120.725403,23.667771],[120.725312,23.66813],[120.724793,23.669108],[120.724185,23.669673],[120.723969,23.669681],[120.723416,23.669414],[120.722257,23.669154],[120.721306,23.669187],[120.720558,23.669382],[120.719164,23.669925],[120.718451,23.670008],[120.717425,23.670002],[120.716857,23.670148],[120.716325,23.670372],[120.715573,23.670819],[120.715232,23.670887],[120.714093,23.671506],[120.713062,23.671705],[120.712228,23.671703],[120.710333,23.671282],[120.709414,23.671219],[120.706765,23.671542],[120.705359,23.671523],[120.704621,23.671356],[120.704398,23.671283],[120.703897,23.670793],[120.703597,23.670251],[120.702785,23.668126],[120.702609,23.667914],[120.701267,23.66703],[120.700385,23.665768],[120.70019,23.665608],[120.699895,23.665452],[120.69875,23.665083],[120.698036,23.664574],[120.697872,23.664373],[120.697929,23.663947],[120.698501,23.663262],[120.698666,23.662769],[120.698648,23.662355],[120.698727,23.662103],[120.698629,23.66162],[120.697511,23.661483],[120.69657,23.661555],[120.696127,23.661695],[120.694773,23.662341],[120.693773,23.6635],[120.693167,23.663932],[120.692967,23.663994],[120.692709,23.663981],[120.69103,23.66341],[120.68904,23.663258],[120.687028,23.663335],[120.686389,23.663723],[120.686092,23.664277],[120.686102,23.665031],[120.686037,23.665293],[120.685712,23.665813],[120.685477,23.666016],[120.685235,23.666114],[120.684862,23.66605],[120.683937,23.665475],[120.682966,23.665451],[120.682202,23.665731],[120.681335,23.666678],[120.680895,23.666631],[120.679764,23.666177],[120.679043,23.666016],[120.678654,23.666015],[120.677572,23.666352],[120.677103,23.666596],[120.676561,23.66702],[120.675231,23.668465],[120.674768,23.668796],[120.674161,23.669559],[120.673857,23.66983],[120.673453,23.670068],[120.672926,23.67024],[120.671361,23.670436],[120.668838,23.670191],[120.665341,23.67039],[120.664122,23.670374],[120.662852,23.670677],[120.662023,23.671067]]}},
{"type":"Feature","properties":{"OBJECTID_1":74,"OBJECTID":185.0,"NAME":"東埔蚋溪","drainage_t":"中央管河川","BASIN_2017":"濁水溪","SYS_NAME":"濁水溪","COUNTY20_1":"南投縣","Note":"埔里中華爬岩鰍","Shape_Leng":0.21465645681000001},"geometry":{"type":"LineString","coordinates":[[120.745252,23.682151],[120.744171,23.681847],[120.743939,23.681638],[120.743751,23.681643],[120.743013,23.68215],[120.742656,23.682242],[120.74218,23.682514],[120.741638,23.682616],[120.741364,23.683352],[120.740973,23.683883],[120.740356,23.684405],[120.739952,23.684549],[120.739469,23.684838],[120.739083,23.685266],[120.738843,23.685907],[120.738377,23.686409],[120.73773,23.686696],[120.737102,23.687085],[120.735383,23.686999],[120.735177,23.687045],[120.734588,23.687332],[120.73408,23.687807],[120.733561,23.688087],[120.733335,23.688399],[120.73324,23.689066],[120.73307,23.689244],[120.732992,23.689567],[120.732834,23.689642],[120.732353,23.689652],[120.731693,23.690475],[120.731718,23.690752],[120.731912,23.6912],[120.732224,23.691483],[120.732275,23.691794],[120.732418,23.692063],[120.732445,23.692496],[120.73226,23.692831],[120.731056,23.693844],[120.730441,23.694634],[120.730025,23.695002],[120.729696,23.695178],[120.729187,23.695753],[120.729035,23.696409],[120.728904,23.696473],[120.728497,23.696478],[120.728391,23.696565],[120.727384,23.697743],[120.727337,23.697957],[120.727398,23.698425],[120.726933,23.698666],[120.726776,23.698969],[120.726172,23.699548],[120.725923,23.699904],[120.725813,23.699983],[120.725538,23.699945],[120.724954,23.70006],[120.724849,23.700349],[120.724478,23.700514],[120.724365,23.700917],[120.723935,23.701316],[120.723944,23.701567],[120.723551,23.702059],[120.72369,23.702286],[120.724275,23.702409],[120.724483,23.70252],[120.724575,23.702659],[120.724539,23.702928],[120.724201,23.703633],[120.72405,23.704389],[120.725108,23.704941],[120.725193,23.705081],[120.725113,23.70524],[120.725145,23.705386],[120.725882,23.706206],[120.726336,23.706592],[120.726774,23.706674],[120.727179,23.706548],[120.727478,23.706775],[120.728215,23.706882],[120.728626,23.707234],[120.728609,23.708361],[120.728853,23.70901],[120.729439,23.709736],[120.729689,23.710317],[120.729574,23.710501],[120.729208,23.710548],[120.72907,23.710641],[120.728799,23.711793],[120.729084,23.712005],[120.729888,23.712235],[120.730316,23.712548],[120.730588,23.712907],[120.730572,23.713079],[120.730463,23.713225],[120.729832,23.713422],[120.729592,23.713642],[120.729471,23.713944],[120.729546,23.714427],[120.73052,23.71612],[120.730559,23.716709],[120.731427,23.716838],[120.731559,23.716948],[120.731467,23.717136],[120.731066,23.717344],[120.730983,23.717538],[120.731021,23.717684],[120.731146,23.717718],[120.732165,23.717476],[120.732391,23.717564],[120.732431,23.717744],[120.732369,23.717969],[120.731777,23.718232],[120.731456,23.718791],[120.731888,23.719095],[120.732465,23.71902],[120.732668,23.71909],[120.73328,23.720458],[120.733675,23.72098],[120.734742,23.721783],[120.734916,23.722292],[120.735329,23.722541],[120.735684,23.722946],[120.735731,23.723253],[120.735418,23.724031],[120.735415,23.724202],[120.736073,23.724957],[120.736245,23.725229],[120.736376,23.725696],[120.736339,23.725915],[120.736005,23.726557],[120.735307,23.726751],[120.73469,23.726802],[120.734304,23.726975],[120.73399,23.727166],[120.733813,23.727416],[120.733208,23.727881],[120.732814,23.728422],[120.732862,23.728676],[120.733341,23.729228],[120.734129,23.729826],[120.73468,23.730127],[120.734919,23.731155],[120.735393,23.732261],[120.735506,23.733279],[120.735446,23.733952],[120.735253,23.734243],[120.734154,23.735365],[120.733588,23.735778],[120.733274,23.736104],[120.732558,23.736395],[120.731643,23.736428],[120.731226,23.736536],[120.730981,23.736819],[120.730938,23.737321],[120.73108,23.737755],[120.731364,23.738198],[120.732032,23.738848],[120.732251,23.739352],[120.732215,23.739637],[120.732022,23.739789],[120.731658,23.739789],[120.729249,23.739194],[120.728719,23.739162],[120.72835,23.739232],[120.728054,23.739421],[120.728019,23.739942],[120.728717,23.740671],[120.730019,23.741743],[120.730287,23.741809],[120.730624,23.741727],[120.731064,23.741778],[120.73126,23.742024],[120.731404,23.742388],[120.73198,23.742465],[120.732755,23.742915],[120.73343,23.743054],[120.733788,23.742985],[120.734001,23.742881],[120.734583,23.742343],[120.734749,23.742301],[120.734943,23.742691],[120.735152,23.743741],[120.735436,23.744346],[120.735719,23.744453],[120.735975,23.744073],[120.736088,23.74402],[120.736385,23.743974],[120.736916,23.744032],[120.737128,23.744479],[120.737385,23.745607],[120.737745,23.745468],[120.738821,23.745497],[120.739816,23.746081],[120.739892,23.746223],[120.739684,23.746534],[120.739687,23.746872],[120.740249,23.747106],[120.740328,23.747861],[120.740765,23.74865],[120.741068,23.748917],[120.741871,23.749372],[120.741899,23.749601],[120.741863,23.749797],[120.741727,23.749946],[120.740833,23.750069],[120.740654,23.75037],[120.740338,23.751306],[120.739961,23.751891],[120.739909,23.752305],[120.739977,23.753972],[120.739902,23.754204],[120.739619,23.754504],[120.738742,23.754965],[120.737065,23.755365],[120.736391,23.755847],[120.735895,23.756582],[120.735529,23.756865],[120.735156,23.756957],[120.734145,23.75638],[120.733463,23.756301],[120.732626,23.756477],[120.732228,23.756658],[120.731549,23.757434],[120.731451,23.758281],[120.730967,23.75854],[120.730461,23.758704],[120.730029,23.75924],[120.730006,23.759729],[120.730369,23.760351],[120.73025,23.761001],[120.729947,23.761365],[120.729597,23.761359],[120.729101,23.761134],[120.728619,23.760607],[120.727684,23.759949],[120.726717,23.759038],[120.726323,23.759042],[120.725932,23.759184],[120.724907,23.759781],[120.724465,23.760418],[120.724191,23.761923],[120.723784,23.762004],[120.723657,23.762581],[120.72381,23.763179],[120.723696,23.763775],[120.723066,23.764504],[120.721579,23.765309],[120.720846,23.765942],[120.719393,23.766942],[120.718759,23.767492],[120.716942,23.768491],[120.715898,23.769413],[120.714875,23.770604],[120.713345,23.772003],[120.712992,23.772658],[120.712765,23.773336],[120.712429,23.775277],[120.711477,23.776685],[120.711452,23.777116],[120.711082,23.777956],[120.71048,23.778636],[120.710354,23.778911],[120.710256,23.779862],[120.70998,23.781002],[120.71006,23.781514],[120.710692,23.783586],[120.710794,23.784245],[120.710698,23.784836],[120.709978,23.786161],[120.709395,23.78664],[120.708786,23.786755],[120.708512,23.786877],[120.708314,23.787036],[120.708053,23.787478],[120.707107,23.788254],[120.705692,23.789197],[120.704177,23.790599],[120.70332,23.791215],[120.702836,23.79138],[120.70241,23.791369],[120.699333,23.790438],[120.697523,23.7893],[120.696689,23.788644],[120.696077,23.788024],[120.695139,23.787458],[120.694533,23.787265],[120.693105,23.78704],[120.692503,23.786845],[120.689961,23.786381],[120.687666,23.78586],[120.686005,23.785201],[120.682761,23.785236],[120.675637,23.78657]]}},
{"type":"Feature","properties":{"OBJECTID_1":75,"OBJECTID":189.0,"NAME":"陳有蘭溪","drainage_t":"中央管河川","BASIN_2017":"濁水溪","SYS_NAME":"濁水溪","COUNTY20_1":"南投縣","Note":"埔里中華爬岩鰍","Shape_Leng":0.38847430555000001},"geometry":{"type":"LineString","coordinates":[[120.986139,23.49311],[120.986699,23.493361],[120.987045,23.493364],[120.988227,23.493634],[120.988687,23.493826],[120.988892,23.493998],[120.98945,23.49408],[120.990278,23.494938],[120.990615,23.495431],[120.991244,23.495611],[120.991631,23.495833],[120.991971,23.496518],[120.992268,23.496562],[120.992478,23.496393],[120.992811,23.496519],[120.993501,23.497209],[120.994366,23.49866],[120.995061,23.499128],[120.995238,23.499575],[120.995274,23.500222],[120.994658,23.502511],[120.994417,23.502952],[120.994008,23.503323],[120.99019,23.505281],[120.987604,23.507111],[120.985457,23.509874],[120.984361,23.510986],[120.982607,23.512585],[120.981524,23.514052],[120.981288,23.514697],[120.98107,23.516369],[120.980677,23.517469],[120.980483,23.518387],[120.979595,23.519695],[120.979108,23.520187],[120.978403,23.520439],[120.977959,23.520825],[120.977359,23.520815],[120.977094,23.520938],[120.976809,23.521217],[120.976562,23.521681],[120.976191,23.522001],[120.975733,23.522737],[120.975318,23.522662],[120.974271,23.523539],[120.973998,23.52393],[120.973697,23.524711],[120.973569,23.525382],[120.973184,23.525961],[120.973353,23.526567],[120.973205,23.527414],[120.973007,23.527805],[120.97301,23.528484],[120.972836,23.529231],[120.972429,23.529869],[120.971529,23.530483],[120.970735,23.530769],[120.970398,23.53076],[120.96946,23.530438],[120.96908,23.530546],[120.967749,23.532785],[120.966946,23.533036],[120.966299,23.533375],[120.965564,23.534418],[120.963312,23.535987],[120.962879,23.536685],[120.961799,23.537378],[120.960338,23.539071],[120.960008,23.539646],[120.958455,23.541487],[120.957824,23.541839],[120.956688,23.541753],[120.956241,23.541783],[120.955189,23.54246],[120.954497,23.543382],[120.954395,23.543791],[120.953678,23.544579],[120.953407,23.545545],[120.953401,23.545878],[120.953017,23.546711],[120.95261,23.546901],[120.952361,23.547147],[120.951794,23.547451],[120.9514,23.547775],[120.950755,23.548103],[120.95039,23.548771],[120.949899,23.549415],[120.949424,23.549866],[120.948329,23.550678],[120.947636,23.55085],[120.946471,23.550843],[120.945069,23.55122],[120.944586,23.551094],[120.94401,23.550827],[120.943762,23.550805],[120.943508,23.550876],[120.943205,23.551172],[120.942852,23.551369],[120.941868,23.551622],[120.940632,23.551706],[120.939245,23.551515],[120.938369,23.551595],[120.936756,23.55267],[120.936481,23.552642],[120.935784,23.552003],[120.935526,23.55194],[120.933383,23.55309],[120.932938,23.553169],[120.932591,23.553106],[120.932129,23.552871],[120.931007,23.552057],[120.930459,23.551774],[120.929402,23.5515],[120.927484,23.551281],[120.925726,23.550531],[120.925225,23.550508],[120.92512,23.551497],[120.924213,23.55279],[120.923282,23.554346],[120.922775,23.554915],[120.922191,23.555401],[120.921221,23.556496],[120.920283,23.557904],[120.920105,23.558594],[120.919955,23.561003],[120.919684,23.562126],[120.919468,23.562478],[120.918458,23.563414],[120.916586,23.563976],[120.915803,23.564414],[120.915014,23.565083],[120.914306,23.566054],[120.913878,23.567028],[120.913721,23.567598],[120.912544,23.569771],[120.911716,23.570745],[120.911472,23.571274],[120.911279,23.572653],[120.91138,23.573825],[120.911262,23.57421],[120.911067,23.574503],[120.910796,23.574706],[120.910378,23.57478],[120.908026,23.574867],[120.907579,23.57498],[120.906955,23.575278],[120.906537,23.575571],[120.906378,23.575907],[120.906012,23.578226],[120.905788,23.578822],[120.904011,23.580323],[120.903305,23.581065],[120.902566,23.58166],[120.902239,23.582737],[120.902124,23.582822],[120.901326,23.582972],[120.900721,23.583199],[120.899126,23.583918],[120.898254,23.584528],[120.897013,23.586422],[120.895426,23.587385],[120.895078,23.587849],[120.894774,23.58853],[120.894392,23.589146],[120.893264,23.590472],[120.891948,23.59183],[120.890906,23.592428],[120.890431,23.593105],[120.890192,23.593584],[120.890042,23.594255],[120.890116,23.59495],[120.890703,23.597546],[120.891633,23.599201],[120.891954,23.599437],[120.892457,23.600063],[120.892911,23.601248],[120.892973,23.601781],[120.89385,23.603334],[120.894484,23.605242],[120.894522,23.606319],[120.894363,23.609318],[120.894519,23.611356],[120.894478,23.612585],[120.894969,23.614264],[120.895364,23.615161],[120.896178,23.616228],[120.896809,23.617251],[120.897348,23.618432],[120.898256,23.621214],[120.898232,23.621823],[120.897046,23.623532],[120.895908,23.624331],[120.895514,23.624828],[120.894859,23.62611],[120.893244,23.628902],[120.892043,23.63123],[120.891236,23.63299],[120.889456,23.637628],[120.887725,23.640443],[120.886963,23.642022],[120.886363,23.645717],[120.886195,23.648335],[120.886075,23.648872],[120.885697,23.649595],[120.884291,23.651408],[120.883393,23.652295],[120.88097,23.653918],[120.87996,23.654509],[120.878562,23.655179],[120.877278,23.656131],[120.876644,23.656425],[120.873894,23.657203],[120.872943,23.657553],[120.872023,23.658138],[120.871426,23.658624],[120.870049,23.660916],[120.869393,23.662447],[120.868955,23.663216],[120.868755,23.664035],[120.868649,23.666385],[120.868442,23.667028],[120.868282,23.668329],[120.868293,23.669649],[120.86844,23.671513],[120.868391,23.672365],[120.868119,23.673731],[120.86736,23.675553],[120.866218,23.679022],[120.865846,23.680592],[120.865092,23.681998],[120.864648,23.682446],[120.862845,23.683848],[120.862006,23.685054],[120.860566,23.686661],[120.859949,23.687176],[120.858859,23.687874],[120.85491,23.692607],[120.852098,23.694897],[120.849924,23.697128],[120.848386,23.701124],[120.847551,23.706002],[120.847673,23.710763],[120.846262,23.716169],[120.843917,23.722456],[120.844143,23.726825],[120.845122,23.731087],[120.847663,23.73599],[120.850322,23.74036],[120.853849,23.744146],[120.854213,23.746277],[120.856246,23.748334],[120.859834,23.757823],[120.863245,23.767153],[120.863296,23.768185],[120.863135,23.771645],[120.86319,23.772905],[120.863494,23.774263],[120.864166,23.77563],[120.865532,23.77764],[120.867873,23.779227],[120.868106,23.779934],[120.868091,23.780943]]}},
{"type":"Feature","properties":{"OBJECTID_1":79,"OBJECTID":726.0,"NAME":"清水溪","drainage_t":"中央管河川","BASIN_2017":"濁水溪","SYS_NAME":"濁水溪","COUNTY20_1":"雲林縣","Note":"埔里中華爬岩鰍","Shape_Leng":0.39700895326000002},"geometry":{"type":"LineString","coordinates":[[120.767063,23.563466],[120.766755,23.563349],[120.766187,23.56298],[120.765691,23.562861],[120.765431,23.563097],[120.764103,23.563111],[120.763287,23.563197],[120.762653,23.563554],[120.761563,23.563893],[120.759898,23.563874],[120.759524,23.564053],[120.758403,23.564139],[120.757306,23.563918],[120.755927,23.563955],[120.755809,23.564144],[120.755147,23.564604],[120.754062,23.565106],[120.75377,23.565342],[120.752873,23.565827],[120.750667,23.566872],[120.749931,23.5675],[120.748736,23.568968],[120.748116,23.569343],[120.746314,23.570018],[120.743725,23.570587],[120.743294,23.56992],[120.742913,23.569512],[120.742352,23.569123],[120.74178,23.568835],[120.740145,23.568304],[120.739041,23.568275],[120.738097,23.568421],[120.737464,23.568624],[120.735404,23.569397],[120.732993,23.57043],[120.73224,23.570502],[120.72963,23.570294],[120.727572,23.569939],[120.72689,23.570058],[120.726176,23.570381],[120.725472,23.570851],[120.723905,23.571413],[120.722962,23.571337],[120.722089,23.571123],[120.721316,23.570733],[120.720736,23.569945],[120.719776,23.567945],[120.718085,23.56839],[120.71724,23.568705],[120.71682,23.569103],[120.716496,23.569766],[120.716289,23.5705],[120.716096,23.570683],[120.714812,23.57101],[120.71372,23.571128],[120.71197,23.570796],[120.711352,23.570744],[120.710597,23.570775],[120.71024,23.570862],[120.709821,23.571159],[120.709442,23.571557],[120.709136,23.572147],[120.708765,23.573764],[120.708523,23.574301],[120.708054,23.57473],[120.707457,23.575043],[120.70656,23.575283],[120.704561,23.57498],[120.70334,23.575356],[120.702047,23.575335],[120.698747,23.575769],[120.696007,23.575736],[120.693916,23.575962],[120.693245,23.575803],[120.692575,23.575486],[120.688821,23.574819],[120.686017,23.574063],[120.682391,23.571688],[120.681486,23.571325],[120.680924,23.571236],[120.680054,23.571239],[120.677894,23.571845],[120.676612,23.572573],[120.67589,23.572754],[120.674714,23.574119],[120.674097,23.574581],[120.67306,23.57505],[120.672501,23.575394],[120.672318,23.575637],[120.672071,23.576538],[120.671255,23.577461],[120.670484,23.577744],[120.670325,23.577887],[120.669767,23.577949],[120.669647,23.578445],[120.669261,23.578625],[120.667761,23.578933],[120.667233,23.579326],[120.666771,23.580081],[120.666621,23.580131],[120.666085,23.580051],[120.66567,23.579896],[120.665109,23.579401],[120.664573,23.578656],[120.664327,23.577781],[120.66391,23.57674],[120.663537,23.576116],[120.663223,23.575825],[120.662566,23.57552],[120.66113,23.575236],[120.659394,23.57426],[120.658823,23.57374],[120.65824,23.57305],[120.657674,23.572163],[120.657151,23.571573],[120.656266,23.571152],[120.655958,23.571161],[120.655523,23.571397],[120.654951,23.571496],[120.654505,23.571752],[120.654205,23.571701],[120.654125,23.571824],[120.654066,23.572285],[120.653975,23.572401],[120.653627,23.572521],[120.652986,23.572616],[120.650931,23.572411],[120.650149,23.57256],[120.649866,23.572779],[120.649695,23.573066],[120.649471,23.574296],[120.648961,23.57538],[120.648508,23.575739],[120.648152,23.576202],[120.647793,23.576471],[120.646897,23.5769],[120.646423,23.576909],[120.646232,23.576788],[120.64541,23.575488],[120.644889,23.575227],[120.644147,23.575105],[120.643495,23.575571],[120.643436,23.575697],[120.643622,23.576565],[120.643584,23.577489],[120.643669,23.578127],[120.643895,23.578818],[120.644082,23.579092],[120.644241,23.579239],[120.644798,23.579444],[120.645019,23.579471],[120.645631,23.579329],[120.645808,23.57936],[120.647662,23.580742],[120.648711,23.582139],[120.649367,23.584013],[120.649503,23.58526],[120.649154,23.58598],[120.649049,23.58605],[120.648708,23.586033],[120.647801,23.58567],[120.647655,23.585675],[120.647282,23.586009],[120.647107,23.586309],[120.647049,23.586609],[120.647141,23.587237],[120.647464,23.588202],[120.64875,23.590889],[120.648723,23.591254],[120.64887,23.592112],[120.648766,23.592735],[120.648681,23.593103],[120.648573,23.5933],[120.64817,23.59366],[120.648044,23.593881],[120.648009,23.594153],[120.648065,23.594975],[120.648254,23.595702],[120.648343,23.595822],[120.648553,23.595875],[120.649796,23.596075],[120.650137,23.596271],[120.650461,23.596636],[120.650623,23.596712],[120.652329,23.596873],[120.653222,23.596676],[120.653694,23.596684],[120.654009,23.596727],[120.654666,23.597006],[120.655669,23.597207],[120.656837,23.597811],[120.657272,23.598166],[120.657414,23.598505],[120.657371,23.598955],[120.656275,23.599669],[120.655703,23.600645],[120.655058,23.601547],[120.654982,23.602022],[120.654761,23.602446],[120.654369,23.603657],[120.654133,23.603948],[120.654187,23.604739],[120.654439,23.605357],[120.654507,23.605737],[120.654703,23.605958],[120.654878,23.606542],[120.655118,23.606906],[120.65523,23.607671],[120.655072,23.608372],[120.654942,23.608571],[120.65449,23.608817],[120.652637,23.60846],[120.652232,23.60851],[120.651897,23.609503],[120.651341,23.61361],[120.651435,23.616005],[120.651774,23.617581],[120.652223,23.61871],[120.65254,23.620312],[120.652612,23.621298],[120.65258,23.621783],[120.652095,23.622585],[120.651919,23.623281],[120.651837,23.624629],[120.651956,23.625653],[120.652362,23.62677],[120.652663,23.627123],[120.653402,23.627702],[120.654027,23.627837],[120.654797,23.627707],[120.657995,23.626425],[120.658714,23.626442],[120.659268,23.626657],[120.660061,23.627272],[120.660735,23.628348],[120.660939,23.629263],[120.661067,23.63084],[120.660978,23.631403],[120.660613,23.632636],[120.659877,23.634793],[120.659843,23.636727],[120.659088,23.640531],[120.6591,23.644805],[120.659217,23.646807],[120.65919,23.648335],[120.659091,23.648731],[120.658575,23.649864],[120.657512,23.650947],[120.655012,23.653146],[120.654275,23.653994],[120.652448,23.657034],[120.652298,23.657555],[120.652298,23.658829],[120.652489,23.659912],[120.6535,23.662019],[120.654632,23.663044],[120.655495,23.663958],[120.656184,23.664942],[120.656478,23.665696],[120.658533,23.667444],[120.659338,23.668324],[120.6601,23.669375],[120.660528,23.670212],[120.660993,23.670392],[120.661309,23.670385],[120.661948,23.670969],[120.662239,23.671958],[120.662378,23.673576],[120.662373,23.675126],[120.662114,23.677409],[120.662128,23.680225],[120.662044,23.680615],[120.661773,23.681204],[120.661055,23.684528],[120.660588,23.686416],[120.660296,23.687234],[120.660071,23.688335],[120.659913,23.690019],[120.658742,23.692751],[120.657762,23.694673],[120.656835,23.69643],[120.656269,23.697055],[120.655895,23.697727],[120.655711,23.69825],[120.655745,23.698453],[120.655503,23.700831],[120.655743,23.702558],[120.656635,23.704531],[120.657732,23.706576],[120.658857,23.707877],[120.661096,23.710095],[120.66214,23.711372],[120.662801,23.712597],[120.663406,23.713931],[120.663875,23.714455],[120.664481,23.715463],[120.664865,23.716473],[120.665258,23.718269],[120.665268,23.719503],[120.665112,23.720449],[120.664303,23.722037],[120.663874,23.723615],[120.663429,23.724803],[120.661757,23.728219],[120.661513,23.728646],[120.65926,23.730889],[120.658701,23.731376],[120.657815,23.731756],[120.656154,23.733976],[120.65589,23.734647],[120.655488,23.73643],[120.655373,23.73777],[120.654834,23.740369],[120.654699,23.743669],[120.654868,23.748859],[120.655043,23.749576],[120.655375,23.75022],[120.655759,23.751318],[120.656043,23.75351],[120.65617,23.755402],[120.656092,23.757752],[120.655922,23.758367],[120.654752,23.760266],[120.654136,23.761545],[120.653068,23.764296],[120.651211,23.7681],[120.650545,23.771074],[120.649548,23.774362],[120.647368,23.782981]]}}
]
}
