{
"type": "FeatureCollection",
"name": "紅皮書受脅植物重要棲地",
"xy_coordinate_resolution": 1e-06,
"features": [
{"type":"Feature","properties":{"Name":"福興濱海","Admin_Dist":"彰化縣"},"geometry":{"type":"Polygon","coordinates":[[[120.403847,24.054269],[120.402997,24.054173],[120.401744,24.054272],[120.401389,24.054383],[120.400029,24.054391],[120.399278,24.054219],[120.395938,24.051773],[120.392455,24.049976],[120.390737,24.049296],[120.387603,24.047462],[120.386424,24.046927],[120.385425,24.046259],[120.38357,24.045565],[120.383006,24.045087],[120.382595,24.04562],[120.382306,24.044583],[120.381811,24.044565],[120.381481,24.044841],[120.38128,24.045743],[120.380941,24.045525],[120.380701,24.045174],[120.380213,24.045254],[120.379879,24.045413],[120.379566,24.04475],[120.379302,24.044406],[120.379675,24.044197],[120.379854,24.043756],[120.380249,24.044003],[120.380384,24.043658],[120.379933,24.043386],[120.37805,24.04282],[120.377166,24.042259],[120.376261,24.042274],[120.376046,24.04215],[120.376054,24.042055],[120.377941,24.041028],[120.379827,24.040335],[120.383073,24.041694],[120.391256,24.045384],[120.393809,24.046549],[120.396472,24.04788],[120.399856,24.048934],[120.404156,24.049683],[120.406847,24.049711],[120.411174,24.049406],[120.422493,24.0458],[120.424351,24.050016],[120.425739,24.053706],[120.408789,24.059559],[120.406543,24.058662],[120.406568,24.058236],[120.406738,24.057792],[120.406976,24.057355],[120.407248,24.057083],[120.407037,24.056626],[120.406544,24.056056],[120.406502,24.055683],[120.406231,24.055388],[120.405739,24.055513],[120.405309,24.055534],[120.40458,24.055427],[120.404912,24.055015],[120.403847,24.054269]]]}},
{"type":"Feature","properties":{"Name":"王功濱海","Admin_Dist":"彰化縣"},"geometry":{"type":"Polygon","coordinates":[[[120.330309,23.988979],[120.32559,23.976164],[120.324809,23.973737],[120.324203,23.972307],[120.323899,23.970876],[120.323249,23.969142],[120.324289,23.968102],[120.325633,23.968059],[120.340154,23.968232],[120.341021,23.967972],[120.342191,23.967018],[120.347002,23.972177],[120.34995,23.975991],[120.351337,23.980542],[120.349343,23.981279],[120.347522,23.985744],[120.346092,23.988995],[120.345399,23.989688],[120.343925,23.990165],[120.338463,23.989818],[120.331268,23.989601],[120.330309,23.988979]]]}},
{"type":"Feature","properties":{"Name":"松子嶺","Admin_Dist":"彰化縣"},"geometry":{"type":"Polygon","coordinates":[[[120.597349,24.022623],[120.596459,24.021386],[120.597069,24.019332],[120.596299,24.017856],[120.593218,24.018241],[120.592736,24.016411],[120.593603,24.014454],[120.595528,24.013812],[120.59601,24.012014],[120.596957,24.009944],[120.595738,24.008183],[120.594639,24.005926],[120.594376,24.00373],[120.594902,24.002521],[120.59619,24.003178],[120.598108,24.002968],[120.600449,24.001114],[120.60321,24.000299],[120.604117,24.000338],[120.6063,23.999918],[120.606339,23.998669],[120.604262,23.998248],[120.602646,23.996669],[120.602443,23.994299],[120.602917,23.992809],[120.60312,23.990845],[120.603933,23.989355],[120.60759,23.987459],[120.608527,23.990382],[120.610527,23.990706],[120.608977,23.993206],[120.610774,23.99388],[120.611611,23.99405],[120.611414,23.99487],[120.611223,23.995326],[120.610198,23.996825],[120.609158,23.999278],[120.608075,24.000975],[120.607072,24.002865],[120.606613,24.003489],[120.604639,24.005572],[120.604507,24.006048],[120.60467,24.008435],[120.604626,24.009363],[120.604224,24.010427],[120.603488,24.011969],[120.603073,24.013147],[120.602062,24.014959],[120.600949,24.016512],[120.599821,24.018414],[120.59892,24.020288],[120.598127,24.021703],[120.597835,24.022154],[120.597349,24.022623]]]}}
]
}
