{
"type": "FeatureCollection",
"name": "野生動物重要棲息環境",
"xy_coordinate_resolution": 1e-06,
"features": [
{"type":"Feature","properties":{"FILE_NAME":"WIH14","NAME":"丹大野生動物重要棲息環境","Shape_Leng":276589.06842999998,"Shape_Area":1212137312.3499999},"geometry":{"type":"MultiPolygon","coordinates":[[[[121.32341,24.085895],[121.32323,24.085933],[121.323065,24.085073],[121.322895,24.084773],[121.32197,24.083692],[121.321571,24.083441],[121.321268,24.08287],[121.323371,24.085177],[121.32341,24.085895]]],[[[121.319719,24.081751],[121.319556,24.081663],[121.319507,24.081481],[121.319559,24.081547],[121.319719,24.081751]]],[[[121.319295,24.081211],[121.319007,24.080988],[121.31872,24.08056],[121.318595,24.080186],[121.318781,24.080366],[121.318918,24.0807],[121.319295,24.081211]]],[[[121.314492,24.077783],[121.314128,24.077735],[121.314059,24.077446],[121.313758,24.07722],[121.313626,24.076992],[121.314224,24.077395],[121.314492,24.077783]]],[[[121.312653,24.076592],[121.312434,24.076489],[121.311796,24.075676],[121.312132,24.075968],[121.312466,24.076484],[121.312653,24.076592]]],[[[121.309909,24.07513],[121.309808,24.075075],[121.309759,24.075042],[121.309909,24.07513]]],[[[121.307426,24.072479],[121.306102,24.070699],[121.306092,24.069975],[121.30569,24.069204],[121.305439,24.068912],[121.304954,24.068686],[121.304323,24.068138],[121.305721,24.069062],[121.305965,24.069335],[121.306086,24.069876],[121.30717,24.071723],[121.307426,24.072479]]],[[[121.304188,24.068029],[121.303694,24.067805],[121.303493,24.067492],[121.30384,24.067752],[121.304188,24.068029]]],[[[121.303011,24.06697],[121.302323,24.066559],[121.302107,24.066134],[121.302798,24.066691],[121.303011,24.06697]]],[[[121.301746,24.065455],[121.301081,24.064865],[121.300786,24.063518],[121.300405,24.062812],[121.300713,24.063164],[121.301056,24.06415],[121.301558,24.064795],[121.301746,24.065455]]],[[[121.298029,24.061921],[121.297985,24.061943],[121.298014,24.061919],[121.298029,24.061921]]],[[[121.296292,24.063047],[121.296064,24.063299],[121.295653,24.06357],[121.296137,24.063124],[121.296292,24.063047]]],[[[121.295489,24.063598],[121.295181,24.063623],[121.294886,24.063203],[121.293676,24.061968],[121.29384,24.062065],[121.295071,24.063352],[121.295489,24.063598]]],[[[121.291674,24.061104],[121.290969,24.061284],[121.289879,24.062216],[121.289626,24.063887],[121.289013,24.064556],[121.288403,24.064838],[121.287306,24.064829],[121.286971,24.064895],[121.286364,24.064318],[121.28593,24.064319],[121.285299,24.064066],[121.284672,24.064116],[121.284394,24.064059],[121.28364,24.063486],[121.283156,24.063267],[121.282885,24.062797],[121.282376,24.06231],[121.282173,24.061757],[121.28162,24.061336],[121.280828,24.061431],[121.280462,24.061408],[121.27993,24.061268],[121.27949,24.061061],[121.278269,24.061475],[121.277725,24.061465],[121.275997,24.062585],[121.27514,24.063025],[121.274934,24.063341],[121.274813,24.064252],[121.274322,24.064914],[121.274061,24.065758],[121.273614,24.066159],[121.273468,24.066776],[121.272837,24.067433],[121.272532,24.067917],[121.271916,24.068168],[121.271576,24.06853],[121.270964,24.069467],[121.270602,24.070341],[121.269306,24.072745],[121.267982,24.073817],[121.267675,24.074227],[121.26739,24.074386],[121.26729,24.074664],[121.267259,24.07521],[121.267119,24.075534],[121.266176,24.076633],[121.265265,24.076506],[121.264674,24.076654],[121.264338,24.076847],[121.26322,24.076867],[121.262385,24.077059],[121.261517,24.077391],[121.261014,24.077157],[121.260817,24.077158],[121.260725,24.077524],[121.260444,24.078082],[121.260611,24.078592],[121.260763,24.079917],[121.260644,24.080769],[121.260812,24.08143],[121.261213,24.081988],[121.261453,24.083015],[121.260734,24.083187],[121.260556,24.083299],[121.259887,24.084962],[121.259546,24.085466],[121.258994,24.086005],[121.258329,24.087072],[121.258194,24.08719],[121.257589,24.087232],[121.25648,24.087679],[121.25478,24.088191],[121.253628,24.088347],[121.252729,24.088652],[121.252111,24.088748],[121.251599,24.088989],[121.250728,24.089149],[121.250562,24.089282],[121.250429,24.089566],[121.250362,24.090108],[121.250532,24.090926],[121.250818,24.09144],[121.25034,24.091623],[121.250052,24.091527],[121.249709,24.091241],[121.249407,24.091149],[121.249167,24.09113],[121.248575,24.091246],[121.248645,24.090395],[121.249249,24.089035],[121.249643,24.088684],[121.251247,24.088196],[121.252479,24.087438],[121.253013,24.087219],[121.254261,24.086899],[121.255265,24.087086],[121.255525,24.087014],[121.255892,24.086759],[121.256388,24.086109],[121.256508,24.085793],[121.256458,24.085666],[121.256159,24.085586],[121.255444,24.085902],[121.255094,24.085903],[121.254214,24.08542],[121.254188,24.085254],[121.254306,24.085046],[121.254509,24.084899],[121.256392,24.084202],[121.256613,24.083879],[121.256386,24.083732],[121.255772,24.083744],[121.254874,24.084051],[121.254838,24.083181],[121.254505,24.082864],[121.254478,24.082758],[121.254631,24.082643],[121.255005,24.082685],[121.255351,24.082589],[121.255871,24.082192],[121.256334,24.081976],[121.256504,24.081776],[121.256264,24.081415],[121.256082,24.08131],[121.255392,24.081272],[121.254599,24.080821],[121.254149,24.080771],[121.253858,24.080807],[121.253476,24.080999],[121.252957,24.081715],[121.25278,24.08185],[121.252297,24.081894],[121.2515,24.081779],[121.250867,24.081771],[121.250705,24.081695],[121.250409,24.081342],[121.250183,24.081234],[121.249795,24.081167],[121.248641,24.081205],[121.247963,24.080907],[121.247781,24.080632],[121.248062,24.080376],[121.249109,24.079912],[121.249927,24.079333],[121.250472,24.079082],[121.250553,24.078755],[121.250199,24.078511],[121.25014,24.078379],[121.250261,24.07796],[121.250409,24.077796],[121.251068,24.0774],[121.252283,24.076909],[121.252896,24.076579],[121.253066,24.076243],[121.252826,24.075962],[121.253188,24.075468],[121.253448,24.075323],[121.253838,24.075508],[121.254088,24.075513],[121.254268,24.075415],[121.254618,24.075003],[121.255123,24.074871],[121.255176,24.074668],[121.255084,24.074451],[121.254623,24.07423],[121.254437,24.073895],[121.25416,24.073652],[121.254111,24.073463],[121.25435,24.073328],[121.255426,24.073027],[121.255514,24.072908],[121.255451,24.072716],[121.255059,24.072539],[121.25454,24.072512],[121.254242,24.072624],[121.253947,24.072464],[121.253724,24.072431],[121.252579,24.072592],[121.252338,24.072015],[121.252122,24.071857],[121.251882,24.071803],[121.251633,24.071797],[121.251024,24.071992],[121.250528,24.072007],[121.250061,24.07198],[121.249699,24.071839],[121.24948,24.07152],[121.249504,24.071346],[121.249771,24.070882],[121.249519,24.07007],[121.249687,24.069696],[121.250145,24.069414],[121.250204,24.069088],[121.249795,24.068604],[121.248761,24.067937],[121.248408,24.066527],[121.248313,24.066453],[121.247458,24.06608],[121.246757,24.066051],[121.24479,24.065272],[121.243815,24.065239],[121.243451,24.064992],[121.242473,24.064533],[121.241553,24.064504],[121.24084,24.063974],[121.24061,24.063522],[121.240189,24.063195],[121.239988,24.062482],[121.239123,24.062061],[121.238786,24.062057],[121.238276,24.06226],[121.23728,24.062235],[121.235833,24.062742],[121.235301,24.061706],[121.235162,24.059876],[121.23523,24.058596],[121.235383,24.058101],[121.235412,24.057647],[121.235612,24.057325],[121.235527,24.057006],[121.235581,24.05668],[121.23522,24.056665],[121.234651,24.056502],[121.23445,24.056295],[121.234214,24.055792],[121.233703,24.05591],[121.23322,24.055811],[121.232752,24.056008],[121.23188,24.055943],[121.231445,24.056279],[121.230792,24.05596],[121.230514,24.055749],[121.230153,24.055684],[121.229445,24.055817],[121.229113,24.056038],[121.228251,24.056319],[121.227824,24.05639],[121.226906,24.056383],[121.226485,24.055733],[121.225637,24.054997],[121.22534,24.054487],[121.225173,24.053612],[121.225213,24.052562],[121.224862,24.051261],[121.224789,24.050223],[121.224564,24.049777],[121.224472,24.049399],[121.224504,24.04839],[121.224443,24.047782],[121.224659,24.047252],[121.225172,24.046748],[121.225383,24.046404],[121.225245,24.045405],[121.225346,24.044957],[121.225447,24.044743],[121.225847,24.044364],[121.225933,24.043615],[121.226121,24.043254],[121.226546,24.041724],[121.226863,24.041349],[121.227334,24.04042],[121.22747,24.03871],[121.227769,24.038436],[121.228214,24.037246],[121.228601,24.036615],[121.228758,24.036195],[121.228425,24.03538],[121.228738,24.033867],[121.228723,24.033285],[121.229151,24.032418],[121.229834,24.031412],[121.229998,24.030695],[121.230263,24.030393],[121.230882,24.030564],[121.231665,24.03056],[121.23197,24.030717],[121.232225,24.03102],[121.232383,24.031028],[121.232616,24.03084],[121.232804,24.030429],[121.233155,24.030042],[121.233703,24.029684],[121.234138,24.029534],[121.23544,24.029539],[121.2365,24.028527],[121.237027,24.028338],[121.237647,24.028335],[121.238125,24.028038],[121.238585,24.028052],[121.238811,24.027989],[121.239123,24.027741],[121.239333,24.027308],[121.238906,24.027203],[121.238425,24.027207],[121.237308,24.027411],[121.235658,24.02758],[121.234411,24.027044],[121.233522,24.026563],[121.232274,24.026427],[121.230857,24.02613],[121.230342,24.026134],[121.229683,24.026009],[121.227171,24.025154],[121.22515,24.024734],[121.224805,24.024517],[121.223254,24.023206],[121.22276,24.022577],[121.222706,24.022199],[121.222448,24.021771],[121.221887,24.021088],[121.221394,24.020259],[121.221381,24.01967],[121.220847,24.01908],[121.220255,24.018132],[121.218799,24.016356],[121.217715,24.015375],[121.217935,24.014979],[121.218125,24.013546],[121.218255,24.013175],[121.217999,24.01253],[121.218232,24.011832],[121.218316,24.011001],[121.218488,24.01039],[121.218833,24.009676],[121.219537,24.00863],[121.219565,24.007172],[121.219178,24.00619],[121.21866,24.00541],[121.218651,24.004491],[121.218583,24.004318],[121.218262,24.003787],[121.21755,24.003138],[121.217301,24.00248],[121.216589,24.001318],[121.216359,24.000717],[121.215945,24.000046],[121.215447,23.999842],[121.215067,23.999433],[121.21429,23.999286],[121.214079,23.998975],[121.214007,23.998496],[121.21408,23.997588],[121.213877,23.996445],[121.214057,23.996014],[121.214426,23.995592],[121.214856,23.994598],[121.215142,23.993388],[121.21413,23.9935],[121.212189,23.993948],[121.211427,23.993865],[121.210609,23.993905],[121.210284,23.993828],[121.209679,23.993438],[121.209086,23.992655],[121.20831,23.992242],[121.207792,23.992219],[121.206973,23.992441],[121.206508,23.992377],[121.205833,23.991447],[121.205004,23.990626],[121.204271,23.990197],[121.203068,23.989756],[121.20238,23.989215],[121.201965,23.988759],[121.201523,23.987769],[121.201337,23.98686],[121.200554,23.985849],[121.200414,23.985466],[121.2006,23.984661],[121.200352,23.983575],[121.200619,23.982974],[121.200568,23.982498],[121.200623,23.981867],[121.200773,23.981508],[121.200742,23.981243],[121.20087,23.98105],[121.201107,23.980007],[121.201289,23.977294],[121.201243,23.976401],[121.201004,23.975098],[121.201179,23.973924],[121.201453,23.973056],[121.201248,23.972327],[121.201126,23.971355],[121.200983,23.971145],[121.200655,23.970958],[121.200366,23.970036],[121.200296,23.969144],[121.200342,23.968541],[121.199209,23.967944],[121.197281,23.967397],[121.196959,23.967233],[121.196766,23.966836],[121.196655,23.966231],[121.196308,23.965798],[121.196277,23.965386],[121.196345,23.96508],[121.195924,23.964849],[121.195488,23.964374],[121.195445,23.964176],[121.195649,23.963198],[121.195521,23.962498],[121.195668,23.96165],[121.195536,23.960999],[121.195586,23.960498],[121.195446,23.959954],[121.19504,23.959485],[121.195195,23.959217],[121.195255,23.958888],[121.195273,23.957521],[121.195523,23.955921],[121.195383,23.955369],[121.194901,23.954821],[121.194834,23.954561],[121.195238,23.953876],[121.195294,23.953048],[121.194892,23.951575],[121.194677,23.951222],[121.194142,23.950865],[121.193123,23.950403],[121.192651,23.949876],[121.192659,23.948825],[121.192492,23.948566],[121.19247,23.948267],[121.192838,23.947666],[121.192864,23.947421],[121.192642,23.946986],[121.192357,23.946652],[121.191891,23.946351],[121.191488,23.945947],[121.191313,23.945583],[121.191269,23.945244],[121.191889,23.945255],[121.192652,23.945478],[121.193256,23.945802],[121.193983,23.945996],[121.194319,23.946183],[121.194653,23.946568],[121.195013,23.946678],[121.195904,23.946685],[121.196506,23.946587],[121.197588,23.946109],[121.198561,23.945555],[121.199038,23.945428],[121.199393,23.945482],[121.199783,23.945844],[121.19996,23.946254],[121.199869,23.94638],[121.199549,23.946549],[121.198951,23.946658],[121.1984,23.946893],[121.198362,23.947045],[121.198531,23.947358],[121.199128,23.947894],[121.199828,23.948143],[121.200659,23.948718],[121.201703,23.949019],[121.202045,23.949363],[121.202511,23.950232],[121.203059,23.950507],[121.203672,23.950674],[121.203819,23.950821],[121.20494,23.950691],[121.205503,23.950467],[121.207315,23.950184],[121.208331,23.949764],[121.20936,23.949637],[121.210114,23.949663],[121.210626,23.94906],[121.211518,23.948502],[121.211707,23.948021],[121.211913,23.947868],[121.212388,23.948675],[121.212707,23.948906],[121.213236,23.94907],[121.214088,23.948932],[121.214345,23.948717],[121.214915,23.947508],[121.215134,23.947293],[121.215678,23.947096],[121.218811,23.946545],[121.222408,23.943783],[121.224366,23.943236],[121.224981,23.943201],[121.225349,23.943084],[121.225996,23.943131],[121.226809,23.943868],[121.228563,23.944654],[121.228993,23.945591],[121.229603,23.946188],[121.231161,23.945965],[121.23134,23.945355],[121.231505,23.94506],[121.232178,23.944584],[121.232737,23.944475],[121.233153,23.943618],[121.23346,23.9433],[121.233999,23.942353],[121.233998,23.941861],[121.233675,23.940939],[121.233148,23.940351],[121.232846,23.939557],[121.23248,23.93899],[121.232287,23.938389],[121.231998,23.938084],[121.232232,23.936749],[121.232036,23.935271],[121.231807,23.934986],[121.230988,23.934542],[121.230223,23.933737],[121.230314,23.933073],[121.230854,23.932173],[121.230871,23.931801],[121.229988,23.930797],[121.229324,23.929841],[121.228408,23.928786],[121.228002,23.928165],[121.227884,23.927644],[121.227978,23.927439],[121.228866,23.926738],[121.229554,23.92603],[121.23109,23.925486],[121.231586,23.924857],[121.231708,23.924537],[121.231912,23.923698],[121.231864,23.923051],[121.231948,23.922858],[121.232435,23.922325],[121.233152,23.92185],[121.233938,23.921027],[121.233978,23.920666],[121.233735,23.919518],[121.233787,23.918833],[121.233454,23.91737],[121.233287,23.91528],[121.232583,23.913679],[121.232676,23.913073],[121.233147,23.912203],[121.234461,23.910532],[121.23492,23.909702],[121.234972,23.909397],[121.23486,23.908492],[121.234614,23.907585],[121.234681,23.907159],[121.234162,23.9069],[121.232921,23.906901],[121.232452,23.906794],[121.230831,23.905971],[121.230318,23.905443],[121.230163,23.905402],[121.229095,23.905569],[121.228469,23.905573],[121.227327,23.905765],[121.226528,23.905615],[121.226072,23.905752],[121.224413,23.907264],[121.223485,23.90753],[121.222835,23.907958],[121.222684,23.908445],[121.222246,23.909042],[121.220372,23.909981],[121.219285,23.910383],[121.21873,23.910465],[121.216922,23.910488],[121.216244,23.910398],[121.214909,23.910459],[121.21428,23.910586],[121.215193,23.908405],[121.215482,23.90717],[121.21541,23.906609],[121.215563,23.906045],[121.216309,23.904596],[121.218016,23.90287],[121.218873,23.900541],[121.218847,23.899931],[121.21848,23.898939],[121.218476,23.898523],[121.218545,23.898176],[121.219362,23.89674],[121.219454,23.896416],[121.218905,23.894668],[121.218734,23.893526],[121.218191,23.893298],[121.218121,23.893196],[121.218604,23.891877],[121.219073,23.891248],[121.219594,23.890879],[121.21988,23.89084],[121.221227,23.890976],[121.221685,23.890906],[121.221972,23.890782],[121.222741,23.889803],[121.223794,23.887945],[121.224068,23.887228],[121.224634,23.886161],[121.224646,23.885768],[121.224736,23.885539],[121.222533,23.884858],[121.222249,23.884863],[121.220665,23.884442],[121.220594,23.884355],[121.220636,23.883089],[121.220548,23.882125],[121.220025,23.881113],[121.220026,23.880499],[121.219764,23.879148],[121.219831,23.878869],[121.220111,23.878551],[121.219777,23.878166],[121.219537,23.877506],[121.219615,23.877311],[121.220078,23.876892],[121.22066,23.875939],[121.220024,23.87554],[121.219774,23.875131],[121.219866,23.874804],[121.220234,23.874233],[121.220108,23.873548],[121.219592,23.873547],[121.219188,23.873131],[121.218841,23.872974],[121.217893,23.872886],[121.217425,23.872738],[121.216763,23.872652],[121.216349,23.872475],[121.215698,23.872108],[121.215516,23.871836],[121.215361,23.87129],[121.215147,23.871174],[121.213161,23.870786],[121.211865,23.870898],[121.211158,23.870843],[121.21078,23.870568],[121.210222,23.869692],[121.209263,23.869386],[121.208477,23.868889],[121.208048,23.8682],[121.207656,23.867995],[121.206982,23.867442],[121.206485,23.866789],[121.206211,23.866764],[121.205443,23.866878],[121.205062,23.866842],[121.204614,23.866711],[121.204023,23.866397],[121.203695,23.866354],[121.20332,23.866372],[121.20263,23.866564],[121.201565,23.865851],[121.201104,23.865628],[121.199326,23.865005],[121.19858,23.864545],[121.197913,23.86436],[121.197331,23.864071],[121.197076,23.864017],[121.196387,23.864007],[121.195479,23.864191],[121.194638,23.864696],[121.194025,23.864645],[121.193797,23.864692],[121.19295,23.865126],[121.192259,23.865731],[121.19205,23.865827],[121.19174,23.865827],[121.191074,23.865667],[121.190636,23.865827],[121.189921,23.866253],[121.189469,23.86633],[121.188998,23.866289],[121.187626,23.866984],[121.186322,23.867335],[121.185987,23.867694],[121.185755,23.86822],[121.185245,23.868499],[121.184773,23.869108],[121.183828,23.869165],[121.183198,23.869779],[121.182368,23.870233],[121.181438,23.870482],[121.179292,23.870579],[121.17853,23.870688],[121.177099,23.871203],[121.176308,23.871658],[121.175893,23.872013],[121.175522,23.872134],[121.175123,23.872077],[121.174469,23.871691],[121.173595,23.871331],[121.173254,23.87137],[121.17295,23.871173],[121.172312,23.871129],[121.169695,23.870222],[121.167798,23.869929],[121.16715,23.869673],[121.163675,23.869122],[121.163068,23.868792],[121.162329,23.867925],[121.161617,23.86794],[121.160829,23.867703],[121.159357,23.867649],[121.158636,23.866955],[121.158312,23.866294],[121.156736,23.865431],[121.156211,23.864955],[121.15576,23.864373],[121.154621,23.864939],[121.153645,23.864929],[121.153669,23.864063],[121.153957,23.863037],[121.153378,23.861729],[121.153426,23.860701],[121.152849,23.859863],[121.152531,23.859658],[121.152337,23.85925],[121.152316,23.858949],[121.152073,23.858727],[121.151994,23.858352],[121.151658,23.857949],[121.151661,23.857568],[121.151212,23.857148],[121.151524,23.856481],[121.151132,23.855696],[121.150419,23.854687],[121.150681,23.854002],[121.150609,23.852821],[121.150038,23.850545],[121.149691,23.849696],[121.148447,23.848491],[121.148122,23.848276],[121.1468,23.847926],[121.145625,23.847717],[121.144094,23.847592],[121.14256,23.846923],[121.141969,23.846405],[121.141165,23.846093],[121.140304,23.845307],[121.138884,23.844174],[121.138444,23.843769],[121.137552,23.842614],[121.137028,23.84208],[121.135809,23.84107],[121.1354,23.841046],[121.13507,23.840649],[121.134084,23.8404],[121.133547,23.839992],[121.133146,23.839811],[121.132553,23.839135],[121.131782,23.839165],[121.131359,23.839261],[121.129993,23.838942],[121.129333,23.839082],[121.128818,23.839079],[121.128015,23.83877],[121.126929,23.838864],[121.126305,23.838317],[121.125167,23.837846],[121.124919,23.837849],[121.124762,23.837756],[121.123865,23.837547],[121.123595,23.837377],[121.122039,23.837086],[121.121793,23.837095],[121.12114,23.837339],[121.119757,23.837296],[121.119441,23.836851],[121.118571,23.83646],[121.117743,23.835645],[121.1175,23.83557],[121.117345,23.835364],[121.116749,23.835231],[121.116258,23.834698],[121.115362,23.83414],[121.115159,23.83417],[121.113889,23.83386],[121.112535,23.834377],[121.112312,23.833796],[121.112218,23.833251],[121.11099,23.831135],[121.111219,23.829985],[121.111725,23.829179],[121.111873,23.828783],[121.111856,23.828098],[121.111454,23.827256],[121.1115,23.826809],[121.111345,23.826267],[121.111897,23.825482],[121.112311,23.825106],[121.112447,23.824745],[121.112088,23.823629],[121.111969,23.823493],[121.111972,23.822872],[121.112375,23.821798],[121.108144,23.82024],[121.106447,23.819773],[121.104908,23.819556],[121.104024,23.819331],[121.103278,23.819013],[121.102287,23.818311],[121.101815,23.818148],[121.100624,23.817934],[121.099743,23.817504],[121.097393,23.816586],[121.095536,23.814854],[121.09488,23.814627],[121.091925,23.814943],[121.091352,23.815101],[121.090868,23.815001],[121.090306,23.81502],[121.089321,23.815361],[121.088298,23.815322],[121.087194,23.815038],[121.086525,23.81469],[121.085698,23.814123],[121.085115,23.814087],[121.084118,23.814231],[121.083361,23.814222],[121.080548,23.813669],[121.079108,23.813638],[121.077877,23.813388],[121.077269,23.812888],[121.076747,23.812666],[121.075953,23.812487],[121.074712,23.812055],[121.074085,23.811584],[121.073494,23.811384],[121.072994,23.811336],[121.072048,23.81146],[121.071151,23.811339],[121.070065,23.811413],[121.068563,23.810499],[121.068194,23.809824],[121.067872,23.809493],[121.067635,23.809434],[121.067193,23.809483],[121.066262,23.809269],[121.064493,23.80945],[121.063454,23.809772],[121.063086,23.809776],[121.062301,23.809998],[121.061459,23.810012],[121.061017,23.810098],[121.058312,23.809879],[121.057168,23.810685],[121.054811,23.811737],[121.053335,23.811668],[121.05191,23.811786],[121.051046,23.811741],[121.050323,23.811573],[121.048796,23.811448],[121.047715,23.811468],[121.046945,23.811621],[121.045769,23.812003],[121.044777,23.812527],[121.044334,23.812654],[121.04318,23.812658],[121.042734,23.812793],[121.042011,23.813435],[121.041079,23.814842],[121.039528,23.815946],[121.039173,23.815595],[121.039042,23.815358],[121.038718,23.814575],[121.038629,23.814065],[121.038125,23.814184],[121.037898,23.814617],[121.03777,23.815457],[121.037558,23.815706],[121.037031,23.815871],[121.036268,23.814977],[121.035718,23.81337],[121.035409,23.812888],[121.034669,23.812723],[121.034085,23.812913],[121.033374,23.813373],[121.032777,23.814124],[121.03267,23.814411],[121.032349,23.814879],[121.031858,23.815122],[121.031421,23.815195],[121.03059,23.814835],[121.03031,23.814362],[121.030092,23.814192],[121.029723,23.813649],[121.02904,23.812993],[121.028943,23.81278],[121.028504,23.812534],[121.028529,23.812306],[121.029081,23.811902],[121.030532,23.811221],[121.031828,23.810368],[121.032368,23.810226],[121.033618,23.810157],[121.03461,23.809954],[121.03507,23.809743],[121.035393,23.809208],[121.035681,23.807771],[121.03586,23.807425],[121.036276,23.807195],[121.037051,23.807248],[121.03764,23.806967],[121.038335,23.806289],[121.03864,23.805658],[121.038765,23.804991],[121.038764,23.804286],[121.038614,23.803849],[121.03824,23.803811],[121.036646,23.804214],[121.036095,23.804154],[121.035556,23.803993],[121.035295,23.803709],[121.034917,23.803039],[121.034696,23.8019],[121.034509,23.801724],[121.034104,23.801874],[121.033647,23.802682],[121.032925,23.806041],[121.032826,23.806246],[121.03261,23.806435],[121.032425,23.806523],[121.03173,23.806599],[121.031036,23.806548],[121.030552,23.80636],[121.030188,23.806342],[121.029701,23.80616],[121.029069,23.806044],[121.028638,23.806171],[121.027726,23.806754],[121.027018,23.807048],[121.02594,23.807138],[121.025606,23.806984],[121.02486,23.806374],[121.024335,23.805633],[121.023762,23.804536],[121.023538,23.804298],[121.023429,23.804273],[121.022952,23.804563],[121.022751,23.805022],[121.022777,23.805753],[121.022984,23.806312],[121.023101,23.806932],[121.02307,23.807188],[121.022761,23.807719],[121.022399,23.80809],[121.02145,23.808537],[121.020541,23.808497],[121.019938,23.808347],[121.019633,23.808356],[121.018995,23.807906],[121.018588,23.80742],[121.018364,23.807036],[121.018209,23.806452],[121.018314,23.806032],[121.018719,23.805398],[121.018811,23.805119],[121.018794,23.804584],[121.018665,23.804481],[121.018156,23.804599],[121.0171,23.805354],[121.016261,23.805739],[121.015465,23.805599],[121.014517,23.805117],[121.013974,23.804942],[121.013313,23.805852],[121.01211,23.806761],[121.011665,23.806878],[121.010382,23.807006],[121.009005,23.80752],[121.007776,23.807579],[121.00623,23.807137],[121.005838,23.807163],[121.005097,23.806942],[121.003569,23.806698],[121.002738,23.806707],[121.002126,23.806283],[121.002196,23.80571],[121.002733,23.804643],[121.003466,23.803723],[121.003787,23.803453],[121.004841,23.802907],[121.005648,23.802708],[121.006307,23.802686],[121.007006,23.802526],[121.00746,23.802399],[121.008372,23.801974],[121.008474,23.801786],[121.008437,23.801622],[121.00791,23.801173],[121.007766,23.800894],[121.007708,23.800568],[121.007748,23.800239],[121.008139,23.799932],[121.008695,23.799628],[121.009601,23.799523],[121.009942,23.79942],[121.010473,23.799103],[121.012164,23.79889],[121.012711,23.798731],[121.012856,23.79862],[121.012896,23.79836],[121.012782,23.798164],[121.011922,23.797875],[121.011596,23.797599],[121.0115,23.797132],[121.0116,23.796884],[121.011763,23.796717],[121.013285,23.796063],[121.014297,23.795892],[121.015102,23.796071],[121.015821,23.796541],[121.016395,23.796756],[121.016931,23.796687],[121.017022,23.796562],[121.017291,23.795845],[121.017349,23.795461],[121.016852,23.793869],[121.016849,23.79274],[121.014867,23.793187],[121.013855,23.793329],[121.011027,23.794016],[121.010022,23.793955],[121.008905,23.793562],[121.008256,23.793485],[121.008045,23.793545],[121.007727,23.793353],[121.00753,23.792994],[121.007534,23.792863],[121.00778,23.792522],[121.008401,23.792183],[121.009205,23.791442],[121.009971,23.790313],[121.010932,23.787756],[121.011085,23.787013],[121.01103,23.786687],[121.011138,23.786548],[121.01195,23.785874],[121.012339,23.785797],[121.012543,23.785837],[121.013169,23.786259],[121.013631,23.786473],[121.014786,23.786576],[121.014451,23.786387],[121.014181,23.786024],[121.013802,23.785712],[121.013358,23.785126],[121.012246,23.784691],[121.010769,23.783058],[121.010628,23.782612],[121.011108,23.78086],[121.011118,23.780497],[121.011018,23.780138],[121.010286,23.779399],[121.009986,23.778937],[121.009788,23.778541],[121.009724,23.777862],[121.009638,23.777666],[121.00864,23.776303],[121.008141,23.775788],[121.00725,23.775109],[121.006649,23.774509],[121.005403,23.773988],[121.004346,23.773417],[121.003097,23.773268],[121.001566,23.773346],[120.99974,23.772663],[120.999141,23.772268],[120.998461,23.771496],[120.997606,23.770775],[120.997267,23.770369],[120.996816,23.769513],[120.996068,23.76898],[120.995745,23.768656],[120.994926,23.766871],[120.994373,23.766042],[120.993585,23.765823],[120.99254,23.765875],[120.991758,23.765562],[120.990536,23.765476],[120.990107,23.765248],[120.990287,23.76405],[120.990295,23.763394],[120.990022,23.762512],[120.99006,23.761576],[120.989947,23.760552],[120.990949,23.759398],[120.991529,23.75886],[120.99274,23.757146],[120.993162,23.756065],[120.993033,23.754727],[120.993167,23.753346],[120.99274,23.751906],[120.992079,23.750856],[120.992025,23.750561],[120.991789,23.750146],[120.991789,23.749377],[120.991701,23.748997],[120.991296,23.74867],[120.990259,23.748217],[120.989747,23.747866],[120.98923,23.747655],[120.988841,23.747601],[120.98843,23.747236],[120.988103,23.746627],[120.987736,23.746409],[120.987263,23.746288],[120.987003,23.746096],[120.985064,23.746009],[120.983975,23.745572],[120.983134,23.745118],[120.982709,23.744984],[120.982373,23.744746],[120.981342,23.744625],[120.981106,23.744663],[120.980616,23.744401],[120.980162,23.743788],[120.979918,23.743182],[120.979141,23.742347],[120.978819,23.741394],[120.977839,23.739993],[120.977178,23.738733],[120.976982,23.738626],[120.976334,23.738617],[120.975931,23.738519],[120.975349,23.738136],[120.97493,23.737957],[120.97447,23.737499],[120.974004,23.737271],[120.974035,23.736883],[120.974377,23.73627],[120.974435,23.735034],[120.974386,23.734576],[120.974538,23.734293],[120.975041,23.733755],[120.975296,23.733097],[120.975313,23.732228],[120.975451,23.731796],[120.975242,23.731439],[120.975281,23.730737],[120.975627,23.730352],[120.975531,23.730168],[120.975472,23.729342],[120.975011,23.728103],[120.974832,23.727856],[120.973337,23.72643],[120.972963,23.726211],[120.972365,23.726056],[120.971472,23.725162],[120.9707,23.724581],[120.96982,23.724198],[120.969708,23.724017],[120.969657,23.723637],[120.969655,23.722894],[120.969471,23.722639],[120.969333,23.722251],[120.969104,23.722167],[120.968658,23.722158],[120.968048,23.722551],[120.967488,23.722592],[120.967001,23.722444],[120.966771,23.722471],[120.966382,23.722727],[120.966265,23.722945],[120.966201,23.723374],[120.965337,23.723428],[120.964236,23.722032],[120.963628,23.721586],[120.963211,23.721377],[120.962222,23.720173],[120.961785,23.719801],[120.961709,23.719518],[120.961782,23.718785],[120.961478,23.718136],[120.96151,23.71764],[120.961324,23.717467],[120.961462,23.717216],[120.961483,23.71673],[120.961781,23.716115],[120.961792,23.715435],[120.961965,23.714642],[120.961937,23.714334],[120.961779,23.713818],[120.961439,23.713172],[120.96135,23.712732],[120.961008,23.712231],[120.961115,23.711687],[120.960785,23.710408],[120.960026,23.710005],[120.959968,23.709916],[120.960004,23.709309],[120.960433,23.709036],[120.960711,23.708756],[120.960775,23.708242],[120.96066,23.708017],[120.960297,23.707701],[120.959838,23.707063],[120.960082,23.706777],[120.960075,23.706058],[120.959789,23.705971],[120.959154,23.705988],[120.958973,23.705824],[120.958875,23.705335],[120.958657,23.705058],[120.958555,23.704301],[120.958381,23.703908],[120.958213,23.70312],[120.958275,23.70279],[120.958244,23.701896],[120.958332,23.701676],[120.958656,23.701352],[120.958726,23.700848],[120.958665,23.7003],[120.958909,23.699984],[120.958907,23.698456],[120.959153,23.698218],[120.959577,23.697449],[120.959396,23.697415],[120.959291,23.697171],[120.958618,23.696465],[120.957398,23.696804],[120.955902,23.696721],[120.955119,23.697004],[120.953373,23.697439],[120.952698,23.6975],[120.951772,23.697368],[120.951087,23.697507],[120.950757,23.697485],[120.950079,23.696724],[120.949362,23.696086],[120.949048,23.695945],[120.948526,23.695852],[120.948405,23.694832],[120.94784,23.694248],[120.947379,23.694025],[120.948046,23.693426],[120.948119,23.693245],[120.948087,23.692956],[120.948284,23.692473],[120.948253,23.692104],[120.948436,23.691806],[120.948879,23.691633],[120.949055,23.691337],[120.949047,23.691035],[120.948788,23.690328],[120.948773,23.690074],[120.948604,23.689842],[120.948295,23.688746],[120.948505,23.688495],[120.948373,23.687994],[120.948635,23.687698],[120.948755,23.687126],[120.948678,23.686241],[120.9489,23.68557],[120.948929,23.685207],[120.948768,23.684686],[120.948712,23.683769],[120.948257,23.682724],[120.948344,23.681979],[120.948294,23.681003],[120.948175,23.68047],[120.948337,23.679762],[120.948091,23.678792],[120.948215,23.678597],[120.94815,23.678148],[120.94829,23.677941],[120.948251,23.677565],[120.948399,23.677094],[120.948258,23.676594],[120.948652,23.676129],[120.94879,23.67572],[120.949201,23.675285],[120.949491,23.674702],[120.951038,23.674828],[120.951171,23.674787],[120.952111,23.674397],[120.952319,23.674032],[120.95266,23.673791],[120.952895,23.673452],[120.953082,23.672712],[120.952897,23.67198],[120.952984,23.671534],[120.952835,23.671248],[120.952572,23.670969],[120.952814,23.67061],[120.952482,23.669336],[120.952551,23.668872],[120.953172,23.667146],[120.953534,23.666678],[120.95373,23.666205],[120.954031,23.665807],[120.954398,23.665066],[120.954846,23.664517],[120.955171,23.663944],[120.955025,23.663136],[120.954545,23.662529],[120.953324,23.660537],[120.95335,23.659874],[120.953867,23.659408],[120.95404,23.659077],[120.954072,23.658689],[120.953944,23.657856],[120.954089,23.65764],[120.954757,23.657325],[120.955277,23.656503],[120.955494,23.655913],[120.955927,23.655179],[120.956322,23.654724],[120.956361,23.653939],[120.956833,23.653509],[120.95707,23.652987],[120.957317,23.65283],[120.95751,23.652556],[120.957713,23.652109],[120.957715,23.651534],[120.957837,23.651176],[120.958052,23.651032],[120.958961,23.650707],[120.959233,23.650375],[120.959917,23.64984],[120.960491,23.649002],[120.96161,23.648217],[120.962145,23.647532],[120.962341,23.64739],[120.962661,23.647328],[120.963281,23.64686],[120.963844,23.646671],[120.964073,23.64642],[120.964153,23.646248],[120.964107,23.645799],[120.964246,23.645296],[120.964237,23.64493],[120.963884,23.64378],[120.964349,23.643272],[120.964487,23.642984],[120.965832,23.642547],[120.966256,23.641944],[120.966323,23.641625],[120.966832,23.640933],[120.967213,23.64003],[120.967244,23.639521],[120.967021,23.638861],[120.96722,23.638124],[120.967225,23.637801],[120.967771,23.637134],[120.967948,23.636708],[120.967897,23.636186],[120.967966,23.634839],[120.968095,23.634521],[120.968006,23.634182],[120.968249,23.633617],[120.9682,23.632735],[120.96711,23.631906],[120.966608,23.631755],[120.966306,23.63152],[120.965895,23.631348],[120.964938,23.630675],[120.964211,23.630059],[120.963881,23.629978],[120.963904,23.629725],[120.963799,23.629282],[120.964083,23.628578],[120.964016,23.628047],[120.964087,23.626753],[120.96395,23.625716],[120.964222,23.625132],[120.96441,23.624995],[120.964781,23.624892],[120.965068,23.624254],[120.965219,23.622852],[120.96511,23.622134],[120.965239,23.621231],[120.965526,23.620336],[120.965888,23.619886],[120.966091,23.61892],[120.966332,23.618634],[120.966416,23.618391],[120.966432,23.617579],[120.966281,23.616888],[120.966478,23.616195],[120.966454,23.615536],[120.966648,23.614698],[120.96663,23.614112],[120.966728,23.61324],[120.967081,23.612588],[120.966984,23.611248],[120.966522,23.609349],[120.966544,23.608754],[120.966036,23.607848],[120.965926,23.607827],[120.965427,23.608001],[120.964707,23.607365],[120.964674,23.607165],[120.964816,23.606341],[120.965047,23.605883],[120.965123,23.605375],[120.965034,23.605195],[120.964088,23.604292],[120.963854,23.603617],[120.963823,23.603014],[120.963312,23.602419],[120.963051,23.601354],[120.963122,23.60073],[120.96273,23.600083],[120.962516,23.599923],[120.962254,23.59926],[120.962445,23.59763],[120.96255,23.597393],[120.962492,23.597157],[120.962784,23.596455],[120.962856,23.595786],[120.962796,23.595272],[120.962966,23.594462],[120.962064,23.593821],[120.961422,23.593517],[120.960734,23.592843],[120.960371,23.592171],[120.959499,23.590933],[120.959463,23.590791],[120.959693,23.590424],[120.958921,23.589304],[120.957899,23.588448],[120.957437,23.588404],[120.956655,23.588088],[120.957266,23.587608],[120.957982,23.586327],[120.958477,23.585892],[120.958742,23.585121],[120.959133,23.584677],[120.959428,23.583985],[120.959393,23.583737],[120.959216,23.583391],[120.959233,23.583253],[120.959572,23.582836],[120.959609,23.582535],[120.959956,23.582198],[120.960384,23.581257],[120.960465,23.580896],[120.960696,23.58064],[120.961011,23.579863],[120.961335,23.579333],[120.961422,23.578988],[120.961347,23.57875],[120.961456,23.578489],[120.961697,23.578284],[120.962455,23.578034],[120.962541,23.577938],[120.96251,23.577318],[120.962263,23.576851],[120.962229,23.576514],[120.96199,23.576171],[120.962,23.575682],[120.961657,23.575335],[120.961475,23.574712],[120.961293,23.57441],[120.962031,23.574055],[120.962622,23.573422],[120.963063,23.573068],[120.963188,23.57283],[120.963153,23.572526],[120.963347,23.571935],[120.96381,23.571509],[120.964203,23.571297],[120.964326,23.571121],[120.96459,23.571143],[120.965064,23.571051],[120.966457,23.571311],[120.966969,23.571219],[120.967684,23.571219],[120.967966,23.571281],[120.968207,23.571452],[120.970025,23.57193],[120.970445,23.572177],[120.971147,23.572427],[120.971465,23.572717],[120.971569,23.57293],[120.971949,23.573232],[120.972542,23.573299],[120.972509,23.573633],[120.972583,23.573696],[120.972932,23.573779],[120.973246,23.574052],[120.974309,23.574394],[120.975315,23.575075],[120.975658,23.575094],[120.976399,23.575443],[120.977121,23.575573],[120.978271,23.576255],[120.978473,23.576506],[120.979052,23.576456],[120.979656,23.576539],[120.979887,23.576757],[120.980173,23.576823],[120.980577,23.577055],[120.981149,23.577057],[120.98157,23.577401],[120.981728,23.577442],[120.983261,23.577404],[120.98427,23.577552],[120.986142,23.577536],[120.986361,23.577667],[120.986484,23.577919],[120.986902,23.578194],[120.987194,23.578827],[120.987739,23.579082],[120.988494,23.58],[120.989398,23.579966],[120.989722,23.580266],[120.990048,23.580085],[120.990487,23.580074],[120.990698,23.579939],[120.990975,23.580154],[120.991097,23.580169],[120.991401,23.580058],[120.99348,23.5797],[120.996144,23.579551],[120.996988,23.57935],[120.997582,23.579473],[120.998462,23.579514],[120.999028,23.579439],[121.000126,23.579528],[121.000573,23.579678],[121.000813,23.57984],[121.001459,23.58055],[121.001742,23.581182],[121.002302,23.581456],[121.002542,23.581432],[121.002807,23.581225],[121.003234,23.581122],[121.003705,23.580641],[121.004101,23.580533],[121.004336,23.580577],[121.005179,23.580997],[121.005547,23.581219],[121.005685,23.581409],[121.00594,23.581503],[121.006379,23.581517],[121.007094,23.581169],[121.007557,23.581336],[121.00793,23.581127],[121.008239,23.581075],[121.008233,23.58091],[121.008351,23.580683],[121.008865,23.580059],[121.009235,23.579874],[121.009452,23.579845],[121.009745,23.579998],[121.010012,23.579961],[121.010082,23.579793],[121.010037,23.579587],[121.00964,23.578421],[121.0097,23.577981],[121.009839,23.577709],[121.010107,23.57739],[121.010368,23.577224],[121.010974,23.577264],[121.011268,23.576482],[121.011765,23.575624],[121.01294,23.575417],[121.013285,23.575232],[121.013302,23.574925],[121.013151,23.574355],[121.013232,23.573655],[121.012699,23.573218],[121.012572,23.57294],[121.012627,23.572756],[121.012868,23.572633],[121.013906,23.573285],[121.014187,23.573393],[121.015467,23.573268],[121.016389,23.573354],[121.017191,23.573257],[121.018404,23.572947],[121.019157,23.572993],[121.019749,23.572908],[121.020089,23.572805],[121.020459,23.572586],[121.021141,23.572019],[121.021419,23.572041],[121.021691,23.572203],[121.022207,23.572815],[121.022299,23.573468],[121.021905,23.573917],[121.02101,23.57438],[121.020911,23.574501],[121.020906,23.574819],[121.021206,23.57511],[121.023221,23.575062],[121.023804,23.574487],[121.024057,23.574327],[121.024885,23.574486],[121.025429,23.574237],[121.025717,23.574189],[121.026309,23.574209],[121.026892,23.574339],[121.027457,23.574338],[121.028008,23.574244],[121.0288,23.5743],[121.029705,23.574185],[121.030826,23.57394],[121.03127,23.57417],[121.032002,23.57506],[121.032302,23.575232],[121.03281,23.575175],[121.033572,23.574873],[121.035379,23.574742],[121.036419,23.574821],[121.037249,23.575153],[121.037375,23.575119],[121.03754,23.574938],[121.038123,23.57413],[121.038824,23.573731],[121.039443,23.573656],[121.039876,23.573761],[121.041023,23.573806],[121.042115,23.573565],[121.042363,23.573443],[121.042498,23.573261],[121.042505,23.573011],[121.04188,23.572149],[121.042176,23.571524],[121.042629,23.571306],[121.043009,23.571278],[121.043628,23.571434],[121.044156,23.571768],[121.044482,23.571849],[121.044722,23.571741],[121.045054,23.571337],[121.045375,23.571099],[121.045994,23.570783],[121.046567,23.570679],[121.047464,23.570746],[121.047753,23.570897],[121.047828,23.571628],[121.048024,23.571975],[121.048195,23.572088],[121.048916,23.572111],[121.050073,23.571678],[121.050903,23.57123],[121.051392,23.571076],[121.051967,23.571109],[121.052956,23.571712],[121.053705,23.571595],[121.054293,23.571086],[121.054531,23.570965],[121.054724,23.570998],[121.055006,23.571231],[121.055321,23.57126],[121.055648,23.571085],[121.05584,23.570576],[121.056124,23.570229],[121.056609,23.570014],[121.057377,23.570148],[121.057739,23.570291],[121.058343,23.57035],[121.058861,23.570589],[121.059434,23.571196],[121.059363,23.571847],[121.059509,23.572072],[121.059961,23.572066],[121.060249,23.571951],[121.060468,23.571798],[121.060839,23.571337],[121.061463,23.57121],[121.06185,23.571232],[121.06226,23.571077],[121.062458,23.571076],[121.062638,23.571121],[121.063129,23.571476],[121.063905,23.571584],[121.064106,23.571964],[121.064239,23.572448],[121.064448,23.572632],[121.064779,23.572729],[121.066365,23.57289],[121.0671,23.573252],[121.067603,23.573277],[121.068038,23.572895],[121.068832,23.572643],[121.069157,23.572407],[121.069424,23.572004],[121.069445,23.571372],[121.069343,23.570809],[121.069052,23.570264],[121.067738,23.568801],[121.067271,23.568588],[121.066982,23.56835],[121.067045,23.567744],[121.067275,23.567422],[121.067699,23.567031],[121.068345,23.566641],[121.069125,23.566301],[121.069931,23.565543],[121.070346,23.565379],[121.070889,23.565286],[121.071408,23.565283],[121.07199,23.565447],[121.072385,23.565824],[121.072549,23.566314],[121.073355,23.566727],[121.073757,23.567162],[121.073948,23.567256],[121.074122,23.567203],[121.074297,23.566869],[121.074766,23.566803],[121.074936,23.566714],[121.075467,23.566135],[121.076202,23.566107],[121.076344,23.566044],[121.076641,23.565429],[121.076935,23.565393],[121.077525,23.565633],[121.077975,23.565166],[121.078152,23.565086],[121.078725,23.56503],[121.079185,23.565113],[121.079511,23.56529],[121.080463,23.5661],[121.080642,23.566069],[121.081107,23.565767],[121.081254,23.56577],[121.081322,23.565894],[121.081341,23.566588],[121.081526,23.567665],[121.081389,23.567891],[121.08103,23.567994],[121.080918,23.568104],[121.080847,23.56845],[121.08066,23.568824],[121.080783,23.569201],[121.081012,23.56941],[121.081311,23.569516],[121.081631,23.569363],[121.081818,23.569666],[121.081832,23.569991],[121.082928,23.570832],[121.08337,23.571407],[121.083705,23.571546],[121.084134,23.571447],[121.084555,23.571879],[121.084574,23.572419],[121.084699,23.572729],[121.085457,23.573395],[121.08615,23.573814],[121.086911,23.573735],[121.087096,23.573794],[121.087358,23.573608],[121.087543,23.573125],[121.08814,23.572692],[121.088498,23.572591],[121.088919,23.571936],[121.089173,23.571675],[121.089435,23.571639],[121.089988,23.571972],[121.090793,23.571635],[121.091077,23.571613],[121.090737,23.571001],[121.091068,23.570571],[121.092272,23.570395],[121.093381,23.570528],[121.093672,23.570623],[121.094289,23.570566],[121.094391,23.570476],[121.094714,23.569637],[121.09471,23.569017],[121.094892,23.568522],[121.094355,23.567166],[121.093973,23.566589],[121.093999,23.566256],[121.093587,23.56591],[121.093304,23.565851],[121.093276,23.565694],[121.093412,23.565351],[121.094314,23.564341],[121.094618,23.563402],[121.09462,23.562896],[121.094699,23.562634],[121.094858,23.562391],[121.095042,23.56237],[121.095272,23.562177],[121.095391,23.561734],[121.095558,23.561588],[121.095622,23.561402],[121.095906,23.561163],[121.095941,23.560954],[121.095737,23.560423],[121.095841,23.560259],[121.096223,23.560017],[121.097054,23.559728],[121.097207,23.559707],[121.097405,23.559828],[121.097604,23.560186],[121.097541,23.560657],[121.097834,23.560886],[121.098056,23.56164],[121.098441,23.56198],[121.099029,23.562133],[121.101221,23.56234],[121.101659,23.562468],[121.101853,23.562765],[121.101834,23.563012],[121.101711,23.563289],[121.101458,23.563453],[121.101407,23.563611],[121.101611,23.564887],[121.101958,23.56557],[121.102258,23.56584],[121.102544,23.565926],[121.104093,23.565812],[121.104613,23.565467],[121.105372,23.565247],[121.105501,23.564958],[121.105931,23.564914],[121.106607,23.5645],[121.107107,23.564524],[121.107641,23.564259],[121.10837,23.563358],[121.108178,23.562728],[121.108165,23.56179],[121.108255,23.561504],[121.108514,23.561218],[121.109049,23.560922],[121.10975,23.560397],[121.110148,23.560248],[121.11054,23.559991],[121.110975,23.560099],[121.111503,23.559895],[121.112434,23.55996],[121.113267,23.559648],[121.113779,23.559659],[121.114137,23.55944],[121.11442,23.559148],[121.115132,23.558979],[121.115418,23.558551],[121.115505,23.557848],[121.115639,23.557707],[121.11588,23.557653],[121.116379,23.557884],[121.116989,23.557985],[121.117168,23.557956],[121.118159,23.556733],[121.118387,23.556795],[121.118685,23.557151],[121.118869,23.557243],[121.119578,23.55702],[121.12037,23.556582],[121.121053,23.556581],[121.121122,23.55645],[121.121128,23.556065],[121.121013,23.555923],[121.120727,23.555814],[121.120605,23.555656],[121.120415,23.555075],[121.120325,23.554249],[121.120149,23.553939],[121.120188,23.553771],[121.120378,23.553576],[121.120849,23.553498],[121.121148,23.553657],[121.121364,23.553945],[121.122107,23.554145],[121.122984,23.554114],[121.123376,23.553935],[121.123696,23.553594],[121.123959,23.553427],[121.124582,23.553164],[121.125071,23.553112],[121.125273,23.553141],[121.125341,23.553223],[121.12518,23.55357],[121.125193,23.553793],[121.125715,23.55412],[121.127817,23.553991],[121.128337,23.553882],[121.128841,23.553566],[121.129351,23.55348],[121.129831,23.553203],[121.129879,23.552903],[121.130326,23.552622],[121.131026,23.552666],[121.131775,23.552475],[121.132316,23.552172],[121.133275,23.552216],[121.133473,23.552117],[121.134111,23.551371],[121.134264,23.55098],[121.134275,23.55073],[121.134454,23.550613],[121.134438,23.550397],[121.134147,23.550144],[121.133266,23.549729],[121.132699,23.549573],[121.131914,23.549524],[121.131203,23.54939],[121.130464,23.54889],[121.129946,23.548915],[121.129474,23.549214],[121.129246,23.549219],[121.128469,23.548972],[121.128191,23.54878],[121.128188,23.548703],[121.12918,23.54831],[121.129464,23.548031],[121.129957,23.547718],[121.130126,23.547258],[121.131538,23.547109],[121.131769,23.546521],[121.132077,23.546473],[121.132796,23.546753],[121.133047,23.547426],[121.133263,23.547515],[121.133536,23.547265],[121.134083,23.547112],[121.134423,23.546728],[121.136841,23.546315],[121.137222,23.546005],[121.137192,23.545324],[121.13727,23.545169],[121.137887,23.545134],[121.138465,23.545235],[121.139056,23.544873],[121.139391,23.545094],[121.139543,23.545092],[121.139668,23.545001],[121.139696,23.544856],[121.139563,23.544651],[121.139412,23.544068],[121.138794,23.544176],[121.138365,23.544117],[121.137983,23.543926],[121.137671,23.543483],[121.13744,23.542928],[121.137423,23.542672],[121.137459,23.542312],[121.137605,23.541922],[121.137571,23.541494],[121.13736,23.541001],[121.137109,23.540736],[121.136787,23.540717],[121.135947,23.54125],[121.13516,23.541481],[121.13459,23.541332],[121.134318,23.540954],[121.134296,23.540846],[121.134416,23.540664],[121.13469,23.540502],[121.136377,23.540149],[121.136425,23.53978],[121.135956,23.539086],[121.136099,23.538838],[121.136502,23.538834],[121.136635,23.538767],[121.136736,23.538491],[121.136693,23.538259],[121.136311,23.537791],[121.136149,23.537729],[121.135517,23.538082],[121.134858,23.538222],[121.134015,23.537845],[121.133743,23.537823],[121.13334,23.538056],[121.133115,23.538371],[121.13224,23.538807],[121.131819,23.538878],[121.130962,23.53879],[121.130705,23.538946],[121.130473,23.539281],[121.130382,23.539197],[121.130349,23.538798],[121.130647,23.538412],[121.131301,23.537889],[121.131415,23.537514],[121.131345,23.537342],[121.130692,23.537331],[121.130142,23.537195],[121.129096,23.537381],[121.128909,23.537116],[121.128079,23.536707],[121.127815,23.536637],[121.127562,23.536707],[121.126768,23.53637],[121.126409,23.536324],[121.126632,23.535982],[121.126553,23.535786],[121.126164,23.535316],[121.126081,23.533456],[121.125641,23.533214],[121.125268,23.532637],[121.12484,23.532169],[121.124814,23.53185],[121.124914,23.531303],[121.124519,23.529949],[121.124402,23.528899],[121.124225,23.528528],[121.123555,23.528053],[121.123807,23.527763],[121.124259,23.527514],[121.124687,23.526748],[121.124714,23.526233],[121.124919,23.525788],[121.124925,23.524936],[121.125072,23.52389],[121.124874,23.522747],[121.124677,23.522313],[121.124433,23.522046],[121.123932,23.521815],[121.123683,23.521486],[121.123039,23.521039],[121.122597,23.520262],[121.122526,23.519745],[121.122717,23.519624],[121.123131,23.51912],[121.123955,23.51888],[121.124446,23.518998],[121.124758,23.518267],[121.125114,23.517788],[121.126223,23.516994],[121.126574,23.516996],[121.126953,23.517189],[121.127291,23.517688],[121.127907,23.518198],[121.128161,23.518575],[121.129121,23.51842],[121.129407,23.518232],[121.129901,23.518101],[121.13005,23.518126],[121.130588,23.517918],[121.131067,23.517704],[121.131572,23.517256],[121.131837,23.516885],[121.132242,23.51549],[121.132587,23.515155],[121.133086,23.514913],[121.133637,23.514956],[121.134771,23.514799],[121.135535,23.514891],[121.135796,23.515419],[121.136224,23.51665],[121.13621,23.517362],[121.136551,23.518879],[121.136622,23.51912],[121.136843,23.519439],[121.138,23.520369],[121.138272,23.520651],[121.138481,23.52103],[121.138991,23.521496],[121.140336,23.522234],[121.141249,23.523039],[121.142033,23.52347],[121.14215,23.523709],[121.142049,23.52385],[121.142909,23.524054],[121.143168,23.524005],[121.143438,23.524222],[121.143464,23.524351],[121.144033,23.525086],[121.144265,23.525594],[121.144382,23.525578],[121.144695,23.525269],[121.144979,23.525459],[121.146966,23.52596],[121.148363,23.526452],[121.148917,23.52706],[121.149995,23.527143],[121.150141,23.527098],[121.150674,23.526629],[121.15117,23.526843],[121.151115,23.527473],[121.150871,23.528446],[121.15053,23.529092],[121.148856,23.531546],[121.147362,23.533324],[121.147827,23.535188],[121.148269,23.536267],[121.148246,23.537204],[121.14836,23.538597],[121.148286,23.539245],[121.148612,23.539786],[121.14905,23.540271],[121.14977,23.541493],[121.15007,23.541814],[121.15095,23.543746],[121.151027,23.544286],[121.150741,23.545934],[121.150439,23.54693],[121.149459,23.548365],[121.149112,23.549008],[121.147955,23.5521],[121.146534,23.553339],[121.146203,23.554007],[121.146237,23.554138],[121.146061,23.554287],[121.146286,23.554329],[121.14632,23.554461],[121.146753,23.554912],[121.147751,23.555789],[121.1481,23.555985],[121.148602,23.556777],[121.149269,23.556934],[121.150143,23.557348],[121.150282,23.557587],[121.150336,23.557916],[121.151198,23.559163],[121.151105,23.560044],[121.15144,23.560519],[121.152196,23.560723],[121.152335,23.560611],[121.15259,23.560113],[121.152811,23.560116],[121.153399,23.559815],[121.154152,23.559754],[121.154445,23.559599],[121.154973,23.559966],[121.155817,23.560246],[121.156058,23.560137],[121.156525,23.559664],[121.156876,23.559588],[121.157143,23.559425],[121.157279,23.560036],[121.157415,23.560256],[121.157661,23.560412],[121.157727,23.56061],[121.157765,23.561192],[121.157542,23.561584],[121.157722,23.561773],[121.157729,23.562671],[121.157776,23.563023],[121.157964,23.563519],[121.157978,23.564028],[121.158419,23.564433],[121.158568,23.565093],[121.158589,23.56637],[121.159104,23.567268],[121.159256,23.567765],[121.15904,23.568321],[121.158399,23.569159],[121.157025,23.570328],[121.156051,23.57058],[121.155129,23.570487],[121.154468,23.570626],[121.154119,23.57075],[121.15355,23.571089],[121.152921,23.571916],[121.152304,23.573273],[121.15197,23.573269],[121.151907,23.57333],[121.151796,23.574652],[121.151813,23.575392],[121.151732,23.575874],[121.151474,23.576555],[121.151638,23.577126],[121.15206,23.577683],[121.152072,23.578064],[121.151938,23.578532],[121.151646,23.578949],[121.151594,23.579174],[121.152069,23.580426],[121.152073,23.580713],[121.152231,23.581007],[121.152239,23.581436],[121.152066,23.5818],[121.152055,23.582837],[121.152129,23.583166],[121.152499,23.583704],[121.152445,23.584292],[121.152619,23.584735],[121.152607,23.585667],[121.153159,23.586147],[121.153233,23.586697],[121.153553,23.586496],[121.153468,23.586926],[121.154491,23.586724],[121.154873,23.586945],[121.15506,23.586946],[121.155256,23.58686],[121.155656,23.586406],[121.157756,23.585827],[121.158459,23.585752],[121.159184,23.585992],[121.159533,23.58596],[121.160236,23.586252],[121.160463,23.586844],[121.160781,23.587178],[121.16145,23.587182],[121.162693,23.58691],[121.16294,23.586985],[121.163523,23.586808],[121.163742,23.586892],[121.164088,23.586851],[121.164268,23.587074],[121.165304,23.586995],[121.165699,23.587094],[121.16593,23.58698],[121.166381,23.587142],[121.167013,23.587149],[121.167292,23.587062],[121.167622,23.586727],[121.167859,23.586825],[121.168532,23.586831],[121.168884,23.586689],[121.169324,23.58665],[121.170082,23.586281],[121.170545,23.585861],[121.17096,23.585336],[121.171269,23.584765],[121.171794,23.584441],[121.173354,23.584228],[121.174135,23.584386],[121.174633,23.584216],[121.174931,23.584201],[121.17533,23.583918],[121.176042,23.5838],[121.176661,23.582752],[121.17681,23.582689],[121.177064,23.582607],[121.177522,23.582684],[121.178724,23.582688],[121.178745,23.582889],[121.17896,23.583073],[121.178938,23.583476],[121.179055,23.584454],[121.17927,23.58545],[121.179508,23.586375],[121.179787,23.586853],[121.179936,23.5875],[121.179953,23.588578],[121.179596,23.589196],[121.179647,23.589366],[121.17955,23.589751],[121.179607,23.589881],[121.179999,23.59032],[121.180769,23.590278],[121.181284,23.591004],[121.181972,23.591043],[121.182032,23.591515],[121.18231,23.591971],[121.182822,23.592612],[121.183199,23.592897],[121.183507,23.593262],[121.183731,23.593184],[121.183944,23.593331],[121.184596,23.593559],[121.18493,23.593553],[121.185572,23.593803],[121.186252,23.593753],[121.186844,23.594086],[121.187586,23.594239],[121.187821,23.594392],[121.189099,23.594598],[121.189556,23.594966],[121.189765,23.59527],[121.189868,23.595669],[121.189986,23.597285],[121.190263,23.597706],[121.190364,23.597793],[121.19084,23.597845],[121.191365,23.5981],[121.192423,23.599303],[121.193092,23.599616],[121.19361,23.600199],[121.194125,23.600596],[121.194853,23.600679],[121.195968,23.600211],[121.196689,23.598832],[121.197046,23.598787],[121.197416,23.59824],[121.197883,23.598051],[121.19839,23.597948],[121.198689,23.597522],[121.199866,23.596501],[121.200864,23.596442],[121.201505,23.596589],[121.201765,23.596728],[121.202877,23.596122],[121.203326,23.59613],[121.203715,23.596032],[121.204023,23.596114],[121.204363,23.596009],[121.205266,23.595932],[121.206614,23.595696],[121.20707,23.596721],[121.207516,23.597127],[121.207914,23.597786],[121.208603,23.598076],[121.208958,23.598132],[121.209362,23.598383],[121.210439,23.59812],[121.211023,23.59805],[121.211372,23.598104],[121.211493,23.598256],[121.211852,23.599341],[121.21243,23.599887],[121.212919,23.6002],[121.2134,23.600696],[121.213515,23.601219],[121.214035,23.602341],[121.214158,23.604291],[121.214371,23.604893],[121.215282,23.60633],[121.216142,23.608776],[121.216456,23.610972],[121.216737,23.611839],[121.217085,23.613739],[121.217204,23.614917],[121.217753,23.615343],[121.219214,23.615653],[121.219854,23.61588],[121.220404,23.616403],[121.220543,23.616999],[121.220567,23.618037],[121.22157,23.620754],[121.221858,23.621404],[121.22326,23.623122],[121.223662,23.623868],[121.223987,23.624714],[121.224776,23.627687],[121.22487,23.629088],[121.224813,23.629806],[121.224435,23.630821],[121.224251,23.632293],[121.223991,23.633329],[121.223962,23.633984],[121.22404,23.63544],[121.224191,23.636447],[121.224116,23.637533],[121.224445,23.638503],[121.224964,23.638999],[121.225388,23.640332],[121.225712,23.64095],[121.226023,23.641857],[121.226423,23.642344],[121.227233,23.642955],[121.227558,23.643478],[121.227451,23.644356],[121.227639,23.644939],[121.228687,23.646296],[121.230384,23.647964],[121.23038,23.648587],[121.23022,23.649177],[121.230259,23.649816],[121.230831,23.650779],[121.231038,23.651377],[121.230971,23.651989],[121.230631,23.652572],[121.230584,23.653098],[121.230774,23.653578],[121.231378,23.654384],[121.231691,23.655026],[121.231975,23.65729],[121.232195,23.657904],[121.232971,23.659253],[121.233607,23.660076],[121.234467,23.660736],[121.235113,23.660999],[121.235583,23.661425],[121.235779,23.662057],[121.235991,23.662948],[121.23608,23.663729],[121.235925,23.665922],[121.235941,23.668631],[121.235486,23.671182],[121.235209,23.671749],[121.233709,23.674142],[121.232801,23.675112],[121.232113,23.67559],[121.231791,23.676516],[121.231888,23.677073],[121.232319,23.677942],[121.233642,23.679637],[121.233614,23.680233],[121.234022,23.680759],[121.235125,23.681694],[121.23554,23.682165],[121.235952,23.683264],[121.236661,23.684482],[121.237769,23.685783],[121.239016,23.686639],[121.239412,23.687128],[121.239454,23.688514],[121.239136,23.689727],[121.239305,23.690899],[121.238999,23.692148],[121.238974,23.694757],[121.239051,23.695441],[121.239137,23.69578],[121.239482,23.696382],[121.240756,23.698091],[121.241084,23.698804],[121.24051,23.69918],[121.239985,23.699636],[121.239526,23.700351],[121.239406,23.700728],[121.239845,23.701558],[121.240149,23.701754],[121.240558,23.70225],[121.240868,23.703674],[121.240957,23.704649],[121.241306,23.705875],[121.241396,23.706586],[121.241406,23.708566],[121.241272,23.709166],[121.24084,23.709682],[121.239935,23.710182],[121.239472,23.710628],[121.239119,23.712879],[121.239138,23.714188],[121.239267,23.714511],[121.239776,23.714914],[121.239904,23.715523],[121.239827,23.716095],[121.239429,23.717292],[121.238016,23.719687],[121.237971,23.720041],[121.238106,23.720621],[121.238829,23.721749],[121.238894,23.722403],[121.239181,23.723697],[121.239502,23.724231],[121.238991,23.724442],[121.237633,23.724439],[121.236505,23.724628],[121.236042,23.725081],[121.235284,23.726161],[121.234282,23.727174],[121.233968,23.727711],[121.233779,23.728296],[121.233597,23.728606],[121.232941,23.728986],[121.231706,23.729496],[121.231193,23.729971],[121.230281,23.731801],[121.229823,23.73379],[121.22904,23.734852],[121.228674,23.735712],[121.228945,23.737605],[121.229081,23.739247],[121.229085,23.743618],[121.229151,23.744309],[121.229958,23.745991],[121.231115,23.747685],[121.232596,23.749042],[121.232718,23.749672],[121.232485,23.749938],[121.230665,23.751135],[121.230123,23.751475],[121.229532,23.751685],[121.22889,23.751732],[121.227565,23.751679],[121.226109,23.75186],[121.224225,23.752332],[121.223503,23.752327],[121.22242,23.752599],[121.221193,23.753064],[121.220651,23.753401],[121.220165,23.753905],[121.219566,23.755732],[121.21908,23.756191],[121.218531,23.756546],[121.216674,23.757274],[121.216026,23.757198],[121.215421,23.756882],[121.214911,23.756533],[121.213541,23.755201],[121.21293,23.755172],[121.212444,23.755613],[121.21099,23.758363],[121.209668,23.760559],[121.209256,23.761045],[121.207112,23.76212],[121.206626,23.762509],[121.206613,23.763141],[121.206887,23.763737],[121.207023,23.764877],[121.207042,23.765398],[121.20686,23.765979],[121.206286,23.767149],[121.205582,23.768157],[121.204671,23.769072],[121.203761,23.770706],[121.204041,23.771152],[121.204396,23.771296],[121.204791,23.771894],[121.205237,23.771882],[121.206146,23.772707],[121.206327,23.773687],[121.20665,23.774244],[121.207167,23.77464],[121.209728,23.775431],[121.212276,23.775972],[121.212887,23.776174],[121.214263,23.778376],[121.214743,23.778793],[121.215341,23.778932],[121.216644,23.778988],[121.217311,23.77915],[121.217921,23.779413],[121.218451,23.779805],[121.218856,23.780315],[121.219136,23.780881],[121.219647,23.781277],[121.220905,23.781713],[121.222232,23.781915],[121.224606,23.782564],[121.226775,23.783746],[121.227865,23.784572],[121.228781,23.78542],[121.229198,23.785932],[121.229995,23.787323],[121.231353,23.788631],[121.231465,23.789204],[121.230936,23.78964],[121.229169,23.790083],[121.228334,23.790559],[121.227424,23.791492],[121.227031,23.792053],[121.226826,23.792678],[121.226806,23.79336],[121.226594,23.79434],[121.226345,23.794982],[121.225951,23.797165],[121.225857,23.798879],[121.226199,23.800398],[121.226212,23.802168],[121.226286,23.802838],[121.226809,23.804363],[121.227077,23.805406],[121.227108,23.805939],[121.226952,23.806892],[121.226945,23.80751],[121.227107,23.808135],[121.227518,23.808616],[121.228048,23.809001],[121.228727,23.809248],[121.229356,23.80931],[121.230721,23.809633],[121.231662,23.810079],[121.232747,23.810836],[121.23332,23.811072],[121.233918,23.811211],[121.234498,23.811578],[121.234891,23.812047],[121.235015,23.812627],[121.23504,23.813268],[121.234926,23.815756],[121.234702,23.816908],[121.234484,23.817452],[121.234876,23.817905],[121.235985,23.818684],[121.236777,23.819665],[121.238067,23.821047],[121.239083,23.821786],[121.239145,23.822348],[121.238628,23.822719],[121.237169,23.823028],[121.23672,23.823435],[121.236626,23.824088],[121.236726,23.824765],[121.237006,23.825419],[121.237436,23.827012],[121.238227,23.8286],[121.238439,23.829196],[121.238383,23.829722],[121.237896,23.831843],[121.237914,23.832434],[121.238282,23.833752],[121.239566,23.836676],[121.239783,23.838382],[121.240151,23.839873],[121.241578,23.842339],[121.24242,23.84329],[121.243959,23.845335],[121.244264,23.846935],[121.244195,23.84752],[121.244825,23.848621],[121.24566,23.849721],[121.246165,23.850151],[121.247324,23.850759],[121.247879,23.851155],[121.248465,23.851396],[121.248808,23.851894],[121.248751,23.853563],[121.24887,23.854111],[121.249331,23.854611],[121.250241,23.85712],[121.250372,23.857786],[121.250671,23.858456],[121.251326,23.859518],[121.251769,23.860445],[121.252866,23.862107],[121.253084,23.862773],[121.253396,23.86333],[121.253552,23.864328],[121.253427,23.864946],[121.253177,23.86554],[121.252872,23.866029],[121.25284,23.866532],[121.253202,23.867414],[121.253545,23.867931],[121.256363,23.869289],[121.258176,23.869842],[121.259905,23.871072],[121.260935,23.871589],[121.262453,23.872192],[121.265409,23.872785],[121.265525,23.873446],[121.265115,23.87346],[121.264987,23.874023],[121.264925,23.875296],[121.264584,23.876418],[121.264126,23.876898],[121.263599,23.877698],[121.263088,23.878829],[121.263024,23.879362],[121.263194,23.880251],[121.263372,23.880845],[121.263681,23.881447],[121.264468,23.88266],[121.265121,23.883006],[121.265775,23.883251],[121.267812,23.883638],[121.268428,23.883843],[121.268413,23.884391],[121.267997,23.885484],[121.267575,23.886327],[121.267376,23.888957],[121.266986,23.889649],[121.265632,23.891231],[121.265442,23.891843],[121.265525,23.892841],[121.265635,23.893186],[121.266174,23.894036],[121.266004,23.894391],[121.265845,23.89505],[121.265862,23.8954],[121.265622,23.896046],[121.265027,23.896532],[121.263653,23.89704],[121.263065,23.8974],[121.262715,23.897764],[121.26255,23.898275],[121.262566,23.900259],[121.262251,23.900779],[121.261907,23.900967],[121.261375,23.901435],[121.260961,23.901914],[121.260808,23.902567],[121.261547,23.903288],[121.262132,23.903691],[121.262616,23.904214],[121.263847,23.904898],[121.265277,23.905895],[121.266625,23.907209],[121.267248,23.907269],[121.268416,23.906991],[121.269408,23.906847],[121.270131,23.906821],[121.271965,23.906881],[121.274607,23.907283],[121.275029,23.907767],[121.275331,23.908634],[121.275534,23.909654],[121.275639,23.910918],[121.275434,23.912029],[121.275325,23.914137],[121.276016,23.915648],[121.275425,23.916816],[121.27521,23.917422],[121.274993,23.918609],[121.275152,23.919286],[121.275875,23.920768],[121.275963,23.921881],[121.276128,23.922718],[121.276095,23.923131],[121.275598,23.924046],[121.274418,23.925628],[121.274185,23.926058],[121.274001,23.926751],[121.273912,23.92858],[121.274095,23.929543],[121.274577,23.930445],[121.274661,23.931208],[121.274627,23.931748],[121.274388,23.932303],[121.27383,23.932724],[121.273586,23.933038],[121.273452,23.933714],[121.273541,23.934718],[121.273541,23.936043],[121.2731,23.936902],[121.272266,23.937928],[121.2723,23.938456],[121.272729,23.938945],[121.272906,23.939681],[121.273748,23.941232],[121.27392,23.941753],[121.273943,23.942167],[121.273684,23.942894],[121.273523,23.943978],[121.27367,23.944614],[121.274297,23.945159],[121.27399,23.945613],[121.273314,23.945908],[121.272457,23.94649],[121.271736,23.947272],[121.270808,23.948569],[121.272539,23.949092],[121.273205,23.949446],[121.27461,23.950502],[121.275119,23.951013],[121.275224,23.951347],[121.275233,23.953365],[121.2754,23.953699],[121.275834,23.954193],[121.276156,23.954779],[121.276101,23.95596],[121.275636,23.958017],[121.275688,23.960184],[121.275826,23.961594],[121.276292,23.963386],[121.276539,23.963925],[121.277428,23.964635],[121.277791,23.965347],[121.277628,23.965822],[121.276938,23.966703],[121.276643,23.966993],[121.275723,23.96762],[121.275503,23.967907],[121.275444,23.968519],[121.275651,23.96978],[121.275208,23.970995],[121.274944,23.972885],[121.274754,23.973549],[121.274288,23.97443],[121.273692,23.975226],[121.273385,23.975448],[121.271425,23.975524],[121.269741,23.975328],[121.267695,23.975198],[121.265573,23.975224],[121.264849,23.975341],[121.26453,23.975517],[121.264223,23.97571],[121.263589,23.976463],[121.26372,23.977842],[121.263587,23.978316],[121.262947,23.97915],[121.261646,23.981112],[121.261456,23.981701],[121.261466,23.983563],[121.26121,23.987566],[121.261006,23.988521],[121.260389,23.989676],[121.259878,23.991034],[121.259806,23.991499],[121.26039,23.993272],[121.26107,23.994628],[121.262616,23.996379],[121.262994,23.996992],[121.26314,23.99759],[121.263834,23.997497],[121.26446,23.998114],[121.264688,23.998511],[121.265135,23.998846],[121.265305,23.999203],[121.265632,24.000988],[121.266027,24.001558],[121.266952,24.002065],[121.267458,24.002495],[121.268805,24.004113],[121.269033,24.004691],[121.269163,24.005334],[121.270156,24.006398],[121.2705,24.006953],[121.27054,24.007725],[121.270668,24.008277],[121.270977,24.008844],[121.271105,24.009717],[121.271469,24.011156],[121.272206,24.012866],[121.273783,24.015062],[121.274464,24.016463],[121.275367,24.017944],[121.276378,24.019405],[121.276678,24.019996],[121.276749,24.020741],[121.276636,24.022619],[121.27683,24.023192],[121.276829,24.02356],[121.27668,24.024136],[121.276793,24.024746],[121.279403,24.027475],[121.279723,24.028036],[121.279973,24.029582],[121.280104,24.029911],[121.28174,24.031811],[121.282377,24.033731],[121.282635,24.034286],[121.283419,24.035432],[121.284046,24.036523],[121.284524,24.036978],[121.284945,24.037524],[121.285626,24.039114],[121.285783,24.039707],[121.285878,24.041922],[121.285611,24.0432],[121.285917,24.044168],[121.285969,24.044727],[121.285786,24.046129],[121.285569,24.046737],[121.285189,24.047322],[121.285245,24.047995],[121.285156,24.048406],[121.284832,24.049014],[121.284162,24.049794],[121.284012,24.050462],[121.283074,24.052898],[121.282954,24.053261],[121.282992,24.053909],[121.283098,24.054238],[121.283444,24.054764],[121.283922,24.055219],[121.284596,24.05555],[121.285694,24.056622],[121.285925,24.056929],[121.286109,24.057443],[121.286658,24.057808],[121.288981,24.058796],[121.289605,24.059134],[121.290417,24.060137],[121.290783,24.060285],[121.291674,24.061104]]]]}},
{"type":"Feature","properties":{"FILE_NAME":"WIH08","NAME":"大肚溪口野生動物重要棲息環境","Shape_Leng":35448.61983280001,"Shape_Area":31504146.7788},"geometry":{"type":"MultiPolygon","coordinates":[[[[120.476682,24.183355],[120.486743,24.183486],[120.496164,24.183518],[120.492983,24.184721],[120.495329,24.188702],[120.492569,24.189776],[120.489811,24.190128],[120.483512,24.190107],[120.481134,24.190792],[120.479816,24.187742],[120.47943,24.186357],[120.478494,24.185097],[120.476988,24.183566],[120.476682,24.183355]]],[[[120.499833,24.182162],[120.499254,24.178273],[120.49963,24.177457],[120.505469,24.176595],[120.504822,24.177537],[120.505594,24.181512],[120.501657,24.181499],[120.499833,24.182162]]],[[[120.510033,24.172974],[120.510353,24.172718],[120.512528,24.167333],[120.513076,24.166318],[120.513921,24.163838],[120.514715,24.164205],[120.513524,24.16673],[120.513121,24.169257],[120.512324,24.171782],[120.510033,24.172974]]]]}},
{"type":"Feature","properties":{"FILE_NAME":"WIH27","NAME":"塔山野生動物重要棲息環境","Shape_Leng":13051.0796947,"Shape_Area":7411023.3719100002},"geometry":{"type":"Polygon","coordinates":[[[120.783195,23.557361],[120.781751,23.559163],[120.780103,23.559824],[120.779073,23.559728],[120.77887,23.558209],[120.778563,23.557165],[120.777638,23.556214],[120.777433,23.555834],[120.776503,23.557352],[120.775678,23.558204],[120.774649,23.558203],[120.773618,23.558961],[120.771559,23.558863],[120.769607,23.556772],[120.768992,23.554873],[120.7692,23.553734],[120.767553,23.553732],[120.766729,23.553825],[120.767658,23.552403],[120.768485,23.550696],[120.76859,23.549462],[120.768901,23.548229],[120.769417,23.547376],[120.769316,23.546142],[120.769318,23.545003],[120.770245,23.54472],[120.770966,23.544721],[120.771277,23.543203],[120.771486,23.541685],[120.771076,23.540545],[120.770563,23.539785],[120.771184,23.537413],[120.771598,23.536465],[120.772525,23.535992],[120.773246,23.535993],[120.774174,23.534761],[120.773664,23.532197],[120.773666,23.530869],[120.774902,23.530586],[120.776239,23.531062],[120.777269,23.530494],[120.777786,23.529356],[120.780462,23.529075],[120.782213,23.528414],[120.783448,23.528605],[120.786636,23.530033],[120.787666,23.529845],[120.789105,23.53127],[120.790029,23.532411],[120.790437,23.534784],[120.791878,23.534881],[120.793011,23.534597],[120.793734,23.532985],[120.796102,23.532609],[120.797956,23.532042],[120.799086,23.533277],[120.800732,23.533849],[120.802585,23.534136],[120.803922,23.534802],[120.802068,23.535559],[120.798874,23.537642],[120.797328,23.5384],[120.797017,23.540297],[120.79619,23.542194],[120.796084,23.544377],[120.795259,23.545325],[120.795773,23.54599],[120.795359,23.547603],[120.79278,23.550731],[120.791646,23.551869],[120.789998,23.552151],[120.78804,23.553762],[120.785257,23.555561],[120.783195,23.557361]]]}},
{"type":"Feature","properties":{"FILE_NAME":"WIH33","NAME":"雲林湖本八色鳥野生動物重要棲息環境","Shape_Leng":78868.341734300004,"Shape_Area":17378932.174699999},"geometry":{"type":"MultiPolygon","coordinates":[[[[120.640915,23.706466],[120.640918,23.70648],[120.640884,23.706528],[120.640915,23.706466]]],[[[120.640333,23.708116],[120.640361,23.708174],[120.640188,23.708368],[120.640291,23.708242],[120.640333,23.708116]]],[[[120.640035,23.708581],[120.640003,23.708623],[120.640044,23.708544],[120.640035,23.708581]]],[[[120.640577,23.71395],[120.640489,23.714112],[120.640571,23.714179],[120.640541,23.714313],[120.64022,23.714372],[120.640021,23.714257],[120.640032,23.714242],[120.640577,23.71395]]],[[[120.639878,23.71509],[120.640364,23.715547],[120.640209,23.715763],[120.640086,23.715497],[120.639878,23.71509]]],[[[120.64035,23.717314],[120.640405,23.717403],[120.640419,23.717536],[120.64035,23.717314]]],[[[120.641247,23.722081],[120.641253,23.72209],[120.641261,23.722128],[120.641247,23.722081]]],[[[120.641296,23.722245],[120.641546,23.722482],[120.641317,23.723028],[120.641203,23.723123],[120.64139,23.72274],[120.641296,23.722245]]],[[[120.640966,23.724855],[120.640925,23.725114],[120.640758,23.725205],[120.640359,23.72514],[120.640467,23.725056],[120.640966,23.724855]]],[[[120.639948,23.725531],[120.63995,23.725974],[120.639538,23.726397],[120.639683,23.727041],[120.639905,23.727389],[120.639956,23.727908],[120.639746,23.728216],[120.639809,23.728633],[120.639698,23.728793],[120.63969,23.729185],[120.639205,23.728037],[120.63915,23.727671],[120.639652,23.725941],[120.639948,23.725531]]],[[[120.639791,23.72944],[120.639895,23.729581],[120.639885,23.729719],[120.639828,23.729533],[120.639791,23.72944]]],[[[120.639946,23.729918],[120.639963,23.729952],[120.639951,23.729933],[120.639946,23.729918]]],[[[120.641297,23.730547],[120.641706,23.730583],[120.641935,23.730723],[120.642024,23.730925],[120.641642,23.730639],[120.641297,23.730547]]],[[[120.642176,23.73109],[120.642367,23.731139],[120.642361,23.731314],[120.642283,23.731205],[120.642176,23.73109]]],[[[120.642709,23.732007],[120.642788,23.732052],[120.642829,23.732133],[120.642744,23.732094],[120.642709,23.732007]]],[[[120.643065,23.733862],[120.643308,23.7337],[120.643305,23.734138],[120.643547,23.734518],[120.643747,23.734655],[120.643846,23.735108],[120.643199,23.734214],[120.643065,23.733862]]],[[[120.643926,23.735905],[120.64435,23.736664],[120.644518,23.736738],[120.644951,23.736321],[120.64547,23.736244],[120.645673,23.735997],[120.645843,23.735972],[120.646176,23.735628],[120.646462,23.735858],[120.646762,23.73592],[120.646844,23.736005],[120.647435,23.736115],[120.647851,23.736089],[120.64858,23.735798],[120.649384,23.735979],[120.649879,23.735792],[120.650167,23.735837],[120.650423,23.735546],[120.651148,23.73499],[120.651489,23.735358],[120.65212,23.735182],[120.652948,23.735156],[120.652913,23.736097],[120.65297,23.736496],[120.653417,23.737091],[120.653582,23.737588],[120.653624,23.738099],[120.653341,23.738951],[120.652527,23.740593],[120.652312,23.743607],[120.652649,23.744314],[120.652671,23.745923],[120.652394,23.746571],[120.652131,23.747628],[120.651899,23.748026],[120.651448,23.748022],[120.65132,23.748247],[120.651581,23.748427],[120.650925,23.749321],[120.650994,23.749347],[120.650867,23.749589],[120.650584,23.749869],[120.650459,23.750258],[120.650091,23.750792],[120.649722,23.751547],[120.649333,23.752858],[120.64914,23.753093],[120.649223,23.753403],[120.649113,23.753529],[120.649144,23.753736],[120.649024,23.754312],[120.649714,23.755463],[120.649537,23.7558],[120.649277,23.755905],[120.649383,23.756258],[120.649352,23.756692],[120.649006,23.758368],[120.648743,23.75891],[120.648899,23.759293],[120.648717,23.759795],[120.647941,23.760019],[120.647566,23.760678],[120.647052,23.762252],[120.646865,23.763095],[120.646939,23.763259],[120.646355,23.76423],[120.646384,23.764419],[120.646475,23.764488],[120.646349,23.764957],[120.645683,23.765528],[120.645401,23.76602],[120.645385,23.766298],[120.645287,23.766389],[120.645181,23.766844],[120.644766,23.767763],[120.644695,23.768762],[120.644621,23.768667],[120.644023,23.769879],[120.643361,23.77066],[120.643093,23.771229],[120.642446,23.771917],[120.642067,23.772108],[120.641728,23.772166],[120.641376,23.772369],[120.641277,23.772301],[120.641153,23.772341],[120.641286,23.771421],[120.641166,23.770624],[120.641403,23.770714],[120.641414,23.770501],[120.641659,23.77008],[120.642102,23.769954],[120.642083,23.769605],[120.642195,23.769373],[120.642037,23.768878],[120.641711,23.768709],[120.641277,23.768948],[120.641065,23.768986],[120.640918,23.768874],[120.641019,23.768743],[120.640795,23.768513],[120.640891,23.768389],[120.640702,23.768293],[120.640602,23.768326],[120.64051,23.768495],[120.640254,23.768364],[120.640311,23.767694],[120.640047,23.767576],[120.639974,23.767471],[120.639788,23.767447],[120.639518,23.767584],[120.639359,23.767453],[120.639475,23.76708],[120.63937,23.767095],[120.639263,23.766935],[120.639533,23.766701],[120.639177,23.766393],[120.638716,23.766251],[120.638723,23.766195],[120.638963,23.766115],[120.639928,23.766366],[120.640061,23.76651],[120.640602,23.766674],[120.640725,23.76683],[120.64082,23.766802],[120.641441,23.767209],[120.64166,23.767047],[120.641661,23.766922],[120.641362,23.766868],[120.641201,23.766665],[120.640949,23.766672],[120.640653,23.766497],[120.640674,23.766321],[120.640788,23.766331],[120.640826,23.766253],[120.640739,23.765977],[120.640616,23.765965],[120.640532,23.766047],[120.640351,23.766015],[120.640235,23.765815],[120.64,23.765644],[120.639809,23.765668],[120.639612,23.765531],[120.639458,23.765124],[120.639134,23.764965],[120.63838,23.763922],[120.638543,23.763384],[120.638727,23.763117],[120.638674,23.763374],[120.638769,23.763564],[120.638834,23.763558],[120.638925,23.763138],[120.639109,23.762846],[120.639231,23.762833],[120.639398,23.762963],[120.639455,23.762892],[120.639321,23.762555],[120.639379,23.762521],[120.63921,23.762425],[120.639179,23.762293],[120.63928,23.761557],[120.639243,23.761245],[120.63939,23.761258],[120.639621,23.761153],[120.640647,23.761923],[120.641088,23.762001],[120.641487,23.762224],[120.641628,23.762481],[120.642006,23.762494],[120.642224,23.762249],[120.642197,23.76196],[120.641973,23.761834],[120.641968,23.761657],[120.64176,23.761353],[120.641742,23.761133],[120.641992,23.760319],[120.641902,23.760225],[120.641728,23.760227],[120.641458,23.760345],[120.641348,23.760327],[120.641511,23.759857],[120.641383,23.759613],[120.641645,23.759409],[120.641697,23.759258],[120.642095,23.759126],[120.642352,23.758933],[120.642415,23.759004],[120.642581,23.759011],[120.642947,23.759289],[120.643101,23.759858],[120.643396,23.760007],[120.643692,23.75976],[120.643433,23.759497],[120.643351,23.759186],[120.643396,23.758699],[120.643634,23.75875],[120.643835,23.758944],[120.644073,23.759005],[120.64418,23.758885],[120.644063,23.758644],[120.643548,23.758407],[120.64321,23.75795],[120.643132,23.757923],[120.642958,23.758162],[120.642059,23.757588],[120.641588,23.756731],[120.641198,23.756231],[120.641259,23.756154],[120.640871,23.755941],[120.639934,23.755891],[120.639549,23.755676],[120.639304,23.755645],[120.639157,23.755401],[120.638923,23.755303],[120.638864,23.754924],[120.638927,23.754587],[120.639196,23.754566],[120.639535,23.75441],[120.640276,23.754521],[120.640308,23.754301],[120.640416,23.754255],[120.640445,23.753999],[120.640596,23.753954],[120.6409,23.753485],[120.640842,23.753255],[120.640672,23.753117],[120.6408,23.75297],[120.640829,23.752676],[120.639732,23.752471],[120.639497,23.75216],[120.639153,23.752125],[120.63897,23.751862],[120.639612,23.751372],[120.639446,23.750884],[120.639591,23.750833],[120.640774,23.751037],[120.640917,23.751189],[120.641249,23.751326],[120.641358,23.751235],[120.641299,23.750612],[120.640618,23.75023],[120.640504,23.750022],[120.640115,23.749803],[120.640048,23.749484],[120.639603,23.74904],[120.639501,23.748486],[120.639777,23.748087],[120.640608,23.747639],[120.640743,23.747719],[120.640682,23.747853],[120.64096,23.748032],[120.640929,23.747802],[120.640364,23.747217],[120.64021,23.746571],[120.640066,23.74641],[120.640092,23.746244],[120.640155,23.746121],[120.640829,23.74572],[120.6413,23.7457],[120.641534,23.745448],[120.641709,23.745029],[120.64153,23.744999],[120.642056,23.744469],[120.642326,23.743619],[120.643084,23.743047],[120.643319,23.742745],[120.643529,23.74198],[120.644153,23.741442],[120.644439,23.739648],[120.644384,23.739237],[120.644746,23.738421],[120.644392,23.737253],[120.643939,23.736577],[120.64386,23.736173],[120.643926,23.735905]],[[120.647704,23.748186],[120.648953,23.747861],[120.648866,23.747262],[120.648431,23.746695],[120.648439,23.746045],[120.648844,23.745348],[120.648852,23.744746],[120.649094,23.744268],[120.648971,23.7435],[120.649083,23.743325],[120.649139,23.742885],[120.649633,23.742045],[120.649685,23.741577],[120.649794,23.74141],[120.649955,23.741613],[120.650097,23.741619],[120.650097,23.741726],[120.650328,23.741832],[120.650361,23.741495],[120.650143,23.741341],[120.650276,23.741154],[120.650409,23.741196],[120.650473,23.740961],[120.650199,23.740705],[120.650538,23.740172],[120.650286,23.739942],[120.649317,23.740438],[120.649039,23.740749],[120.648247,23.740989],[120.648086,23.741275],[120.648752,23.741635],[120.648684,23.741754],[120.648766,23.741843],[120.648675,23.741994],[120.648157,23.742033],[120.64756,23.741215],[120.647166,23.741265],[120.646299,23.7424],[120.645675,23.742971],[120.646056,23.743397],[120.645985,23.743772],[120.646745,23.744139],[120.646807,23.744393],[120.646763,23.744638],[120.6469,23.744832],[120.646766,23.745047],[120.646952,23.745309],[120.647012,23.745258],[120.647114,23.74545],[120.646853,23.745834],[120.646915,23.745944],[120.646813,23.746598],[120.64667,23.746554],[120.646657,23.746614],[120.64677,23.746874],[120.646845,23.746853],[120.646937,23.746949],[120.646887,23.747007],[120.646965,23.747072],[120.647093,23.746971],[120.647312,23.747187],[120.647256,23.747498],[120.647398,23.74766],[120.647342,23.747698],[120.647363,23.747876],[120.647544,23.747865],[120.647704,23.748186]],[[120.646166,23.758092],[120.647034,23.758229],[120.647362,23.758597],[120.64789,23.758681],[120.647982,23.758514],[120.647897,23.758451],[120.647894,23.758266],[120.646302,23.757263],[120.645952,23.75786],[120.646166,23.758092]],[[120.645354,23.754612],[120.645441,23.754692],[120.645529,23.754281],[120.645664,23.754174],[120.645835,23.754221],[120.645831,23.754052],[120.645998,23.754081],[120.645964,23.753744],[120.645772,23.753472],[120.645339,23.753085],[120.644684,23.753088],[120.644704,23.753506],[120.644977,23.753769],[120.645045,23.754102],[120.645285,23.754081],[120.645354,23.754612]],[[120.64711,23.753539],[120.64749,23.753332],[120.647428,23.753138],[120.647527,23.753067],[120.647548,23.752642],[120.647181,23.752147],[120.646708,23.752389],[120.64651,23.752387],[120.646106,23.752101],[120.645933,23.752259],[120.645846,23.752902],[120.645715,23.752995],[120.645771,23.753073],[120.646017,23.752796],[120.646126,23.752602],[120.64614,23.75231],[120.646314,23.752376],[120.646541,23.752543],[120.64711,23.753539]],[[120.640564,23.763784],[120.640742,23.763816],[120.640613,23.763497],[120.640851,23.763586],[120.64086,23.763437],[120.641132,23.763301],[120.641232,23.763149],[120.641194,23.763015],[120.641296,23.763027],[120.641277,23.76282],[120.641003,23.76275],[120.640632,23.762364],[120.640282,23.762447],[120.640145,23.762563],[120.640166,23.762995],[120.640324,23.763104],[120.640437,23.763373],[120.64033,23.763461],[120.640564,23.763784]],[[120.64333,23.753512],[120.643264,23.753538],[120.643284,23.753731],[120.643397,23.75389],[120.644277,23.754027],[120.644256,23.753463],[120.644132,23.753381],[120.643894,23.753408],[120.643479,23.75316],[120.643419,23.753001],[120.643487,23.752805],[120.643334,23.752681],[120.64333,23.753512]],[[120.645777,23.755158],[120.645803,23.755388],[120.646657,23.755653],[120.646764,23.755148],[120.646698,23.755046],[120.646489,23.754991],[120.646173,23.755253],[120.645934,23.755103],[120.645777,23.755158]],[[120.643895,23.752753],[120.644128,23.752466],[120.644395,23.751841],[120.643907,23.751924],[120.643798,23.752209],[120.643399,23.752599],[120.643471,23.752675],[120.643699,23.752574],[120.643895,23.752753]],[[120.648817,23.746652],[120.64883,23.746861],[120.649039,23.747013],[120.64906,23.74714],[120.649585,23.746952],[120.649258,23.746363],[120.648899,23.746499],[120.648817,23.746652]],[[120.641504,23.751478],[120.641322,23.751622],[120.64189,23.752146],[120.642003,23.752306],[120.641971,23.752541],[120.642179,23.752783],[120.642247,23.752765],[120.642358,23.752553],[120.642231,23.752295],[120.642072,23.752184],[120.641796,23.75171],[120.641504,23.751478]],[[120.641306,23.750209],[120.641776,23.750184],[120.641774,23.750096],[120.642139,23.750029],[120.642513,23.750062],[120.642506,23.750168],[120.642641,23.750161],[120.642693,23.749942],[120.642657,23.749868],[120.642521,23.749925],[120.642443,23.749862],[120.64195,23.749986],[120.641593,23.749975],[120.641251,23.749835],[120.641393,23.749699],[120.641191,23.749632],[120.640947,23.749699],[120.641306,23.750209]],[[120.642797,23.7567],[120.643278,23.756583],[120.643528,23.756389],[120.643391,23.756239],[120.642604,23.756589],[120.64248,23.756712],[120.642329,23.756721],[120.642187,23.756944],[120.642473,23.757051],[120.642797,23.7567]],[[120.644324,23.760855],[120.644977,23.761429],[120.645009,23.761196],[120.644839,23.761092],[120.644765,23.760818],[120.644395,23.760747],[120.644225,23.760498],[120.644009,23.760487],[120.643874,23.760566],[120.643997,23.760817],[120.644324,23.760855]],[[120.640436,23.74905],[120.640337,23.749026],[120.640378,23.748939],[120.640029,23.74863],[120.639916,23.748749],[120.640046,23.749267],[120.640205,23.74928],[120.640612,23.749647],[120.640436,23.74905]],[[120.645912,23.751814],[120.646231,23.751948],[120.646396,23.75182],[120.646494,23.751607],[120.646372,23.751496],[120.64616,23.751618],[120.645759,23.751626],[120.645791,23.751809],[120.645657,23.752095],[120.645832,23.752103],[120.645912,23.751814]],[[120.643291,23.757379],[120.643466,23.75736],[120.64337,23.757043],[120.64305,23.756977],[120.642734,23.75701],[120.642833,23.757286],[120.643052,23.757292],[120.643229,23.757457],[120.643291,23.757379]],[[120.640902,23.749055],[120.640805,23.749216],[120.640976,23.749509],[120.641173,23.749357],[120.641273,23.749406],[120.641529,23.749348],[120.641299,23.749156],[120.640902,23.749055]],[[120.643215,23.753634],[120.643008,23.753533],[120.642515,23.753628],[120.642489,23.75372],[120.642658,23.753789],[120.642722,23.753693],[120.643003,23.753623],[120.643209,23.753693],[120.643215,23.753634]],[[120.64111,23.750073],[120.640898,23.749855],[120.640871,23.749925],[120.64111,23.750073]]]]}}
]
}
